<?xml version='1.0' encoding='utf-8'?>
<q:quakeml xmlns="http://quakeml.org/xmlns/bed/1.2" xmlns:q="http://quakeml.org/xmlns/quakeml/1.2">
  <eventParameters publicID="smi:local/dc8546d4-9dd4-42c5-9e1e-f47af3c4caee">
    <event publicID="smi:local/20150723_035656.a">
      <origin publicID="smi:local/ndk/C201507230356A/origin#cmtorigin">
        <time>
          <value>2015-07-23T03:56:56.800000Z</value>
        </time>
        <latitude>
          <value>-0.6</value>
        </latitude>
        <longitude>
          <value>-21.05</value>
        </longitude>
        <depth>
          <value>25.3</value>
        </depth>
      </origin>
      <magnitude publicID="smi:local/d8b3f853-fbb5-402b-accd-09f849388251">
        <mag>
          <value>5.62</value>
        </mag>
        <type>Mwc</type>
        <originID>smi:local/ndk/C201507230356A/origin#cmtorigin</originID>
      </magnitude>
      <pick publicID="smi:local/eec04222-9870-41d9-b00c-54b168f210ad">
        <time>
          <value>2015-07-23T04:13:32.871086Z</value>
          <uncertainty>0.9769833436809294</uncertainty>
          <lowerUncertainty>0.9769833436809294</lowerUncertainty>
          <upperUncertainty>0.9769833436809294</upperUncertainty>
        </time>
        <waveformID networkCode="FR" stationCode="OG35"></waveformID>
        <methodID>smi:local/auto</methodID>
        <phaseHint>S</phaseHint>
      </pick>
      <pick publicID="smi:local/2a5e61a5-f42f-42d0-b3a9-bc3b7f718440">
        <time>
          <value>2015-07-23T04:14:16.479086Z</value>
          <uncertainty>1.4099834479589994</uncertainty>
          <lowerUncertainty>1.4099834479589994</lowerUncertainty>
          <upperUncertainty>1.4099834479589994</upperUncertainty>
        </time>
        <waveformID networkCode="NI" stationCode="MPRI"></waveformID>
        <methodID>smi:local/auto</methodID>
        <phaseHint>S</phaseHint>
      </pick>
      <pick publicID="smi:local/a1e40314-4419-4a34-967e-a642516197a0">
        <time>
          <value>2015-07-23T04:13:21.619069Z</value>
          <uncertainty>1.2238128677899283</uncertainty>
          <lowerUncertainty>1.2238128677899283</lowerUncertainty>
          <upperUncertainty>1.2238128677899283</upperUncertainty>
        </time>
        <waveformID networkCode="GU" stationCode="IMI"></waveformID>
        <methodID>smi:local/auto</methodID>
        <phaseHint>S</phaseHint>
      </pick>
      <pick publicID="smi:local/944e73c4-a3a0-44f5-9205-c57e2ee22472">
        <time>
          <value>2015-07-23T04:13:54.236776Z</value>
          <uncertainty>1.4255569302736233</uncertainty>
          <lowerUncertainty>1.4255569302736233</lowerUncertainty>
          <upperUncertainty>1.4255569302736233</upperUncertainty>
        </time>
        <waveformID networkCode="CH" stationCode="NALPS"></waveformID>
        <methodID>smi:local/auto</methodID>
        <phaseHint>S</phaseHint>
      </pick>
      <pick publicID="smi:local/fcff2921-00e1-4992-9684-02daa80f71f2">
        <time>
          <value>2015-07-23T04:13:42.591711Z</value>
          <uncertainty>0.5901512040753615</uncertainty>
          <lowerUncertainty>0.5901512040753615</lowerUncertainty>
          <upperUncertainty>0.5901512040753615</upperUncertainty>
        </time>
        <waveformID networkCode="MN" stationCode="AQU"></waveformID>
        <methodID>smi:local/auto</methodID>
        <phaseHint>S</phaseHint>
      </pick>
      <pick publicID="smi:local/7f891197-8ce3-4a4b-bd44-5db0f18f250b">
        <time>
          <value>2015-07-23T04:13:34.023645Z</value>
          <uncertainty>2.9620648232869287</uncertainty>
          <lowerUncertainty>2.9620648232869287</lowerUncertainty>
          <upperUncertainty>2.9620648232869287</upperUncertainty>
        </time>
        <waveformID networkCode="YI" stationCode="SG10"></waveformID>
        <methodID>smi:local/auto</methodID>
        <phaseHint>S</phaseHint>
      </pick>
      <pick publicID="smi:local/7456fb7f-1025-4341-83a6-de052e5b8924">
        <time>
          <value>2015-07-23T04:13:55.286803Z</value>
          <uncertainty>1.935363403750562</uncertainty>
          <lowerUncertainty>1.935363403750562</lowerUncertainty>
          <upperUncertainty>1.935363403750562</upperUncertainty>
        </time>
        <waveformID networkCode="IV" stationCode="MAGA"></waveformID>
        <methodID>smi:local/auto</methodID>
        <phaseHint>S</phaseHint>
      </pick>
      <pick publicID="smi:local/cf3f885c-95b0-4407-b5c7-6ce32003cab1">
        <time>
          <value>2015-07-23T04:14:16.800686Z</value>
          <uncertainty>0.9019333373751646</uncertainty>
          <lowerUncertainty>0.9019333373751646</lowerUncertainty>
          <upperUncertainty>0.9019333373751646</upperUncertainty>
        </time>
        <waveformID networkCode="GE" stationCode="WLF"></waveformID>
        <methodID>smi:local/auto</methodID>
        <phaseHint>S</phaseHint>
      </pick>
      <pick publicID="smi:local/5a4c7dfb-7d00-4a39-8d23-9398af37ef1b">
        <time>
          <value>2015-07-23T04:13:46.624455Z</value>
          <uncertainty>0.42476349844668276</uncertainty>
          <lowerUncertainty>0.42476349844668276</lowerUncertainty>
          <upperUncertainty>0.42476349844668276</upperUncertainty>
        </time>
        <waveformID networkCode="IV" stationCode="FDMO"></waveformID>
        <methodID>smi:local/auto</methodID>
        <phaseHint>S</phaseHint>
      </pick>
      <pick publicID="smi:local/8bae275a-3db3-401a-a8fb-d326dc94fa2f">
        <time>
          <value>2015-07-23T04:14:05.830647Z</value>
          <uncertainty>0.7931197073452599</uncertainty>
          <lowerUncertainty>0.7931197073452599</lowerUncertainty>
          <upperUncertainty>0.7931197073452599</upperUncertainty>
        </time>
        <waveformID networkCode="CH" stationCode="SGT04"></waveformID>
        <methodID>smi:local/auto</methodID>
        <phaseHint>S</phaseHint>
      </pick>
      <pick publicID="smi:local/803c82cd-60c2-469a-8e1d-4caca87db626">
        <time>
          <value>2015-07-23T04:13:06.169104Z</value>
          <uncertainty>2.52747228942168</uncertainty>
          <lowerUncertainty>2.52747228942168</lowerUncertainty>
          <upperUncertainty>2.52747228942168</upperUncertainty>
        </time>
        <waveformID networkCode="FR" stationCode="ARTF"></waveformID>
        <methodID>smi:local/auto</methodID>
        <phaseHint>S</phaseHint>
      </pick>
      <pick publicID="smi:local/f08046e9-1b87-48c4-a1ce-0ef58ef31fda">
        <time>
          <value>2015-07-23T04:14:19.171253Z</value>
          <uncertainty>0.4517247437393805</uncertainty>
          <lowerUncertainty>0.4517247437393805</lowerUncertainty>
          <upperUncertainty>0.4517247437393805</upperUncertainty>
        </time>
        <waveformID networkCode="NI" stationCode="CLUD"></waveformID>
        <methodID>smi:local/auto</methodID>
        <phaseHint>S</phaseHint>
      </pick>
      <pick publicID="smi:local/a04f77ef-0e50-48dd-a09e-544d894138a5">
        <time>
          <value>2015-07-23T04:13:32.675180Z</value>
          <uncertainty>1.122985125060523</uncertainty>
          <lowerUncertainty>1.122985125060523</lowerUncertainty>
          <upperUncertainty>1.122985125060523</upperUncertainty>
        </time>
        <waveformID networkCode="GU" stationCode="RSP"></waveformID>
        <methodID>smi:local/auto</methodID>
        <phaseHint>S</phaseHint>
      </pick>
      <pick publicID="smi:local/e54b3a96-843e-412f-a305-44ba2fc36425">
        <time>
          <value>2015-07-23T04:14:19.670335Z</value>
          <uncertainty>0.5977234145662464</uncertainty>
          <lowerUncertainty>0.5977234145662464</lowerUncertainty>
          <upperUncertainty>0.5977234145662464</upperUncertainty>
        </time>
        <waveformID networkCode="XT" stationCode="AAE50"></waveformID>
        <methodID>smi:local/auto</methodID>
        <phaseHint>S</phaseHint>
      </pick>
      <pick publicID="smi:local/d8f78a92-03e9-4948-9bf1-1b54693cd3ea">
        <time>
          <value>2015-07-23T04:14:05.382790Z</value>
          <uncertainty>0.5973453531035899</uncertainty>
          <lowerUncertainty>0.5973453531035899</lowerUncertainty>
          <upperUncertainty>0.5973453531035899</upperUncertainty>
        </time>
        <waveformID networkCode="CH" stationCode="SGT03"></waveformID>
        <methodID>smi:local/auto</methodID>
        <phaseHint>S</phaseHint>
      </pick>
      <pick publicID="smi:local/3375f2df-abf4-4fa4-828e-069fce65e230">
        <time>
          <value>2015-07-23T04:13:39.255250Z</value>
          <uncertainty>0.7538363565779953</uncertainty>
          <lowerUncertainty>0.7538363565779953</lowerUncertainty>
          <upperUncertainty>0.7538363565779953</upperUncertainty>
        </time>
        <waveformID networkCode="IV" stationCode="MGAB"></waveformID>
        <methodID>smi:local/auto</methodID>
        <phaseHint>S</phaseHint>
      </pick>
      <pick publicID="smi:local/0f7e84c7-72e9-4bd5-9298-e9bdba83b6dc">
        <time>
          <value>2015-07-23T04:14:58.029474Z</value>
          <uncertainty>0.8636779057518834</uncertainty>
          <lowerUncertainty>0.8636779057518834</lowerUncertainty>
          <upperUncertainty>0.8636779057518834</upperUncertainty>
        </time>
        <waveformID networkCode="TH" stationCode="PLN"></waveformID>
        <methodID>smi:local/auto</methodID>
        <phaseHint>S</phaseHint>
      </pick>
      <pick publicID="smi:local/f20136df-1a54-4169-aea4-eaea09583e71">
        <time>
          <value>2015-07-23T04:14:01.800374Z</value>
          <uncertainty>0.8469681237300923</uncertainty>
          <lowerUncertainty>0.8469681237300923</lowerUncertainty>
          <upperUncertainty>0.8469681237300923</upperUncertainty>
        </time>
        <waveformID networkCode="CH" stationCode="SULZ"></waveformID>
        <methodID>smi:local/auto</methodID>
        <phaseHint>S</phaseHint>
      </pick>
      <pick publicID="smi:local/24021635-c04f-4a45-8416-beab7abc91ec">
        <time>
          <value>2015-07-23T04:14:51.635801Z</value>
          <uncertainty>0.5840538534201227</uncertainty>
          <lowerUncertainty>0.5840538534201227</lowerUncertainty>
          <upperUncertainty>0.5840538534201227</upperUncertainty>
        </time>
        <waveformID networkCode="TH" stationCode="BBWF"></waveformID>
        <methodID>smi:local/auto</methodID>
        <phaseHint>S</phaseHint>
      </pick>
      <pick publicID="smi:local/1a406599-3289-429c-b6d3-9f2aa0b36b21">
        <time>
          <value>2015-07-23T04:13:14.219859Z</value>
          <uncertainty>1.4954317237054011</uncertainty>
          <lowerUncertainty>1.4954317237054011</lowerUncertainty>
          <upperUncertainty>1.4954317237054011</upperUncertainty>
        </time>
        <waveformID networkCode="FR" stationCode="CALF"></waveformID>
        <methodID>smi:local/auto</methodID>
        <phaseHint>S</phaseHint>
      </pick>
      <pick publicID="smi:local/e560cff8-bfe1-4cd8-89c2-9b3d5f96317f">
        <time>
          <value>2015-07-23T04:13:38.620252Z</value>
          <uncertainty>1.10165406977547</uncertainty>
          <lowerUncertainty>1.10165406977547</lowerUncertainty>
          <upperUncertainty>1.10165406977547</upperUncertainty>
        </time>
        <waveformID networkCode="GU" stationCode="MAIM"></waveformID>
        <methodID>smi:local/auto</methodID>
        <phaseHint>S</phaseHint>
      </pick>
      <pick publicID="smi:local/d845689d-e1db-4060-9d16-2f9866eb812d">
        <time>
          <value>2015-07-23T04:14:32.989589Z</value>
          <uncertainty>0.9106962399853396</uncertainty>
          <lowerUncertainty>0.9106962399853396</lowerUncertainty>
          <upperUncertainty>0.9106962399853396</upperUncertainty>
        </time>
        <waveformID networkCode="XT" stationCode="AAE35"></waveformID>
        <methodID>smi:local/auto</methodID>
        <phaseHint>S</phaseHint>
      </pick>
      <pick publicID="smi:local/15bf268e-fd72-44a8-9662-5990d51378f8">
        <time>
          <value>2015-07-23T04:13:33.590888Z</value>
          <uncertainty>1.1566229741569494</uncertainty>
          <lowerUncertainty>1.1566229741569494</lowerUncertainty>
          <upperUncertainty>1.1566229741569494</upperUncertainty>
        </time>
        <waveformID networkCode="GU" stationCode="PCP"></waveformID>
        <methodID>smi:local/auto</methodID>
        <phaseHint>S</phaseHint>
      </pick>
      <pick publicID="smi:local/a2df5041-f2e1-419c-a092-59a10dd6d607">
        <time>
          <value>2015-07-23T04:14:06.378098Z</value>
          <uncertainty>2.919127271785707</uncertainty>
          <lowerUncertainty>2.919127271785707</lowerUncertainty>
          <upperUncertainty>2.919127271785707</upperUncertainty>
        </time>
        <waveformID networkCode="IV" stationCode="CTI"></waveformID>
        <methodID>smi:local/auto</methodID>
        <phaseHint>S</phaseHint>
      </pick>
      <pick publicID="smi:local/70eb8311-dee5-4d64-89c3-4d3427d84502">
        <time>
          <value>2015-07-23T04:14:35.395822Z</value>
          <uncertainty>0.3934843976438708</uncertainty>
          <lowerUncertainty>0.3934843976438708</lowerUncertainty>
          <upperUncertainty>0.3934843976438708</upperUncertainty>
        </time>
        <waveformID networkCode="GR" stationCode="GRC3"></waveformID>
        <methodID>smi:local/auto</methodID>
        <phaseHint>S</phaseHint>
      </pick>
      <pick publicID="smi:local/9a7d99e4-2e35-4b17-9fd8-2e58b0ac7436">
        <time>
          <value>2015-07-23T04:14:37.540648Z</value>
          <uncertainty>0.49921570545888405</uncertainty>
          <lowerUncertainty>0.49921570545888405</lowerUncertainty>
          <upperUncertainty>0.49921570545888405</upperUncertainty>
        </time>
        <waveformID networkCode="GR" stationCode="GRC4"></waveformID>
        <methodID>smi:local/auto</methodID>
        <phaseHint>S</phaseHint>
      </pick>
      <pick publicID="smi:local/d7532f15-3fce-4326-9736-25b0d0957067">
        <time>
          <value>2015-07-23T04:13:45.305932Z</value>
          <uncertainty>1.6721055136760392</uncertainty>
          <lowerUncertainty>1.6721055136760392</lowerUncertainty>
          <upperUncertainty>1.6721055136760392</upperUncertainty>
        </time>
        <waveformID networkCode="IV" stationCode="CESI"></waveformID>
        <methodID>smi:local/auto</methodID>
        <phaseHint>S</phaseHint>
      </pick>
      <pick publicID="smi:local/d066e9fa-66c5-4b1a-ac74-d1a6cf1f887c">
        <time>
          <value>2015-07-23T04:13:10.357577Z</value>
          <uncertainty>1.2901793007126108</uncertainty>
          <lowerUncertainty>1.2901793007126108</lowerUncertainty>
          <upperUncertainty>1.2901793007126108</upperUncertainty>
        </time>
        <waveformID networkCode="FR" stationCode="MLYF"></waveformID>
        <methodID>smi:local/auto</methodID>
        <phaseHint>S</phaseHint>
      </pick>
      <pick publicID="smi:local/46bd8e9b-c021-4800-892b-d6456dc38746">
        <time>
          <value>2015-07-23T04:14:55.521269Z</value>
          <uncertainty>1.050661488569845</uncertainty>
          <lowerUncertainty>1.050661488569845</lowerUncertainty>
          <upperUncertainty>1.050661488569845</upperUncertainty>
        </time>
        <waveformID networkCode="TH" stationCode="HWTS"></waveformID>
        <methodID>smi:local/auto</methodID>
        <phaseHint>S</phaseHint>
      </pick>
      <pick publicID="smi:local/5dd443c7-94e5-4542-815b-8a317b8e913e">
        <time>
          <value>2015-07-23T04:14:21.278768Z</value>
          <uncertainty>0.3675406457222979</uncertainty>
          <lowerUncertainty>0.3675406457222979</lowerUncertainty>
          <upperUncertainty>0.3675406457222979</upperUncertainty>
        </time>
        <waveformID networkCode="XT" stationCode="AAE48"></waveformID>
        <methodID>smi:local/auto</methodID>
        <phaseHint>S</phaseHint>
      </pick>
      <pick publicID="smi:local/cf325a26-a3b8-4844-a572-954c61c55d87">
        <time>
          <value>2015-07-23T04:14:14.927849Z</value>
          <uncertainty>0.5341244799569832</uncertainty>
          <lowerUncertainty>0.5341244799569832</lowerUncertainty>
          <upperUncertainty>0.5341244799569832</upperUncertainty>
        </time>
        <waveformID networkCode="XT" stationCode="AAE54"></waveformID>
        <methodID>smi:local/auto</methodID>
        <phaseHint>S</phaseHint>
      </pick>
      <pick publicID="smi:local/e10fc26c-f77d-4f53-85d2-1280590fba62">
        <time>
          <value>2015-07-23T04:14:16.870865Z</value>
          <uncertainty>0.5202982384910582</uncertainty>
          <lowerUncertainty>0.5202982384910582</lowerUncertainty>
          <upperUncertainty>0.5202982384910582</upperUncertainty>
        </time>
        <waveformID networkCode="XT" stationCode="AAE53"></waveformID>
        <methodID>smi:local/auto</methodID>
        <phaseHint>S</phaseHint>
      </pick>
      <pick publicID="smi:local/9db50bc7-34ac-4ed2-a3ce-43f6f0379021">
        <time>
          <value>2015-07-23T04:14:56.603854Z</value>
          <uncertainty>0.5673411076828112</uncertainty>
          <lowerUncertainty>0.5673411076828112</lowerUncertainty>
          <upperUncertainty>0.5673411076828112</upperUncertainty>
        </time>
        <waveformID networkCode="GR" stationCode="MOX"></waveformID>
        <methodID>smi:local/auto</methodID>
        <phaseHint>S</phaseHint>
      </pick>
      <pick publicID="smi:local/b1da97e2-7343-4b53-8c95-8b5dc0007ccc">
        <time>
          <value>2015-07-23T04:14:47.219335Z</value>
          <uncertainty>0.7330840239382422</uncertainty>
          <lowerUncertainty>0.7330840239382422</lowerUncertainty>
          <upperUncertainty>0.7330840239382422</upperUncertainty>
        </time>
        <waveformID networkCode="XT" stationCode="AAE18"></waveformID>
        <methodID>smi:local/auto</methodID>
        <phaseHint>S</phaseHint>
      </pick>
      <pick publicID="smi:local/667498b5-f55a-4e7d-bee7-bb208e06d557">
        <time>
          <value>2015-07-23T04:13:51.477149Z</value>
          <uncertainty>0.8639151724176304</uncertainty>
          <lowerUncertainty>0.8639151724176304</lowerUncertainty>
          <upperUncertainty>0.8639151724176304</upperUncertainty>
        </time>
        <waveformID networkCode="FR" stationCode="CHMF"></waveformID>
        <methodID>smi:local/auto</methodID>
        <phaseHint>S</phaseHint>
      </pick>
      <pick publicID="smi:local/396e9a46-bff4-4a82-bd03-3eeccae01d5a">
        <time>
          <value>2015-07-23T04:13:33.881135Z</value>
          <uncertainty>0.9775926706125719</uncertainty>
          <lowerUncertainty>0.9775926706125719</lowerUncertainty>
          <upperUncertainty>0.9775926706125719</upperUncertainty>
        </time>
        <waveformID networkCode="IV" stationCode="MTCE"></waveformID>
        <methodID>smi:local/auto</methodID>
        <phaseHint>S</phaseHint>
      </pick>
      <pick publicID="smi:local/0d567b7f-d3b3-49b4-873a-7bc0c2497716">
        <time>
          <value>2015-07-23T04:15:21.839115Z</value>
          <uncertainty>0.854049023790209</uncertainty>
          <lowerUncertainty>0.854049023790209</lowerUncertainty>
          <upperUncertainty>0.854049023790209</upperUncertainty>
        </time>
        <waveformID networkCode="CZ" stationCode="MORC"></waveformID>
        <methodID>smi:local/auto</methodID>
        <phaseHint>S</phaseHint>
      </pick>
      <pick publicID="smi:local/7d3978e9-ade5-43ae-9c37-28e840c54d68">
        <time>
          <value>2015-07-23T04:13:36.001738Z</value>
          <uncertainty>1.9339559628928351</uncertainty>
          <lowerUncertainty>1.9339559628928351</lowerUncertainty>
          <upperUncertainty>1.9339559628928351</upperUncertainty>
        </time>
        <waveformID networkCode="IV" stationCode="GUAR"></waveformID>
        <methodID>smi:local/auto</methodID>
