<?xml version='1.0' encoding='utf-8'?>
<q:quakeml xmlns="http://quakeml.org/xmlns/bed/1.2" xmlns:q="http://quakeml.org/xmlns/quakeml/1.2">
  <eventParameters publicID="smi:local/b7f1b04f-ab43-44e3-b839-a0732dc4bfe2">
    <event publicID="smi:local/20150604_231546.a">
      <origin publicID="smi:local/ndk/C201506042315A/origin#cmtorigin">
        <time>
          <value>2015-06-04T23:15:46.600000Z</value>
        </time>
        <latitude>
          <value>6.17</value>
        </latitude>
        <longitude>
          <value>116.65</value>
        </longitude>
        <depth>
          <value>12.3</value>
        </depth>
      </origin>
      <magnitude publicID="smi:local/996acd6e-dd52-4698-8f53-1022442bc31b">
        <mag>
          <value>5.99</value>
        </mag>
        <type>Mwc</type>
        <originID>smi:local/ndk/C201506042315A/origin#cmtorigin</originID>
      </magnitude>
      <pick publicID="smi:local/64d77e2d-35dd-4cc9-95bb-93ff8908af7b">
        <time>
          <value>2015-06-04T23:39:35.975678Z</value>
          <uncertainty>0.7916961774888995</uncertainty>
          <lowerUncertainty>0.7916961774888995</lowerUncertainty>
          <upperUncertainty>0.7916961774888995</upperUncertainty>
        </time>
        <waveformID networkCode="XT" stationCode="AAE43"></waveformID>
        <methodID>smi:local/auto</methodID>
        <phaseHint>SKS</phaseHint>
      </pick>
      <pick publicID="smi:local/e2c59b6b-ea9d-46da-9bd9-2d1a2b09f350">
        <time>
          <value>2015-06-04T23:39:51.107278Z</value>
          <uncertainty>0.9171368365003568</uncertainty>
          <lowerUncertainty>0.9171368365003568</lowerUncertainty>
          <upperUncertainty>0.9171368365003568</upperUncertainty>
        </time>
        <waveformID networkCode="GU" stationCode="MAIM"></waveformID>
        <methodID>smi:local/auto</methodID>
        <phaseHint>SKS</phaseHint>
      </pick>
      <pick publicID="smi:local/14eab3db-231c-4b36-b786-eb35c4a0f43c">
        <time>
          <value>2015-06-04T23:39:38.554471Z</value>
          <uncertainty>0.6401746341014284</uncertainty>
          <lowerUncertainty>0.6401746341014284</lowerUncertainty>
          <upperUncertainty>0.6401746341014284</upperUncertainty>
        </time>
        <waveformID networkCode="XT" stationCode="AAE08"></waveformID>
        <methodID>smi:local/auto</methodID>
        <phaseHint>SKS</phaseHint>
      </pick>
      <pick publicID="smi:local/128a4f12-f99d-4b6d-a0a1-cb5578731558">
        <time>
          <value>2015-06-04T23:39:55.866659Z</value>
          <uncertainty>1.0193932426378811</uncertainty>
          <lowerUncertainty>1.0193932426378811</lowerUncertainty>
          <upperUncertainty>1.0193932426378811</upperUncertainty>
        </time>
        <waveformID networkCode="CH" stationCode="EMMET"></waveformID>
        <methodID>smi:local/auto</methodID>
        <phaseHint>SKS</phaseHint>
      </pick>
      <pick publicID="smi:local/ec9c7c34-1995-4213-946e-7ed56e1dd445">
        <time>
          <value>2015-06-04T23:40:00.472622Z</value>
          <uncertainty>0.4767967514810817</uncertainty>
          <lowerUncertainty>0.4767967514810817</lowerUncertainty>
          <upperUncertainty>0.4767967514810817</upperUncertainty>
        </time>
        <waveformID networkCode="GU" stationCode="RSP"></waveformID>
        <methodID>smi:local/auto</methodID>
        <phaseHint>SKS</phaseHint>
      </pick>
      <pick publicID="smi:local/0bc3b9d3-628e-4bcf-9024-3840a5d84333">
        <time>
          <value>2015-06-04T23:40:07.913197Z</value>
          <uncertainty>0.6813426574693727</uncertainty>
          <lowerUncertainty>0.6813426574693727</lowerUncertainty>
          <upperUncertainty>0.6813426574693727</upperUncertainty>
        </time>
        <waveformID networkCode="FR" stationCode="OG35"></waveformID>
        <methodID>smi:local/auto</methodID>
        <phaseHint>SKS</phaseHint>
      </pick>
      <pick publicID="smi:local/d22a02ca-4b48-4fab-86e9-0b01bb6c4910">
        <time>
          <value>2015-06-04T23:40:00.491071Z</value>
          <uncertainty>0.3523047822853806</uncertainty>
          <lowerUncertainty>0.3523047822853806</lowerUncertainty>
          <upperUncertainty>0.3523047822853806</upperUncertainty>
        </time>
        <waveformID networkCode="CH" stationCode="VANNI"></waveformID>
        <methodID>smi:local/auto</methodID>
        <phaseHint>SKS</phaseHint>
      </pick>
      <pick publicID="smi:local/87681120-a3bf-4ef5-becf-357ef7383e87">
        <time>
          <value>2015-06-04T23:39:44.391701Z</value>
          <uncertainty>0.44513387984642316</uncertainty>
          <lowerUncertainty>0.44513387984642316</lowerUncertainty>
          <upperUncertainty>0.44513387984642316</upperUncertainty>
        </time>
        <waveformID networkCode="TH" stationCode="BBWF"></waveformID>
        <methodID>smi:local/auto</methodID>
        <phaseHint>SKS</phaseHint>
      </pick>
      <pick publicID="smi:local/be6a079f-009c-4a35-88db-fd9835755f7a">
        <time>
          <value>2015-06-04T23:39:55.685694Z</value>
          <uncertainty>0.6416599427061241</uncertainty>
          <lowerUncertainty>0.6416599427061241</lowerUncertainty>
          <upperUncertainty>0.6416599427061241</upperUncertainty>
        </time>
        <waveformID networkCode="CH" stationCode="SULZ"></waveformID>
        <methodID>smi:local/auto</methodID>
        <phaseHint>SKS</phaseHint>
      </pick>
      <pick publicID="smi:local/bf5ed5e1-3c51-49b7-a3b0-d283adf308ca">
        <time>
          <value>2015-06-04T23:40:13.451226Z</value>
          <uncertainty>0.3138710224023136</uncertainty>
          <lowerUncertainty>0.3138710224023136</lowerUncertainty>
          <upperUncertainty>0.3138710224023136</upperUncertainty>
        </time>
        <waveformID networkCode="FR" stationCode="RUSF"></waveformID>
        <methodID>smi:local/auto</methodID>
        <phaseHint>SKS</phaseHint>
      </pick>
      <pick publicID="smi:local/7e3ed7ac-efe9-4ead-ae88-bb3631e396f2">
        <time>
          <value>2015-06-04T23:40:02.115950Z</value>
          <uncertainty>0.5628297863929038</uncertainty>
          <lowerUncertainty>0.5628297863929038</lowerUncertainty>
          <upperUncertainty>0.5628297863929038</upperUncertainty>
        </time>
        <waveformID networkCode="GU" stationCode="IMI"></waveformID>
        <methodID>smi:local/auto</methodID>
        <phaseHint>SKS</phaseHint>
      </pick>
      <pick publicID="smi:local/ba0cd12f-ab56-42d5-b05e-2c416916f182">
        <time>
          <value>2015-06-04T23:39:41.035452Z</value>
          <uncertainty>0.8016087954428366</uncertainty>
          <lowerUncertainty>0.8016087954428366</lowerUncertainty>
          <upperUncertainty>0.8016087954428366</upperUncertainty>
        </time>
        <waveformID networkCode="TH" stationCode="HWTS"></waveformID>
        <methodID>smi:local/auto</methodID>
        <phaseHint>SKS</phaseHint>
      </pick>
      <pick publicID="smi:local/958f5d60-14bd-4cbe-8b82-8df5b6df589d">
        <time>
          <value>2015-06-04T23:39:29.860014Z</value>
          <uncertainty>0.6452476997377374</uncertainty>
          <lowerUncertainty>0.6452476997377374</lowerUncertainty>
          <upperUncertainty>0.6452476997377374</upperUncertainty>
        </time>
        <waveformID networkCode="Z3" stationCode="A008A"></waveformID>
        <methodID>smi:local/auto</methodID>
        <phaseHint>SKS</phaseHint>
      </pick>
      <pick publicID="smi:local/5d482f55-69ab-4cfe-9a6a-e232b190fd29">
        <time>
          <value>2015-06-04T23:39:38.334779Z</value>
          <uncertainty>0.7693145200793173</uncertainty>
          <lowerUncertainty>0.7693145200793173</lowerUncertainty>
          <upperUncertainty>0.7693145200793173</upperUncertainty>
        </time>
        <waveformID networkCode="NI" stationCode="VINO"></waveformID>
        <methodID>smi:local/auto</methodID>
        <phaseHint>SKS</phaseHint>
      </pick>
      <pick publicID="smi:local/844a7e26-8f9c-4c05-a142-e2aa11a806dc">
        <time>
          <value>2015-06-04T23:39:42.818114Z</value>
          <uncertainty>0.1321442131067123</uncertainty>
          <lowerUncertainty>0.1321442131067123</lowerUncertainty>
          <upperUncertainty>0.1321442131067123</upperUncertainty>
        </time>
        <waveformID networkCode="GR" stationCode="GRC4"></waveformID>
        <methodID>smi:local/auto</methodID>
        <phaseHint>SKS</phaseHint>
      </pick>
      <pick publicID="smi:local/f5c76b46-d95a-4fb8-b935-2646b90309ca">
        <time>
          <value>2015-06-04T23:39:42.714754Z</value>
          <uncertainty>0.17615113859882445</uncertainty>
          <lowerUncertainty>0.17615113859882445</lowerUncertainty>
          <upperUncertainty>0.17615113859882445</upperUncertainty>
        </time>
        <waveformID networkCode="GR" stationCode="GRC3"></waveformID>
        <methodID>smi:local/auto</methodID>
        <phaseHint>SKS</phaseHint>
      </pick>
      <pick publicID="smi:local/319a9528-46d6-49f5-9204-aa68cea98aa3">
        <time>
          <value>2015-06-04T23:39:36.145745Z</value>
          <uncertainty>0.675599279460291</uncertainty>
          <lowerUncertainty>0.675599279460291</lowerUncertainty>
          <upperUncertainty>0.675599279460291</upperUncertainty>
        </time>
        <waveformID networkCode="XT" stationCode="AAE39"></waveformID>
        <methodID>smi:local/auto</methodID>
        <phaseHint>SKS</phaseHint>
      </pick>
      <pick publicID="smi:local/08842a72-7cc6-4367-8688-f8789f001c31">
        <time>
          <value>2015-06-04T23:40:00.583008Z</value>
          <uncertainty>0.3640963990006484</uncertainty>
          <lowerUncertainty>0.3640963990006484</lowerUncertainty>
          <upperUncertainty>0.3640963990006484</upperUncertainty>
        </time>
        <waveformID networkCode="GE" stationCode="WLF"></waveformID>
        <methodID>smi:local/auto</methodID>
        <phaseHint>SKS</phaseHint>
      </pick>
      <pick publicID="smi:local/fca40c0a-b8b9-42e7-823b-291d845615a8">
        <time>
          <value>2015-06-04T23:39:46.135769Z</value>
          <uncertainty>0.27538322582497055</uncertainty>
          <lowerUncertainty>0.27538322582497055</lowerUncertainty>
          <upperUncertainty>0.27538322582497055</upperUncertainty>
        </time>
        <waveformID networkCode="MN" stationCode="AQU"></waveformID>
        <methodID>smi:local/auto</methodID>
        <phaseHint>SKS</phaseHint>
      </pick>
      <pick publicID="smi:local/9d9dbfea-7474-4df2-94ad-d5c2bad7b792">
        <time>
          <value>2015-06-04T23:40:03.938511Z</value>
          <uncertainty>0.7684562804664457</uncertainty>
          <lowerUncertainty>0.7684562804664457</lowerUncertainty>
          <upperUncertainty>0.7684562804664457</upperUncertainty>
        </time>
        <waveformID networkCode="CH" stationCode="BRANT"></waveformID>
        <methodID>smi:local/auto</methodID>
        <phaseHint>SKS</phaseHint>
      </pick>
      <pick publicID="smi:local/6368052a-7240-457b-a394-a31dc8b7ac03">
        <time>
          <value>2015-06-04T23:39:27.451890Z</value>
          <uncertainty>0.8425845090227628</uncertainty>
          <lowerUncertainty>0.8425845090227628</lowerUncertainty>
          <upperUncertainty>0.8425845090227628</upperUncertainty>
        </time>
        <waveformID networkCode="Z3" stationCode="A001A"></waveformID>
        <methodID>smi:local/auto</methodID>
        <phaseHint>SKS</phaseHint>
      </pick>
      <pick publicID="smi:local/977d230e-4b06-482e-8a85-d502a9906600">
        <time>
          <value>2015-06-04T23:39:28.265276Z</value>
          <uncertainty>0.8202887362242846</uncertainty>
          <lowerUncertainty>0.8202887362242846</lowerUncertainty>
          <upperUncertainty>0.8202887362242846</upperUncertainty>
        </time>
        <waveformID networkCode="Z3" stationCode="A009A"></waveformID>
        <methodID>smi:local/auto</methodID>
        <phaseHint>SKS</phaseHint>
      </pick>
      <pick publicID="smi:local/1139d6ea-a8e5-4dec-95c2-d7f85ad33f6d">
        <time>
          <value>2015-06-04T23:39:45.915577Z</value>
          <uncertainty>0.5592785579267452</uncertainty>
          <lowerUncertainty>0.5592785579267452</lowerUncertainty>
          <upperUncertainty>0.5592785579267452</upperUncertainty>
        </time>
        <waveformID networkCode="IV" stationCode="CTI"></waveformID>
        <methodID>smi:local/auto</methodID>
        <phaseHint>SKS</phaseHint>
      </pick>
      <pick publicID="smi:local/cdfdde33-3512-43ff-b5ad-a56a19c133ec">
        <time>
          <value>2015-06-04T23:39:58.286817Z</value>
          <uncertainty>0.33213939010158866</uncertainty>
          <lowerUncertainty>0.33213939010158866</lowerUncertainty>
          <upperUncertainty>0.33213939010158866</upperUncertainty>
        </time>
        <waveformID networkCode="GU" stationCode="PCP"></waveformID>
        <methodID>smi:local/auto</methodID>
        <phaseHint>SKS</phaseHint>
      </pick>
      <pick publicID="smi:local/911f2fee-b726-4435-a1e1-f621746f0078">
        <time>
          <value>2015-06-04T23:39:49.564494Z</value>
          <uncertainty>0.5714077192330765</uncertainty>
          <lowerUncertainty>0.5714077192330765</lowerUncertainty>
          <upperUncertainty>0.5714077192330765</upperUncertainty>
        </time>
        <waveformID networkCode="IV" stationCode="MGAB"></waveformID>
        <methodID>smi:local/auto</methodID>
        <phaseHint>SKS</phaseHint>
      </pick>
      <pick publicID="smi:local/649f85db-baa2-4962-88f6-72029344947e">
        <time>
          <value>2015-06-04T23:39:46.855167Z</value>
          <uncertainty>0.6140325131497623</uncertainty>
          <lowerUncertainty>0.6140325131497623</lowerUncertainty>
          <upperUncertainty>0.6140325131497623</upperUncertainty>
        </time>
        <waveformID networkCode="IV" stationCode="FDMO"></waveformID>
        <methodID>smi:local/auto</methodID>
        <phaseHint>SKS</phaseHint>
      </pick>
      <pick publicID="smi:local/fff6da02-cb0b-4bb5-bcf2-6fa007539c9f">
        <time>
          <value>2015-06-04T23:39:57.300766Z</value>
          <uncertainty>0.3539809840462617</uncertainty>
          <lowerUncertainty>0.3539809840462617</lowerUncertainty>
          <upperUncertainty>0.3539809840462617</upperUncertainty>
        </time>
        <waveformID networkCode="FR" stationCode="WLS"></waveformID>
        <methodID>smi:local/auto</methodID>
        <phaseHint>SKS</phaseHint>
      </pick>
      <pick publicID="smi:local/e5774fc5-9abb-449a-a936-cdb3e36cd670">
        <time>
          <value>2015-06-04T23:40:10.767105Z</value>
          <uncertainty>0.5890150037092856</uncertainty>
          <lowerUncertainty>0.5890150037092856</lowerUncertainty>
          <upperUncertainty>0.5890150037092856</upperUncertainty>
        </time>
        <waveformID networkCode="FR" stationCode="MLYF"></waveformID>
        <methodID>smi:local/auto</methodID>
        <phaseHint>SKS</phaseHint>
      </pick>
      <pick publicID="smi:local/df582e4b-c1b5-4bf5-b308-ac24cc53b20d">
        <time>
          <value>2015-06-04T23:39:28.149478Z</value>
          <uncertainty>0.85246432652877</uncertainty>
          <lowerUncertainty>0.85246432652877</lowerUncertainty>
          <upperUncertainty>0.85246432652877</upperUncertainty>
        </time>
        <waveformID networkCode="Z3" stationCode="A005A"></waveformID>
        <methodID>smi:local/auto</methodID>
        <phaseHint>SKS</phaseHint>
      </pick>
      <pick publicID="smi:local/5275d10c-e300-4749-972c-11f28b8df3eb">
        <time>
          <value>2015-06-04T23:39:37.397531Z</value>
          <uncertainty>0.5076944733826235</uncertainty>
          <lowerUncertainty>0.5076944733826235</lowerUncertainty>
          <upperUncertainty>0.5076944733826235</upperUncertainty>
        </time>
        <waveformID networkCode="XT" stationCode="AAE26"></waveformID>
        <methodID>smi:local/auto</methodID>
        <phaseHint>SKS</phaseHint>
      </pick>
      <pick publicID="smi:local/4c07c3cf-fa27-4ca7-a033-857252167449">
        <time>
          <value>2015-06-04T23:39:39.092999Z</value>
          <uncertainty>0.6460857211162641</uncertainty>
          <lowerUncertainty>0.6460857211162641</lowerUncertainty>
          <upperUncertainty>0.6460857211162641</upperUncertainty>
        </time>
        <waveformID networkCode="TH" stationCode="PLN"></waveformID>
        <methodID>smi:local/auto</methodID>
        <phaseHint>SKS</phaseHint>
      </pick>
      <pick publicID="smi:local/c3b43718-33eb-4c48-8883-606499f8fcb4">
        <time>
          <value>2015-06-04T23:39:50.029605Z</value>
          <uncertainty>0.6367000891722914</uncertainty>
          <lowerUncertainty>0.6367000891722914</lowerUncertainty>
          <upperUncertainty>0.6367000891722914</upperUncertainty>
        </time>
        <waveformID networkCode="IV" stationCode="MAGA"></waveformID>
        <methodID>smi:local/auto</methodID>
        <phaseHint>SKS</phaseHint>
      </pick>
      <pick publicID="smi:local/f774c555-dbda-4768-aba6-0181e9d58993">
        <time>
          <value>2015-06-04T23:39:36.700755Z</value>
          <uncertainty>0.9942171835534002</uncertainty>
          <lowerUncertainty>0.9942171835534002</lowerUncertainty>
          <upperUncertainty>0.9942171835534002</upperUncertainty>
        </time>
        <waveformID networkCode="XT" stationCode="AAE17"></waveformID>
        <methodID>smi:local/auto</methodID>
        <phaseHint>SKS</phaseHint>
      </pick>
      <pick publicID="smi:local/56a879bd-7703-4792-9760-ccd3d1e45eff">
        <time>
          <value>2015-06-04T23:39:37.428529Z</value>
          <uncertainty>0.35902239466918</uncertainty>
          <lowerUncertainty>0.35902239466918</lowerUncertainty>
          <upperUncertainty>0.35902239466918</upperUncertainty>
        </time>
        <waveformID networkCode="XT" stationCode="AAE10"></waveformID>
        <methodID>smi:local/auto</methodID>
        <phaseHint>SKS</phaseHint>
      </pick>
      <pick publicID="smi:local/ca28b997-3966-479e-b531-cefb6862468e">
        <time>
          <value>2015-06-04T23:40:06.660852Z</value>
          <uncertainty>0.2881187575063369</uncertainty>
          <lowerUncertainty>0.2881187575063369</lowerUncertainty>
          <upperUncertainty>0.2881187575063369</upperUncertainty>
        </time>
        <waveformID networkCode="FR" stationCode="CALF"></waveformID>
        <methodID>smi:local/auto</methodID>
        <phaseHint>SKS</phaseHint>
      </pick>
      <pick publicID="smi:local/5edc0fde-11d9-4bfd-8b48-02d9d9f82fb1">
        <time>
          <value>2015-06-04T23:39:47.627410Z</value>
          <uncertainty>0.3963779231104411</uncertainty>
          <lowerUncertainty>0.3963779231104411</lowerUncertainty>
          <upperUncertainty>0.3963779231104411</upperUncertainty>
        </time>
        <waveformID networkCode="ST" stationCode="GAGG"></waveformID>
        <methodID>smi:local/auto</methodID>
        <phaseHint>SKS</phaseHint>
      </pick>
      <pick publicID="smi:local/ee607362-6b1c-422d-8b0d-f06c4b62f648">
        <time>
          <value>2015-06-04T23:39:57.572720Z</value>
          <uncertainty>0.31888489740224146</uncertainty>
          <lowerUncertainty>0.31888489740224146</lowerUncertainty>
          <upperUncertainty>0.31888489740224146</upperUncertainty>
        </time>
        <waveformID networkCode="CH" stationCode="BALST"></waveformID>
        <methodID>smi:local/auto</methodID>
        <phaseHint>SKS</phaseHint>
      </pick>
      <pick publicID="smi:local/005bc464-0d9a-4a25-a183-03d61d440e66">
        <time>
          <value>2015-06-04T23:40:02.004473Z</value>
          <uncertainty>0.5578078803636913</uncertainty>
          <lowerUncertainty>0.5578078803636913</lowerUncertainty>
          <upperUncertainty>0.5578078803636913</upperUncertainty>
        </time>
