<?xml version='1.0' encoding='utf-8'?>
<q:quakeml xmlns="http://quakeml.org/xmlns/bed/1.2" xmlns:q="http://quakeml.org/xmlns/quakeml/1.2">
  <eventParameters publicID="smi:local/63672882-97b7-418e-9fb0-a1d0a42a78e7">
    <event publicID="smi:local/20150918_155945.a">
      <origin publicID="smi:local/ndk/C201509181559A/origin#cmtorigin">
        <time>
          <value>2015-09-18T15:59:45.700000Z</value>
        </time>
        <latitude>
          <value>15.38</value>
        </latitude>
        <longitude>
          <value>-45.81</value>
        </longitude>
        <depth>
          <value>12.0</value>
        </depth>
      </origin>
      <magnitude publicID="smi:local/2695aaeb-0c6a-4248-bca7-1ae355cc4dfa">
        <mag>
          <value>5.99</value>
        </mag>
        <type>Mwc</type>
        <originID>smi:local/ndk/C201509181559A/origin#cmtorigin</originID>
      </magnitude>
      <pick publicID="smi:local/89a10db2-f429-4258-8029-c20dfacbd420">
        <time>
          <value>2015-09-18T16:18:10.860584Z</value>
          <uncertainty>1.2696708811113853</uncertainty>
          <lowerUncertainty>1.2696708811113853</lowerUncertainty>
          <upperUncertainty>1.2696708811113853</upperUncertainty>
        </time>
        <waveformID networkCode="Z3" stationCode="A001A"></waveformID>
        <methodID>smi:local/auto</methodID>
        <phaseHint>S</phaseHint>
      </pick>
      <pick publicID="smi:local/a4728db8-0ec4-469e-b9d7-8d0c2603db20">
        <time>
          <value>2015-09-18T16:17:26.514728Z</value>
          <uncertainty>0.5467636897527797</uncertainty>
          <lowerUncertainty>0.5467636897527797</lowerUncertainty>
          <upperUncertainty>0.5467636897527797</upperUncertainty>
        </time>
        <waveformID networkCode="GR" stationCode="GRC2"></waveformID>
        <methodID>smi:local/auto</methodID>
        <phaseHint>S</phaseHint>
      </pick>
      <pick publicID="smi:local/211e57b5-66dc-4de8-9d45-b8c1d9792efe">
        <time>
          <value>2015-09-18T16:17:31.048158Z</value>
          <uncertainty>1.0958732881537818</uncertainty>
          <lowerUncertainty>1.0958732881537818</lowerUncertainty>
          <upperUncertainty>1.0958732881537818</upperUncertainty>
        </time>
        <waveformID networkCode="NI" stationCode="ZOU2"></waveformID>
        <methodID>smi:local/auto</methodID>
        <phaseHint>S</phaseHint>
      </pick>
      <pick publicID="smi:local/494964c8-5dc1-4997-9b16-12cdfdb266d0">
        <time>
          <value>2015-09-18T16:17:25.860065Z</value>
          <uncertainty>2.8893155684078597</uncertainty>
          <lowerUncertainty>2.8893155684078597</lowerUncertainty>
          <upperUncertainty>2.8893155684078597</upperUncertainty>
        </time>
        <waveformID networkCode="TH" stationCode="VITZ"></waveformID>
        <methodID>smi:local/auto</methodID>
        <phaseHint>S</phaseHint>
      </pick>
      <pick publicID="smi:local/4d0ef983-233f-4c46-b38f-7f91ca3251f3">
        <time>
          <value>2015-09-18T16:17:28.722120Z</value>
          <uncertainty>1.0282671165288932</uncertainty>
          <lowerUncertainty>1.0282671165288932</lowerUncertainty>
          <upperUncertainty>1.0282671165288932</upperUncertainty>
        </time>
        <waveformID networkCode="IV" stationCode="STAL"></waveformID>
        <methodID>smi:local/auto</methodID>
        <phaseHint>S</phaseHint>
      </pick>
      <pick publicID="smi:local/e9627613-8466-4772-b208-d5616b1dd7be">
        <time>
          <value>2015-09-18T16:17:33.160797Z</value>
          <uncertainty>0.9203769979222411</uncertainty>
          <lowerUncertainty>0.9203769979222411</lowerUncertainty>
          <upperUncertainty>0.9203769979222411</upperUncertainty>
        </time>
        <waveformID networkCode="TH" stationCode="LEIB1"></waveformID>
        <methodID>smi:local/auto</methodID>
        <phaseHint>S</phaseHint>
      </pick>
      <pick publicID="smi:local/5d0c9421-8fb3-48f1-a762-ee54b325b0c9">
        <time>
          <value>2015-09-18T16:16:38.996010Z</value>
          <uncertainty>0.8664042189694268</uncertainty>
          <lowerUncertainty>0.8664042189694268</lowerUncertainty>
          <upperUncertainty>0.8664042189694268</upperUncertainty>
        </time>
        <waveformID networkCode="GU" stationCode="MGRO"></waveformID>
        <methodID>smi:local/auto</methodID>
        <phaseHint>S</phaseHint>
      </pick>
      <pick publicID="smi:local/b6204b78-0f43-4878-820d-4c72c7a3959d">
        <time>
          <value>2015-09-18T16:17:47.812756Z</value>
          <uncertainty>0.7988454936841768</uncertainty>
          <lowerUncertainty>0.7988454936841768</lowerUncertainty>
          <upperUncertainty>0.7988454936841768</upperUncertainty>
        </time>
        <waveformID networkCode="XT" stationCode="AAE13"></waveformID>
        <methodID>smi:local/auto</methodID>
        <phaseHint>S</phaseHint>
      </pick>
      <pick publicID="smi:local/a8a9bd15-bbb5-45a1-922c-186d8940476b">
        <time>
          <value>2015-09-18T16:17:15.597707Z</value>
          <uncertainty>0.7173459253665271</uncertainty>
          <lowerUncertainty>0.7173459253665271</lowerUncertainty>
          <upperUncertainty>0.7173459253665271</upperUncertainty>
        </time>
        <waveformID networkCode="IV" stationCode="SACS"></waveformID>
        <methodID>smi:local/auto</methodID>
        <phaseHint>S</phaseHint>
      </pick>
      <pick publicID="smi:local/8160cf19-6ee0-4de7-8977-abb4eb75a9a9">
        <time>
          <value>2015-09-18T16:16:43.076409Z</value>
          <uncertainty>1.1723194642073265</uncertainty>
          <lowerUncertainty>1.1723194642073265</lowerUncertainty>
          <upperUncertainty>1.1723194642073265</upperUncertainty>
        </time>
        <waveformID networkCode="GU" stationCode="TRAV"></waveformID>
        <methodID>smi:local/auto</methodID>
        <phaseHint>S</phaseHint>
      </pick>
      <pick publicID="smi:local/7e4d26dd-a3e6-4b21-9652-c74461d0f72f">
        <time>
          <value>2015-09-18T16:17:18.968024Z</value>
          <uncertainty>1.3045150083554213</uncertainty>
          <lowerUncertainty>1.3045150083554213</lowerUncertainty>
          <upperUncertainty>1.3045150083554213</upperUncertainty>
        </time>
        <waveformID networkCode="IV" stationCode="LAV9"></waveformID>
        <methodID>smi:local/auto</methodID>
        <phaseHint>S</phaseHint>
      </pick>
      <pick publicID="smi:local/bcddaf2c-6abc-480e-87ed-f3417a721059">
        <time>
          <value>2015-09-18T16:17:05.442526Z</value>
          <uncertainty>1.1832637800922228</uncertainty>
          <lowerUncertainty>1.1832637800922228</lowerUncertainty>
          <upperUncertainty>1.1832637800922228</upperUncertainty>
        </time>
        <waveformID networkCode="IV" stationCode="SALO"></waveformID>
        <methodID>smi:local/auto</methodID>
        <phaseHint>S</phaseHint>
      </pick>
      <pick publicID="smi:local/318ebe29-45fe-440f-a355-f48d5d1db8ca">
        <time>
          <value>2015-09-18T16:16:51.553167Z</value>
          <uncertainty>1.0625078510121229</uncertainty>
          <lowerUncertainty>1.0625078510121229</lowerUncertainty>
          <upperUncertainty>1.0625078510121229</upperUncertainty>
        </time>
        <waveformID networkCode="CH" stationCode="FIESA"></waveformID>
        <methodID>smi:local/auto</methodID>
        <phaseHint>S</phaseHint>
      </pick>
      <pick publicID="smi:local/684b3b9b-3c81-457c-854f-6123c208d60c">
        <time>
          <value>2015-09-18T16:16:02.051109Z</value>
          <uncertainty>0.8937394541273408</uncertainty>
          <lowerUncertainty>0.8937394541273408</lowerUncertainty>
          <upperUncertainty>0.8937394541273408</upperUncertainty>
        </time>
        <waveformID networkCode="FR" stationCode="CFF"></waveformID>
        <methodID>smi:local/auto</methodID>
        <phaseHint>S</phaseHint>
      </pick>
      <pick publicID="smi:local/5e8ac19c-ae88-4471-8c26-e22dfe0dc376">
        <time>
          <value>2015-09-18T16:16:35.590714Z</value>
          <uncertainty>0.47381345298944155</uncertainty>
          <lowerUncertainty>0.47381345298944155</lowerUncertainty>
          <upperUncertainty>0.47381345298944155</upperUncertainty>
        </time>
        <waveformID networkCode="FR" stationCode="RSL"></waveformID>
        <methodID>smi:local/auto</methodID>
        <phaseHint>S</phaseHint>
      </pick>
      <pick publicID="smi:local/5e6b46ce-2276-4efc-b6aa-723e7b55d546">
        <time>
          <value>2015-09-18T16:17:00.648060Z</value>
          <uncertainty>0.3220058226552138</uncertainty>
          <lowerUncertainty>0.3220058226552138</lowerUncertainty>
          <upperUncertainty>0.3220058226552138</upperUncertainty>
        </time>
        <waveformID networkCode="CH" stationCode="PANIX"></waveformID>
        <methodID>smi:local/auto</methodID>
        <phaseHint>S</phaseHint>
      </pick>
      <pick publicID="smi:local/3cc5ab36-3b44-4e7e-83b0-32d49385cc17">
        <time>
          <value>2015-09-18T16:17:19.996263Z</value>
          <uncertainty>2.093628729696454</uncertainty>
          <lowerUncertainty>2.093628729696454</lowerUncertainty>
          <upperUncertainty>2.093628729696454</upperUncertainty>
        </time>
        <waveformID networkCode="IV" stationCode="ATMI"></waveformID>
        <methodID>smi:local/auto</methodID>
        <phaseHint>S</phaseHint>
      </pick>
      <pick publicID="smi:local/fa8c01a4-9b63-4ccf-94ca-e709a252562e">
        <time>
          <value>2015-09-18T16:17:23.468795Z</value>
          <uncertainty>0.334396214308149</uncertainty>
          <lowerUncertainty>0.334396214308149</lowerUncertainty>
          <upperUncertainty>0.334396214308149</upperUncertainty>
        </time>
        <waveformID networkCode="IV" stationCode="GIUL"></waveformID>
        <methodID>smi:local/auto</methodID>
        <phaseHint>S</phaseHint>
      </pick>
      <pick publicID="smi:local/623b97ca-3916-4cf8-a642-3bf5695812be">
        <time>
          <value>2015-09-18T16:17:01.783968Z</value>
          <uncertainty>0.8244590790724918</uncertainty>
          <lowerUncertainty>0.8244590790724918</lowerUncertainty>
          <upperUncertainty>0.8244590790724918</upperUncertainty>
        </time>
        <waveformID networkCode="MN" stationCode="VLC"></waveformID>
        <methodID>smi:local/auto</methodID>
        <phaseHint>S</phaseHint>
      </pick>
      <pick publicID="smi:local/49c01301-5fe9-4b37-bcc1-42f07bb8e9bd">
        <time>
          <value>2015-09-18T16:17:22.354853Z</value>
          <uncertainty>1.5120024220282386</uncertainty>
          <lowerUncertainty>1.5120024220282386</lowerUncertainty>
          <upperUncertainty>1.5120024220282386</upperUncertainty>
        </time>
        <waveformID networkCode="NI" stationCode="VARN"></waveformID>
        <methodID>smi:local/auto</methodID>
        <phaseHint>S</phaseHint>
      </pick>
      <pick publicID="smi:local/f10b0ec6-1f0f-4c15-95fd-27d99a3d4549">
        <time>
          <value>2015-09-18T16:16:49.958904Z</value>
          <uncertainty>0.3249208195107852</uncertainty>
          <lowerUncertainty>0.3249208195107852</lowerUncertainty>
          <upperUncertainty>0.3249208195107852</upperUncertainty>
        </time>
        <waveformID networkCode="CH" stationCode="BALST"></waveformID>
        <methodID>smi:local/auto</methodID>
        <phaseHint>S</phaseHint>
      </pick>
      <pick publicID="smi:local/836a4b7c-54c2-4cf7-96b7-0602747c0003">
        <time>
          <value>2015-09-18T16:17:18.504538Z</value>
          <uncertainty>0.6359012450155147</uncertainty>
          <lowerUncertainty>0.6359012450155147</lowerUncertainty>
          <upperUncertainty>0.6359012450155147</upperUncertainty>
        </time>
        <waveformID networkCode="IV" stationCode="ATTE"></waveformID>
        <methodID>smi:local/auto</methodID>
        <phaseHint>S</phaseHint>
      </pick>
      <pick publicID="smi:local/2e0f9e26-161d-46d4-b352-94a02e230a31">
        <time>
          <value>2015-09-18T16:17:21.531343Z</value>
          <uncertainty>1.3869348643329475</uncertainty>
          <lowerUncertainty>1.3869348643329475</lowerUncertainty>
          <upperUncertainty>1.3869348643329475</upperUncertainty>
        </time>
        <waveformID networkCode="IV" stationCode="NARO"></waveformID>
        <methodID>smi:local/auto</methodID>
        <phaseHint>S</phaseHint>
      </pick>
      <pick publicID="smi:local/530c438e-6c67-4c47-8b8e-ea85f7916093">
        <time>
          <value>2015-09-18T16:17:13.713090Z</value>
          <uncertainty>1.2780445169118153</uncertainty>
          <lowerUncertainty>1.2780445169118153</lowerUncertainty>
          <upperUncertainty>1.2780445169118153</upperUncertainty>
        </time>
        <waveformID networkCode="IV" stationCode="MTRZ"></waveformID>
        <methodID>smi:local/auto</methodID>
        <phaseHint>S</phaseHint>
      </pick>
      <pick publicID="smi:local/8d5f5f18-e816-4d32-8085-810ad904057e">
        <time>
          <value>2015-09-18T16:16:47.409324Z</value>
          <uncertainty>0.479554271878128</uncertainty>
          <lowerUncertainty>0.479554271878128</lowerUncertainty>
          <upperUncertainty>0.479554271878128</upperUncertainty>
        </time>
        <waveformID networkCode="CH" stationCode="LKBD2"></waveformID>
        <methodID>smi:local/auto</methodID>
        <phaseHint>S</phaseHint>
      </pick>
      <pick publicID="smi:local/3b4b72ca-ae9b-4e04-b661-c384d1f43326">
        <time>
          <value>2015-09-18T16:17:20.728339Z</value>
          <uncertainty>1.8279259877288683</uncertainty>
          <lowerUncertainty>1.8279259877288683</lowerUncertainty>
          <upperUncertainty>1.8279259877288683</upperUncertainty>
        </time>
        <waveformID networkCode="IV" stationCode="RSM2"></waveformID>
        <methodID>smi:local/auto</methodID>
        <phaseHint>S</phaseHint>
      </pick>
      <pick publicID="smi:local/e423b806-9253-43a9-9523-786d8b68fe1f">
        <time>
          <value>2015-09-18T16:18:29.590147Z</value>
          <uncertainty>3.1618961119705222</uncertainty>
          <lowerUncertainty>3.1618961119705222</lowerUncertainty>
          <upperUncertainty>3.1618961119705222</upperUncertainty>
        </time>
        <waveformID networkCode="HU" stationCode="BUD"></waveformID>
        <methodID>smi:local/auto</methodID>
        <phaseHint>S</phaseHint>
      </pick>
      <pick publicID="smi:local/cd074292-fd9b-4a83-bd76-71c9a3814a01">
        <time>
          <value>2015-09-18T16:18:01.144522Z</value>
          <uncertainty>1.0097514402199852</uncertainty>
          <lowerUncertainty>1.0097514402199852</lowerUncertainty>
          <upperUncertainty>1.0097514402199852</upperUncertainty>
        </time>
        <waveformID networkCode="Z3" stationCode="A007A"></waveformID>
        <methodID>smi:local/auto</methodID>
        <phaseHint>S</phaseHint>
      </pick>
      <pick publicID="smi:local/645510a3-6e3e-4757-a504-b4c9509b7feb">
        <time>
          <value>2015-09-18T16:17:01.477515Z</value>
          <uncertainty>1.0369127695982987</uncertainty>
          <lowerUncertainty>1.0369127695982987</lowerUncertainty>
          <upperUncertainty>1.0369127695982987</upperUncertainty>
        </time>
        <waveformID networkCode="CH" stationCode="VDL"></waveformID>
        <methodID>smi:local/auto</methodID>
        <phaseHint>S</phaseHint>
      </pick>
      <pick publicID="smi:local/6d682c8a-6878-4513-93c5-ea8bfb4595c0">
        <time>
          <value>2015-09-18T16:16:45.563975Z</value>
          <uncertainty>0.7572846076577332</uncertainty>
          <lowerUncertainty>0.7572846076577332</lowerUncertainty>
          <upperUncertainty>0.7572846076577332</upperUncertainty>
        </time>
        <waveformID networkCode="FR" stationCode="SMPL"></waveformID>
        <methodID>smi:local/auto</methodID>
        <phaseHint>S</phaseHint>
      </pick>
      <pick publicID="smi:local/386a7eae-24f8-443a-a4ee-1dc0086f8165">
        <time>
          <value>2015-09-18T16:17:40.642346Z</value>
          <uncertainty>1.5325860842318983</uncertainty>
          <lowerUncertainty>1.5325860842318983</lowerUncertainty>
          <upperUncertainty>1.5325860842318983</upperUncertainty>
        </time>
        <waveformID networkCode="Z3" stationCode="A029A"></waveformID>
        <methodID>smi:local/auto</methodID>
        <phaseHint>S</phaseHint>
      </pick>
      <pick publicID="smi:local/7bd2b641-f7aa-4974-8040-442c2151aabd">
        <time>
          <value>2015-09-18T16:16:56.239935Z</value>
          <uncertainty>0.6639700229945703</uncertainty>
          <lowerUncertainty>0.6639700229945703</lowerUncertainty>
          <upperUncertainty>0.6639700229945703</upperUncertainty>
        </time>
        <waveformID networkCode="IV" stationCode="GROG"></waveformID>
        <methodID>smi:local/auto</methodID>
        <phaseHint>S</phaseHint>
      </pick>
      <pick publicID="smi:local/a9b97250-7152-43b8-ae9d-6958e718457b">
        <time>
          <value>2015-09-18T16:17:11.224021Z</value>
          <uncertainty>0.926809394702879</uncertainty>
          <lowerUncertainty>0.926809394702879</lowerUncertainty>
          <upperUncertainty>0.926809394702879</upperUncertainty>
        </time>
        <waveformID networkCode="IV" stationCode="TOLF"></waveformID>
        <methodID>smi:local/auto</methodID>
        <phaseHint>S</phaseHint>
      </pick>
      <pick publicID="smi:local/f51198bb-65a2-4c61-ae34-24f10631a41a">
        <time>
          <value>2015-09-18T16:18:13.036056Z</value>
          <uncertainty>0.9912885764990316</uncertainty>
          <lowerUncertainty>0.9912885764990316</lowerUncertainty>
          <upperUncertainty>0.9912885764990316</upperUncertainty>
        </time>
        <waveformID networkCode="CZ" stationCode="VRAC"></waveformID>
        <methodID>smi:local/auto</methodID>
        <phaseHint>S</phaseHint>
      </pick>
      <pick publicID="smi:local/ce1826d7-ff28-4931-bf42-19840c1b880f">
        <time>
          <value>2015-09-18T16:16:25.980999Z</value>
          <uncertainty>0.8739025272147609</uncertainty>
          <lowerUncertainty>0.8739025272147609</lowerUncertainty>
          <upperUncertainty>0.8739025272147609</upperUncertainty>
        </time>
        <waveformID networkCode="FR" stationCode="OGS1"></waveformID>
        <methodID>smi:local/auto</methodID>
        <phaseHint>S</phaseHint>
      </pick>
      <pick publicID="smi:local/df697a03-cd6f-4910-98c5-9bb5aed024b5">
        <time>
          <value>2015-09-18T16:16:37.635524Z</value>
          <uncertainty>0.33301801429360306</uncertainty>
          <lowerUncertainty>0.33301801429360306</lowerUncertainty>
          <upperUncertainty>0.33301801429360306</upperUncertainty>
        </time>
        <waveformID networkCode="CH" stationCode="BRANT"></waveformID>
        <methodID>smi:local/auto</methodID>
        <phaseHint>S</phaseHint>
      </pick>
      <pick publicID="smi:local/cac3cb6e-ce62-4d4e-919f-a3d73a2596c4">
        <time>
          <value>2015-09-18T16:17:19.958930Z</value>
          <uncertainty>1.1866423908040418</uncertainty>
          <lowerUncertainty>1.1866423908040418</lowerUncertainty>
          <upperUncertainty>1.1866423908040418</upperUncertainty>
        </time>
        <waveformID networkCode="IV" stationCode="ATVO"></waveformID>
        <methodID>smi:local/auto</methodID>
        <phaseHint>S</phaseHint>
      </pick>
      <pick publicID="smi:local/80194e60-2e5b-4cde-81d5-59ff168b39af">
        <time>
          <value>2015-09-18T16:17:28.137102Z</value>
          <uncertainty>0.5697605225373278</uncertainty>
          <lowerUncertainty>0.5697605225373278</lowerUncertainty>
          <upperUncertainty>0.5697605225373278</upperUncertainty>
        </time>
        <waveformID networkCode="GR" stationCode="GRC1"></waveformID>
