<?xml version='1.0' encoding='utf-8'?>
<q:quakeml xmlns="http://quakeml.org/xmlns/bed/1.2" xmlns:q="http://quakeml.org/xmlns/quakeml/1.2">
  <eventParameters publicID="smi:local/8c3a9c00-d6db-47aa-8c98-80b37f70d339">
    <event publicID="smi:local/20150807_012503.a">
      <origin publicID="smi:local/ndk/C201508070125A/origin#cmtorigin">
        <time>
          <value>2015-08-07T01:25:03.400000Z</value>
        </time>
        <latitude>
          <value>-2.02</value>
        </latitude>
        <longitude>
          <value>28.71</value>
        </longitude>
        <depth>
          <value>14.8</value>
        </depth>
      </origin>
      <magnitude publicID="smi:local/34886f9d-de5c-411f-b55f-b3966cd561d3">
        <mag>
          <value>5.78</value>
        </mag>
        <type>Mwc</type>
        <originID>smi:local/ndk/C201508070125A/origin#cmtorigin</originID>
      </magnitude>
      <pick publicID="smi:local/72592e43-d994-4a24-900f-a846f0f57ee9">
        <time>
          <value>2015-08-07T01:41:42.553990Z</value>
          <uncertainty>0.6938825970574749</uncertainty>
          <lowerUncertainty>0.6938825970574749</lowerUncertainty>
          <upperUncertainty>0.6938825970574749</upperUncertainty>
        </time>
        <waveformID networkCode="GR" stationCode="GRC4"></waveformID>
        <methodID>smi:local/auto</methodID>
        <phaseHint>S</phaseHint>
      </pick>
      <pick publicID="smi:local/141fb18e-b58f-425b-8496-710b5dc74d5d">
        <time>
          <value>2015-08-07T01:41:39.588904Z</value>
          <uncertainty>0.5426243746496197</uncertainty>
          <lowerUncertainty>0.5426243746496197</lowerUncertainty>
          <upperUncertainty>0.5426243746496197</upperUncertainty>
        </time>
        <waveformID networkCode="GR" stationCode="GRC3"></waveformID>
        <methodID>smi:local/auto</methodID>
        <phaseHint>S</phaseHint>
      </pick>
      <pick publicID="smi:local/47284d22-5a8b-4461-8032-8a26925ac5fa">
        <time>
          <value>2015-08-07T01:42:03.534336Z</value>
          <uncertainty>0.6146343569749074</uncertainty>
          <lowerUncertainty>0.6146343569749074</lowerUncertainty>
          <upperUncertainty>0.6146343569749074</upperUncertainty>
        </time>
        <waveformID networkCode="TH" stationCode="ZEU"></waveformID>
        <methodID>smi:local/auto</methodID>
        <phaseHint>S</phaseHint>
      </pick>
      <pick publicID="smi:local/9e9a6d17-451b-4dcd-9ee2-c93d6bb610fc">
        <time>
          <value>2015-08-07T01:41:34.910490Z</value>
          <uncertainty>0.37723731448890385</uncertainty>
          <lowerUncertainty>0.37723731448890385</lowerUncertainty>
          <upperUncertainty>0.37723731448890385</upperUncertainty>
        </time>
        <waveformID networkCode="CH" stationCode="SULZ"></waveformID>
        <methodID>smi:local/auto</methodID>
        <phaseHint>S</phaseHint>
      </pick>
      <pick publicID="smi:local/98ea24b5-10f9-4553-b055-eabb23ade192">
        <time>
          <value>2015-08-07T01:41:22.983894Z</value>
          <uncertainty>0.8653837748150314</uncertainty>
          <lowerUncertainty>0.8653837748150314</lowerUncertainty>
          <upperUncertainty>0.8653837748150314</upperUncertainty>
        </time>
        <waveformID networkCode="FR" stationCode="OGSM"></waveformID>
        <methodID>smi:local/auto</methodID>
        <phaseHint>S</phaseHint>
      </pick>
      <pick publicID="smi:local/76d8761e-82d4-41a6-8612-5281b84ebcbb">
        <time>
          <value>2015-08-07T01:42:09.267877Z</value>
          <uncertainty>0.5917898784469627</uncertainty>
          <lowerUncertainty>0.5917898784469627</lowerUncertainty>
          <upperUncertainty>0.5917898784469627</upperUncertainty>
        </time>
        <waveformID networkCode="TH" stationCode="BBWF"></waveformID>
        <methodID>smi:local/auto</methodID>
        <phaseHint>S</phaseHint>
      </pick>
      <pick publicID="smi:local/86d7a419-fc01-4a4c-9513-4e10e7bb6a4d">
        <time>
          <value>2015-08-07T01:41:32.566468Z</value>
          <uncertainty>0.34124454142262656</uncertainty>
          <lowerUncertainty>0.34124454142262656</lowerUncertainty>
          <upperUncertainty>0.34124454142262656</upperUncertainty>
        </time>
        <waveformID networkCode="XT" stationCode="AAE22"></waveformID>
        <methodID>smi:local/auto</methodID>
        <phaseHint>S</phaseHint>
      </pick>
      <pick publicID="smi:local/d096bcab-84ae-4fb6-a6a0-46fefa9fb15a">
        <time>
          <value>2015-08-07T01:41:05.001748Z</value>
          <uncertainty>2.1391758697312593</uncertainty>
          <lowerUncertainty>2.1391758697312593</lowerUncertainty>
          <upperUncertainty>2.1391758697312593</upperUncertainty>
        </time>
        <waveformID networkCode="FR" stationCode="SURF"></waveformID>
        <methodID>smi:local/auto</methodID>
        <phaseHint>S</phaseHint>
      </pick>
      <pick publicID="smi:local/2df72152-ea82-4d73-ab4c-a3c5ced36285">
        <time>
          <value>2015-08-07T01:41:21.279897Z</value>
          <uncertainty>0.8169918909777389</uncertainty>
          <lowerUncertainty>0.8169918909777389</lowerUncertainty>
          <upperUncertainty>0.8169918909777389</upperUncertainty>
        </time>
        <waveformID networkCode="CH" stationCode="FIESA"></waveformID>
        <methodID>smi:local/auto</methodID>
        <phaseHint>S</phaseHint>
      </pick>
      <pick publicID="smi:local/7758a605-3622-4545-9e9f-8ae5be46bb65">
        <time>
          <value>2015-08-07T01:40:38.905524Z</value>
          <uncertainty>1.4573819973245816</uncertainty>
          <lowerUncertainty>1.4573819973245816</lowerUncertainty>
          <upperUncertainty>1.4573819973245816</upperUncertainty>
        </time>
        <waveformID networkCode="GU" stationCode="MAIM"></waveformID>
        <methodID>smi:local/auto</methodID>
        <phaseHint>S</phaseHint>
      </pick>
      <pick publicID="smi:local/7be8cc0e-ff52-491c-b5cb-527004ebb1bf">
        <time>
          <value>2015-08-07T01:40:55.434918Z</value>
          <uncertainty>1.4126890371161844</uncertainty>
          <lowerUncertainty>1.4126890371161844</lowerUncertainty>
          <upperUncertainty>1.4126890371161844</upperUncertainty>
        </time>
        <waveformID networkCode="FR" stationCode="MVIF"></waveformID>
        <methodID>smi:local/auto</methodID>
        <phaseHint>S</phaseHint>
      </pick>
      <pick publicID="smi:local/91824234-33a0-426a-a83c-5bb219f0a7da">
        <time>
          <value>2015-08-07T01:41:45.559737Z</value>
          <uncertainty>0.6965437809337004</uncertainty>
          <lowerUncertainty>0.6965437809337004</lowerUncertainty>
          <upperUncertainty>0.6965437809337004</upperUncertainty>
        </time>
        <waveformID networkCode="GR" stationCode="BFO"></waveformID>
        <methodID>smi:local/auto</methodID>
        <phaseHint>S</phaseHint>
      </pick>
      <pick publicID="smi:local/258f4e57-7437-4c72-8252-3d42eacd46cc">
        <time>
          <value>2015-08-07T01:41:03.362059Z</value>
          <uncertainty>0.5213835063013519</uncertainty>
          <lowerUncertainty>0.5213835063013519</lowerUncertainty>
          <upperUncertainty>0.5213835063013519</upperUncertainty>
        </time>
        <waveformID networkCode="IV" stationCode="MAGA"></waveformID>
        <methodID>smi:local/auto</methodID>
        <phaseHint>S</phaseHint>
      </pick>
      <pick publicID="smi:local/f76e1fd6-b103-42c8-b6eb-b9cf5d80ea15">
        <time>
          <value>2015-08-07T01:41:22.700283Z</value>
          <uncertainty>0.2978513717463674</uncertainty>
          <lowerUncertainty>0.2978513717463674</lowerUncertainty>
          <upperUncertainty>0.2978513717463674</upperUncertainty>
        </time>
        <waveformID networkCode="CH" stationCode="PANIX"></waveformID>
        <methodID>smi:local/auto</methodID>
        <phaseHint>S</phaseHint>
      </pick>
      <pick publicID="smi:local/6071c119-73fe-40e7-859f-beee643f408e">
        <time>
          <value>2015-08-07T01:41:06.719503Z</value>
          <uncertainty>1.7172580902385335</uncertainty>
          <lowerUncertainty>1.7172580902385335</lowerUncertainty>
          <upperUncertainty>1.7172580902385335</upperUncertainty>
        </time>
        <waveformID networkCode="NI" stationCode="CLUD"></waveformID>
        <methodID>smi:local/auto</methodID>
        <phaseHint>S</phaseHint>
      </pick>
      <pick publicID="smi:local/90d072e0-0f74-48de-8e84-e5478fb895b9">
        <time>
          <value>2015-08-07T01:41:18.625961Z</value>
          <uncertainty>1.626554658437336</uncertainty>
          <lowerUncertainty>1.626554658437336</lowerUncertainty>
          <upperUncertainty>1.626554658437336</upperUncertainty>
        </time>
        <waveformID networkCode="YI" stationCode="SG07"></waveformID>
        <methodID>smi:local/auto</methodID>
        <phaseHint>S</phaseHint>
      </pick>
      <pick publicID="smi:local/8fbcee60-d7d3-4d9a-9b1d-1d6f5073e556">
        <time>
          <value>2015-08-07T01:40:24.952463Z</value>
          <uncertainty>0.9522904685742009</uncertainty>
          <lowerUncertainty>0.9522904685742009</lowerUncertainty>
          <upperUncertainty>0.9522904685742009</upperUncertainty>
        </time>
        <waveformID networkCode="FR" stationCode="SMPL"></waveformID>
        <methodID>smi:local/auto</methodID>
        <phaseHint>S</phaseHint>
      </pick>
      <pick publicID="smi:local/d33d262a-4bff-4414-9fff-99ebea41ddbc">
        <time>
          <value>2015-08-07T01:41:34.577389Z</value>
          <uncertainty>0.4164396220903632</uncertainty>
          <lowerUncertainty>0.4164396220903632</lowerUncertainty>
          <upperUncertainty>0.4164396220903632</upperUncertainty>
        </time>
        <waveformID networkCode="CH" stationCode="BALST"></waveformID>
        <methodID>smi:local/auto</methodID>
        <phaseHint>S</phaseHint>
      </pick>
      <pick publicID="smi:local/2425a007-ace7-4ea3-b344-6eab113c2056">
        <time>
          <value>2015-08-07T01:40:21.665898Z</value>
          <uncertainty>1.664147025106083</uncertainty>
          <lowerUncertainty>1.664147025106083</lowerUncertainty>
          <upperUncertainty>1.664147025106083</upperUncertainty>
        </time>
        <waveformID networkCode="IV" stationCode="MGAB"></waveformID>
        <methodID>smi:local/auto</methodID>
        <phaseHint>S</phaseHint>
      </pick>
      <pick publicID="smi:local/d9a64b06-799a-4ec8-b4a8-e639cd8ad402">
        <time>
          <value>2015-08-07T01:41:02.636666Z</value>
          <uncertainty>0.736163193658164</uncertainty>
          <lowerUncertainty>0.736163193658164</lowerUncertainty>
          <upperUncertainty>0.736163193658164</upperUncertainty>
        </time>
        <waveformID networkCode="HU" stationCode="BUD"></waveformID>
        <methodID>smi:local/auto</methodID>
        <phaseHint>S</phaseHint>
      </pick>
      <pick publicID="smi:local/286df84e-70dd-4cac-9396-347a60e6d947">
        <time>
          <value>2015-08-07T01:41:18.547652Z</value>
          <uncertainty>0.7585661731766068</uncertainty>
          <lowerUncertainty>0.7585661731766068</lowerUncertainty>
          <upperUncertainty>0.7585661731766068</upperUncertainty>
        </time>
        <waveformID networkCode="FR" stationCode="RSL"></waveformID>
        <methodID>smi:local/auto</methodID>
        <phaseHint>S</phaseHint>
      </pick>
      <pick publicID="smi:local/0b81ddb1-042d-4a41-97e5-885211d26e49">
        <time>
          <value>2015-08-07T01:41:15.860401Z</value>
          <uncertainty>0.5611935711031898</uncertainty>
          <lowerUncertainty>0.5611935711031898</lowerUncertainty>
          <upperUncertainty>0.5611935711031898</upperUncertainty>
        </time>
        <waveformID networkCode="FR" stationCode="OGS1"></waveformID>
        <methodID>smi:local/auto</methodID>
        <phaseHint>S</phaseHint>
      </pick>
      <pick publicID="smi:local/51fb6de4-df37-413d-acc6-1fd75060a814">
        <time>
          <value>2015-08-07T01:41:14.125858Z</value>
          <uncertainty>0.8449766796665634</uncertainty>
          <lowerUncertainty>0.8449766796665634</lowerUncertainty>
          <upperUncertainty>0.8449766796665634</upperUncertainty>
        </time>
        <waveformID networkCode="XT" stationCode="AAE40"></waveformID>
        <methodID>smi:local/auto</methodID>
        <phaseHint>S</phaseHint>
      </pick>
      <pick publicID="smi:local/ab51d486-9231-44b9-9f74-fd7273cae54a">
        <time>
          <value>2015-08-07T01:41:33.121347Z</value>
          <uncertainty>0.6117300485734878</uncertainty>
          <lowerUncertainty>0.6117300485734878</lowerUncertainty>
          <upperUncertainty>0.6117300485734878</upperUncertainty>
        </time>
        <waveformID networkCode="XT" stationCode="AAE21"></waveformID>
        <methodID>smi:local/auto</methodID>
        <phaseHint>S</phaseHint>
      </pick>
      <pick publicID="smi:local/b115f08d-2fa9-4dd6-9f55-b65f2cbd4750">
        <time>
          <value>2015-08-07T01:41:00.527835Z</value>
          <uncertainty>0.49019300428985024</uncertainty>
          <lowerUncertainty>0.49019300428985024</lowerUncertainty>
          <upperUncertainty>0.49019300428985024</upperUncertainty>
        </time>
        <waveformID networkCode="IV" stationCode="ROVR"></waveformID>
        <methodID>smi:local/auto</methodID>
        <phaseHint>S</phaseHint>
      </pick>
      <pick publicID="smi:local/7dc42722-7e47-42f2-a171-1d3396376cd0">
        <time>
          <value>2015-08-07T01:41:36.452148Z</value>
          <uncertainty>0.4261709031395497</uncertainty>
          <lowerUncertainty>0.4261709031395497</lowerUncertainty>
          <upperUncertainty>0.4261709031395497</upperUncertainty>
        </time>
        <waveformID networkCode="CH" stationCode="SLE"></waveformID>
        <methodID>smi:local/auto</methodID>
        <phaseHint>S</phaseHint>
      </pick>
      <pick publicID="smi:local/bda00fb9-499c-417f-a18c-a1f322901019">
        <time>
          <value>2015-08-07T01:41:46.837967Z</value>
          <uncertainty>0.4916732426030944</uncertainty>
          <lowerUncertainty>0.4916732426030944</lowerUncertainty>
          <upperUncertainty>0.4916732426030944</upperUncertainty>
        </time>
        <waveformID networkCode="XT" stationCode="AAE10"></waveformID>
        <methodID>smi:local/auto</methodID>
        <phaseHint>S</phaseHint>
      </pick>
      <pick publicID="smi:local/e514684b-124d-4674-b31c-995cbd74738f">
        <time>
          <value>2015-08-07T01:41:30.048830Z</value>
          <uncertainty>1.2266649869270791</uncertainty>
          <lowerUncertainty>1.2266649869270791</lowerUncertainty>
          <upperUncertainty>1.2266649869270791</upperUncertainty>
        </time>
        <waveformID networkCode="CH" stationCode="WILA"></waveformID>
        <methodID>smi:local/auto</methodID>
        <phaseHint>S</phaseHint>
      </pick>
      <pick publicID="smi:local/fe07dbbe-c33f-4478-992b-9a06d1804b77">
        <time>
          <value>2015-08-07T01:41:24.050710Z</value>
          <uncertainty>0.4485937762770377</uncertainty>
          <lowerUncertainty>0.4485937762770377</lowerUncertainty>
          <upperUncertainty>0.4485937762770377</upperUncertainty>
        </time>
        <waveformID networkCode="CH" stationCode="LLS"></waveformID>
        <methodID>smi:local/auto</methodID>
        <phaseHint>S</phaseHint>
      </pick>
      <pick publicID="smi:local/87d98914-17ff-466a-850f-06e60bbcee63">
        <time>
          <value>2015-08-07T01:41:51.406175Z</value>
          <uncertainty>1.4051604406621547</uncertainty>
          <lowerUncertainty>1.4051604406621547</lowerUncertainty>
          <upperUncertainty>1.4051604406621547</upperUncertainty>
        </time>
        <waveformID networkCode="FR" stationCode="WLS"></waveformID>
        <methodID>smi:local/auto</methodID>
        <phaseHint>S</phaseHint>
      </pick>
      <pick publicID="smi:local/ebe88af3-aeea-4fa6-a42f-b2d69b30d510">
        <time>
          <value>2015-08-07T01:40:19.525677Z</value>
          <uncertainty>1.2718924751645524</uncertainty>
          <lowerUncertainty>1.2718924751645524</lowerUncertainty>
          <upperUncertainty>1.2718924751645524</upperUncertainty>
        </time>
        <waveformID networkCode="IV" stationCode="MAON"></waveformID>
        <methodID>smi:local/auto</methodID>
        <phaseHint>S</phaseHint>
      </pick>
      <pick publicID="smi:local/b45f347d-d837-4cb9-8b37-5d688e96114f">
        <time>
          <value>2015-08-07T01:41:26.117526Z</value>
          <uncertainty>0.9029276950890615</uncertainty>
          <lowerUncertainty>0.9029276950890615</lowerUncertainty>
          <upperUncertainty>0.9029276950890615</upperUncertainty>
        </time>
        <waveformID networkCode="XT" stationCode="AAE27"></waveformID>
        <methodID>smi:local/auto</methodID>
        <phaseHint>S</phaseHint>
      </pick>
      <pick publicID="smi:local/d1b934a2-c922-48ba-8c2f-88a7cd0638c3">
        <time>
          <value>2015-08-07T01:41:07.703208Z</value>
          <uncertainty>0.4522146512619715</uncertainty>
          <lowerUncertainty>0.4522146512619715</lowerUncertainty>
          <upperUncertainty>0.4522146512619715</upperUncertainty>
        </time>
        <waveformID networkCode="ST" stationCode="GAGG"></waveformID>
        <methodID>smi:local/auto</methodID>
        <phaseHint>S</phaseHint>
      </pick>
      <pick publicID="smi:local/1070492e-52fa-4b1e-b279-4cf009caf8f1">
        <time>
          <value>2015-08-07T01:41:35.043720Z</value>
          <uncertainty>0.9050769139519124</uncertainty>
          <lowerUncertainty>0.9050769139519124</lowerUncertainty>
          <upperUncertainty>0.9050769139519124</upperUncertainty>
        </time>
        <waveformID networkCode="CH" stationCode="BRANT"></waveformID>
        <methodID>smi:local/auto</methodID>
        <phaseHint>S</phaseHint>
      </pick>
      <pick publicID="smi:local/6eafc429-301f-4a70-8851-bb8dcc492867">
        <time>
          <value>2015-08-07T01:41:19.602300Z</value>
          <uncertainty>0.6909419773076989</uncertainty>
          <lowerUncertainty>0.6909419773076989</lowerUncertainty>
          <upperUncertainty>0.6909419773076989</upperUncertainty>
        </time>
        <waveformID networkCode="CH" stationCode="EMBD"></waveformID>
        <methodID>smi:local/auto</methodID>
        <phaseHint>S</phaseHint>
      </pick>
      <pick publicID="smi:local/c8bc86ea-ad58-441e-a9ac-1b96574082ad">
        <time>
          <value>2015-08-07T01:41:23.382615Z</value>
          <uncertainty>0.4939523915874157</uncertainty>
          <lowerUncertainty>0.4939523915874157</lowerUncertainty>
          <upperUncertainty>0.4939523915874157</upperUncertainty>
        </time>
        <waveformID networkCode="Z3" stationCode="A024A"></waveformID>
        <methodID>smi:local/auto</methodID>
        <phaseHint>S</phaseHint>
      </pick>
      <pick publicID="smi:local/d0142fed-4136-41b3-a154-f9c78f44696a">
        <time>
          <value>2015-08-07T01:41:02.895016Z</value>
          <uncertainty>1.9171214867267192</uncertainty>
          <lowerUncertainty>1.9171214867267192</lowerUncertainty>
          <upperUncertainty>1.9171214867267192</upperUncertainty>
        </time>
        <waveformID networkCode="GU" stationCode="PZZ"></waveformID>
        <methodID>smi:local/auto</methodID>
        <phaseHint>S</phaseHint>
      </pick>
      <pick publicID="smi:local/c0ab0640-95a3-40c3-a890-d82fdb896c25">
        <time>
          <value>2015-08-07T01:42:11.626992Z</value>
          <uncertainty>0.5944269862476732</uncertainty>
          <lowerUncertainty>0.5944269862476732</lowerUncertainty>
          <upperUncertainty>0.5944269862476732</upperUncertainty>
        </time>
        <waveformID networkCode="GR" stationCode="UBBA"></waveformID>
