<?xml version='1.0' encoding='utf-8'?>
<q:quakeml xmlns="http://quakeml.org/xmlns/bed/1.2" xmlns:q="http://quakeml.org/xmlns/quakeml/1.2">
  <eventParameters publicID="smi:local/4fc803ba-ff28-4e6d-8726-5f19bc71daad">
    <event publicID="smi:local/20150620_021013.a">
      <origin publicID="smi:local/ndk/C201506200210A/origin#cmtorigin">
        <time>
          <value>2015-06-20T02:10:13.400000Z</value>
        </time>
        <latitude>
          <value>-36.35</value>
        </latitude>
        <longitude>
          <value>-74.1</value>
        </longitude>
        <depth>
          <value>12.0</value>
        </depth>
      </origin>
      <magnitude publicID="smi:local/dae2d8f5-e8e3-4f1a-abcc-76f6f902a7b9">
        <mag>
          <value>6.41</value>
        </mag>
        <type>Mwc</type>
        <originID>smi:local/ndk/C201506200210A/origin#cmtorigin</originID>
      </magnitude>
      <pick publicID="smi:local/b352a5a0-e31a-4c2c-a8ab-b6141003470a">
        <time>
          <value>2015-06-20T02:35:23.934108Z</value>
          <uncertainty>1.4301711709061349</uncertainty>
          <lowerUncertainty>1.4301711709061349</lowerUncertainty>
          <upperUncertainty>1.4301711709061349</upperUncertainty>
        </time>
        <waveformID networkCode="IV" stationCode="FSSB"></waveformID>
        <methodID>smi:local/auto</methodID>
        <phaseHint>SKS</phaseHint>
      </pick>
      <pick publicID="smi:local/8c591268-74a9-4c30-b3ab-4a21269c2ad2">
        <time>
          <value>2015-06-20T02:35:25.227391Z</value>
          <uncertainty>1.3054852719000323</uncertainty>
          <lowerUncertainty>1.3054852719000323</lowerUncertainty>
          <upperUncertainty>1.3054852719000323</upperUncertainty>
        </time>
        <waveformID networkCode="SI" stationCode="ROSI"></waveformID>
        <methodID>smi:local/auto</methodID>
        <phaseHint>SKS</phaseHint>
      </pick>
      <pick publicID="smi:local/6d7ef0c3-ad50-4621-8f23-7bac4150f12f">
        <time>
          <value>2015-06-20T02:35:21.095400Z</value>
          <uncertainty>1.1710695591126934</uncertainty>
          <lowerUncertainty>1.1710695591126934</lowerUncertainty>
          <upperUncertainty>1.1710695591126934</upperUncertainty>
        </time>
        <waveformID networkCode="IV" stationCode="CERT"></waveformID>
        <methodID>smi:local/auto</methodID>
        <phaseHint>SKS</phaseHint>
      </pick>
      <pick publicID="smi:local/b7b57e3f-bdd0-4a57-bc40-77d29a4d0966">
        <time>
          <value>2015-06-20T02:35:14.366138Z</value>
          <uncertainty>0.9577385071479092</uncertainty>
          <lowerUncertainty>0.9577385071479092</lowerUncertainty>
          <upperUncertainty>0.9577385071479092</upperUncertainty>
        </time>
        <waveformID networkCode="IV" stationCode="MONC"></waveformID>
        <methodID>smi:local/auto</methodID>
        <phaseHint>SKS</phaseHint>
      </pick>
      <pick publicID="smi:local/c4bdb784-5880-4a65-9eb4-dacd3d943e5d">
        <time>
          <value>2015-06-20T02:35:06.168018Z</value>
          <uncertainty>0.4693995043805975</uncertainty>
          <lowerUncertainty>0.4693995043805975</lowerUncertainty>
          <upperUncertainty>0.4693995043805975</upperUncertainty>
        </time>
        <waveformID networkCode="FR" stationCode="ARBF"></waveformID>
        <methodID>smi:local/auto</methodID>
        <phaseHint>SKS</phaseHint>
      </pick>
      <pick publicID="smi:local/ed68e949-4e27-40e9-a3ee-90252c9ff421">
        <time>
          <value>2015-06-20T02:35:19.886545Z</value>
          <uncertainty>1.1170820169703006</uncertainty>
          <lowerUncertainty>1.1170820169703006</lowerUncertainty>
          <upperUncertainty>1.1170820169703006</upperUncertainty>
        </time>
        <waveformID networkCode="IV" stationCode="ROM9"></waveformID>
        <methodID>smi:local/auto</methodID>
        <phaseHint>SKS</phaseHint>
      </pick>
      <pick publicID="smi:local/86a0991a-53ed-484b-90f5-d50332f98557">
        <time>
          <value>2015-06-20T02:35:20.276503Z</value>
          <uncertainty>1.77328015270379</uncertainty>
          <lowerUncertainty>1.77328015270379</lowerUncertainty>
          <upperUncertainty>1.77328015270379</upperUncertainty>
        </time>
        <waveformID networkCode="IV" stationCode="OSSC"></waveformID>
        <methodID>smi:local/auto</methodID>
        <phaseHint>SKS</phaseHint>
      </pick>
      <pick publicID="smi:local/ee45df7a-9486-45d5-a516-639727bf4bc1">
        <time>
          <value>2015-06-20T02:35:06.753933Z</value>
          <uncertainty>0.7743169963172838</uncertainty>
          <lowerUncertainty>0.7743169963172838</lowerUncertainty>
          <upperUncertainty>0.7743169963172838</upperUncertainty>
        </time>
        <waveformID networkCode="FR" stationCode="CFF"></waveformID>
        <methodID>smi:local/auto</methodID>
        <phaseHint>SKS</phaseHint>
      </pick>
      <pick publicID="smi:local/19741f48-bd33-4954-94fb-dfa7d5f309ab">
        <time>
          <value>2015-06-20T02:35:24.642141Z</value>
          <uncertainty>1.4501084287940964</uncertainty>
          <lowerUncertainty>1.4501084287940964</lowerUncertainty>
          <upperUncertainty>1.4501084287940964</upperUncertainty>
        </time>
        <waveformID networkCode="IV" stationCode="INTR"></waveformID>
        <methodID>smi:local/auto</methodID>
        <phaseHint>SKS</phaseHint>
      </pick>
      <pick publicID="smi:local/b6328c1d-8ee6-46ef-a3e8-e2cf6ea5d403">
        <time>
          <value>2015-06-20T02:35:22.246865Z</value>
          <uncertainty>0.5343658768395251</uncertainty>
          <lowerUncertainty>0.5343658768395251</lowerUncertainty>
          <upperUncertainty>0.5343658768395251</upperUncertainty>
        </time>
        <waveformID networkCode="IV" stationCode="BRIS"></waveformID>
        <methodID>smi:local/auto</methodID>
        <phaseHint>SKS</phaseHint>
      </pick>
      <pick publicID="smi:local/93d92467-9089-4d00-a0ef-767b6f441b0d">
        <time>
          <value>2015-06-20T02:35:24.339878Z</value>
          <uncertainty>0.3479227906643226</uncertainty>
          <lowerUncertainty>0.3479227906643226</lowerUncertainty>
          <upperUncertainty>0.3479227906643226</upperUncertainty>
        </time>
        <waveformID networkCode="IV" stationCode="CING"></waveformID>
        <methodID>smi:local/auto</methodID>
        <phaseHint>SKS</phaseHint>
      </pick>
      <pick publicID="smi:local/5bec84a0-9cf4-491d-82be-edebfb201adb">
        <time>
          <value>2015-06-20T02:35:33.286347Z</value>
          <uncertainty>1.5548275776977925</uncertainty>
          <lowerUncertainty>1.5548275776977925</lowerUncertainty>
          <upperUncertainty>1.5548275776977925</upperUncertainty>
        </time>
        <waveformID networkCode="GR" stationCode="GRB3"></waveformID>
        <methodID>smi:local/auto</methodID>
        <phaseHint>SKS</phaseHint>
      </pick>
      <pick publicID="smi:local/a60f492f-59ea-462e-a0d3-d0ba795e9f8a">
        <time>
          <value>2015-06-20T02:35:23.618495Z</value>
          <uncertainty>0.3274276277482368</uncertainty>
          <lowerUncertainty>0.3274276277482368</lowerUncertainty>
          <upperUncertainty>0.3274276277482368</upperUncertainty>
        </time>
        <waveformID networkCode="GR" stationCode="BFO"></waveformID>
        <methodID>smi:local/auto</methodID>
        <phaseHint>SKS</phaseHint>
      </pick>
      <pick publicID="smi:local/05463ef3-c6df-40aa-a322-cefe07a0d5a0">
        <time>
          <value>2015-06-20T02:35:15.892779Z</value>
          <uncertainty>0.540121690850772</uncertainty>
          <lowerUncertainty>0.540121690850772</lowerUncertainty>
          <upperUncertainty>0.540121690850772</upperUncertainty>
        </time>
        <waveformID networkCode="IV" stationCode="MSSA"></waveformID>
        <methodID>smi:local/auto</methodID>
        <phaseHint>SKS</phaseHint>
      </pick>
      <pick publicID="smi:local/c2395fa2-88ab-488b-9f11-b0980504e05f">
        <time>
          <value>2015-06-20T02:35:21.570291Z</value>
          <uncertainty>1.0126237831858331</uncertainty>
          <lowerUncertainty>1.0126237831858331</lowerUncertainty>
          <upperUncertainty>1.0126237831858331</upperUncertainty>
        </time>
        <waveformID networkCode="IV" stationCode="ASQU"></waveformID>
        <methodID>smi:local/auto</methodID>
        <phaseHint>SKS</phaseHint>
      </pick>
      <pick publicID="smi:local/66860570-ba5e-41b0-b2d3-dd4b8e67d9f1">
        <time>
          <value>2015-06-20T02:35:23.031536Z</value>
          <uncertainty>1.371401422767506</uncertainty>
          <lowerUncertainty>1.371401422767506</lowerUncertainty>
          <upperUncertainty>1.371401422767506</upperUncertainty>
        </time>
        <waveformID networkCode="IV" stationCode="VVLD"></waveformID>
        <methodID>smi:local/auto</methodID>
        <phaseHint>SKS</phaseHint>
      </pick>
      <pick publicID="smi:local/c16f1a53-ec23-4011-bb0e-c3c03e00b563">
        <time>
          <value>2015-06-20T02:35:24.600727Z</value>
          <uncertainty>1.662201392613396</uncertainty>
          <lowerUncertainty>1.662201392613396</lowerUncertainty>
          <upperUncertainty>1.662201392613396</upperUncertainty>
        </time>
        <waveformID networkCode="IV" stationCode="SSFR"></waveformID>
        <methodID>smi:local/auto</methodID>
        <phaseHint>SKS</phaseHint>
      </pick>
      <pick publicID="smi:local/4e34fdd6-2a42-4e5d-9085-e9086efb2442">
        <time>
          <value>2015-06-20T02:35:28.916178Z</value>
          <uncertainty>0.5282302812602554</uncertainty>
          <lowerUncertainty>0.5282302812602554</lowerUncertainty>
          <upperUncertainty>0.5282302812602554</upperUncertainty>
        </time>
        <waveformID networkCode="XT" stationCode="AAE53"></waveformID>
        <methodID>smi:local/auto</methodID>
        <phaseHint>SKS</phaseHint>
      </pick>
      <pick publicID="smi:local/991faf12-3655-45ee-a29d-e6f071313a08">
        <time>
          <value>2015-06-20T02:35:28.579902Z</value>
          <uncertainty>1.017376837638435</uncertainty>
          <lowerUncertainty>1.017376837638435</lowerUncertainty>
          <upperUncertainty>1.017376837638435</upperUncertainty>
        </time>
        <waveformID networkCode="XT" stationCode="AAE54"></waveformID>
        <methodID>smi:local/auto</methodID>
        <phaseHint>SKS</phaseHint>
      </pick>
      <pick publicID="smi:local/ce48c87f-bbb9-4376-b59f-cdbffff92ff9">
        <time>
          <value>2015-06-20T02:35:23.089742Z</value>
          <uncertainty>0.3897197657245896</uncertainty>
          <lowerUncertainty>0.3897197657245896</lowerUncertainty>
          <upperUncertainty>0.3897197657245896</upperUncertainty>
        </time>
        <waveformID networkCode="IV" stationCode="PIEI"></waveformID>
        <methodID>smi:local/auto</methodID>
        <phaseHint>SKS</phaseHint>
      </pick>
      <pick publicID="smi:local/f2f26434-b951-4ab1-b38d-ddf952458aee">
        <time>
          <value>2015-06-20T02:35:30.158503Z</value>
          <uncertainty>0.8287918056845103</uncertainty>
          <lowerUncertainty>0.8287918056845103</lowerUncertainty>
          <upperUncertainty>0.8287918056845103</upperUncertainty>
        </time>
        <waveformID networkCode="XT" stationCode="AAE32"></waveformID>
        <methodID>smi:local/auto</methodID>
        <phaseHint>SKS</phaseHint>
      </pick>
      <pick publicID="smi:local/874eaa8c-388e-46cd-ad25-f89a21f9eaff">
        <time>
          <value>2015-06-20T02:35:30.451009Z</value>
          <uncertainty>0.48015166544153676</uncertainty>
          <lowerUncertainty>0.48015166544153676</lowerUncertainty>
          <upperUncertainty>0.48015166544153676</upperUncertainty>
        </time>
        <waveformID networkCode="GR" stationCode="MILB"></waveformID>
        <methodID>smi:local/auto</methodID>
        <phaseHint>SKS</phaseHint>
      </pick>
      <pick publicID="smi:local/8dea2f88-2510-4276-9bbd-43ee2cda72f3">
        <time>
          <value>2015-06-20T02:35:22.702259Z</value>
          <uncertainty>0.9134064082459085</uncertainty>
          <lowerUncertainty>0.9134064082459085</lowerUncertainty>
          <upperUncertainty>0.9134064082459085</upperUncertainty>
        </time>
        <waveformID networkCode="IV" stationCode="PARC"></waveformID>
        <methodID>smi:local/auto</methodID>
        <phaseHint>SKS</phaseHint>
      </pick>
      <pick publicID="smi:local/4b4ba44b-cf6e-4f54-9ff1-a1fd7f33540c">
        <time>
          <value>2015-06-20T02:35:24.349600Z</value>
          <uncertainty>1.4993586937693513</uncertainty>
          <lowerUncertainty>1.4993586937693513</lowerUncertainty>
          <upperUncertainty>1.4993586937693513</upperUncertainty>
        </time>
        <waveformID networkCode="SI" stationCode="BOSI"></waveformID>
        <methodID>smi:local/auto</methodID>
        <phaseHint>SKS</phaseHint>
      </pick>
      <pick publicID="smi:local/9cc2020e-b5da-4583-b6ce-3b11bde02588">
        <time>
          <value>2015-06-20T02:35:24.324844Z</value>
          <uncertainty>0.8527302418587148</uncertainty>
          <lowerUncertainty>0.8527302418587148</lowerUncertainty>
          <upperUncertainty>0.8527302418587148</upperUncertainty>
        </time>
        <waveformID networkCode="IV" stationCode="ARVD"></waveformID>
        <methodID>smi:local/auto</methodID>
        <phaseHint>SKS</phaseHint>
      </pick>
      <pick publicID="smi:local/5939561b-a6aa-4b78-96a8-9e53bcfb094b">
        <time>
          <value>2015-06-20T02:35:30.921358Z</value>
          <uncertainty>1.1994760208216575</uncertainty>
          <lowerUncertainty>1.1994760208216575</lowerUncertainty>
          <upperUncertainty>1.1994760208216575</upperUncertainty>
        </time>
        <waveformID networkCode="XT" stationCode="AAE29"></waveformID>
        <methodID>smi:local/auto</methodID>
        <phaseHint>SKS</phaseHint>
      </pick>
      <pick publicID="smi:local/99211719-1066-46a1-a6a4-a6e0f4f733a5">
        <time>
          <value>2015-06-20T02:35:13.921735Z</value>
          <uncertainty>1.1842001209373907</uncertainty>
          <lowerUncertainty>1.1842001209373907</lowerUncertainty>
          <upperUncertainty>1.1842001209373907</upperUncertainty>
        </time>
        <waveformID networkCode="YI" stationCode="SG07"></waveformID>
        <methodID>smi:local/auto</methodID>
        <phaseHint>SKS</phaseHint>
      </pick>
      <pick publicID="smi:local/c6e9db6a-f0ca-4791-8563-fbc1da0eee6a">
        <time>
          <value>2015-06-20T02:35:10.983306Z</value>
          <uncertainty>0.6811043009458864</uncertainty>
          <lowerUncertainty>0.6811043009458864</lowerUncertainty>
          <upperUncertainty>0.6811043009458864</upperUncertainty>
        </time>
        <waveformID networkCode="FR" stationCode="OGS1"></waveformID>
        <methodID>smi:local/auto</methodID>
        <phaseHint>SKS</phaseHint>
      </pick>
      <pick publicID="smi:local/3b4207a7-9128-4f79-94f3-d3a82ed22f8a">
        <time>
          <value>2015-06-20T02:35:16.010195Z</value>
          <uncertainty>0.4610901570373538</uncertainty>
          <lowerUncertainty>0.4610901570373538</lowerUncertainty>
          <upperUncertainty>0.4610901570373538</upperUncertainty>
        </time>
        <waveformID networkCode="GU" stationCode="GORR"></waveformID>
        <methodID>smi:local/auto</methodID>
        <phaseHint>SKS</phaseHint>
      </pick>
      <pick publicID="smi:local/20f97f00-23c1-454c-8cbd-398f816524d9">
        <time>
          <value>2015-06-20T02:35:24.484709Z</value>
          <uncertainty>0.8765148361439786</uncertainty>
          <lowerUncertainty>0.8765148361439786</lowerUncertainty>
          <upperUncertainty>0.8765148361439786</upperUncertainty>
        </time>
        <waveformID networkCode="IV" stationCode="FAGN"></waveformID>
        <methodID>smi:local/auto</methodID>
        <phaseHint>SKS</phaseHint>
      </pick>
      <pick publicID="smi:local/1a0e4dbd-f4a8-4502-a5f8-94a0d81d1941">
        <time>
          <value>2015-06-20T02:35:15.505100Z</value>
          <uncertainty>0.6594813877997235</uncertainty>
          <lowerUncertainty>0.6594813877997235</lowerUncertainty>
          <upperUncertainty>0.6594813877997235</upperUncertainty>
        </time>
        <waveformID networkCode="IV" stationCode="VARE"></waveformID>
        <methodID>smi:local/auto</methodID>
        <phaseHint>SKS</phaseHint>
      </pick>
      <pick publicID="smi:local/55a03ce4-893b-4913-b0c2-8e89c74d7775">
        <time>
          <value>2015-06-20T02:35:12.376267Z</value>
          <uncertainty>0.7866749699239499</uncertainty>
          <lowerUncertainty>0.7866749699239499</lowerUncertainty>
          <upperUncertainty>0.7866749699239499</upperUncertainty>
        </time>
        <waveformID networkCode="MN" stationCode="BNI"></waveformID>
        <methodID>smi:local/auto</methodID>
        <phaseHint>SKS</phaseHint>
      </pick>
      <pick publicID="smi:local/2af88785-53b5-47b1-8f10-2ef6fd652a08">
        <time>
          <value>2015-06-20T02:35:43.290917Z</value>
          <uncertainty>0.7426288793651163</uncertainty>
          <lowerUncertainty>0.7426288793651163</lowerUncertainty>
          <upperUncertainty>0.7426288793651163</upperUncertainty>
        </time>
        <waveformID networkCode="HU" stationCode="BUD"></waveformID>
        <methodID>smi:local/auto</methodID>
        <phaseHint>SKS</phaseHint>
      </pick>
      <pick publicID="smi:local/2728b4fc-b189-4d4c-b2ef-1d0c7d0892dd">
        <time>
          <value>2015-06-20T02:35:22.177170Z</value>
          <uncertainty>1.8964943496977342</uncertainty>
          <lowerUncertainty>1.8964943496977342</lowerUncertainty>
          <upperUncertainty>1.8964943496977342</upperUncertainty>
        </time>
        <waveformID networkCode="IV" stationCode="MABI"></waveformID>
        <methodID>smi:local/auto</methodID>
        <phaseHint>SKS</phaseHint>
      </pick>
      <pick publicID="smi:local/a177f31e-d263-4faf-bf09-031e4b404659">
        <time>
          <value>2015-06-20T02:35:23.908511Z</value>
          <uncertainty>0.521250114720337</uncertainty>
          <lowerUncertainty>0.521250114720337</lowerUncertainty>
          <upperUncertainty>0.521250114720337</upperUncertainty>
        </time>
        <waveformID networkCode="SI" stationCode="MOSI"></waveformID>
        <methodID>smi:local/auto</methodID>
        <phaseHint>SKS</phaseHint>
      </pick>
      <pick publicID="smi:local/44dff39f-cb5d-43fa-bd46-b184022d29af">
        <time>
          <value>2015-06-20T02:35:22.003655Z</value>
          <uncertainty>0.4686693772685105</uncertainty>
          <lowerUncertainty>0.4686693772685105</lowerUncertainty>
          <upperUncertainty>0.4686693772685105</upperUncertainty>
        </time>
        <waveformID networkCode="IV" stationCode="MOMA"></waveformID>
        <methodID>smi:local/auto</methodID>
        <phaseHint>SKS</phaseHint>
      </pick>
      <pick publicID="smi:local/94b5b8c1-eeb8-4754-a6a9-57c717de668a">
        <time>
          <value>2015-06-20T02:35:17.993365Z</value>
          <uncertainty>1.012540337346608</uncertainty>
          <lowerUncertainty>1.012540337346608</lowerUncertainty>
          <upperUncertainty>1.012540337346608</upperUncertainty>
        </time>
        <waveformID networkCode="IV" stationCode="MDI"></waveformID>
        <methodID>smi:local/auto</methodID>
        <phaseHint>SKS</phaseHint>
      </pick>
      <pick publicID="smi:local/e8b0f85d-bc42-46a3-b8df-a5c5c32c0c11">
        <time>
          <value>2015-06-20T02:35:16.829694Z</value>
          <uncertainty>0.5469394734158575</uncertainty>
          <lowerUncertainty>0.5469394734158575</lowerUncertainty>
          <upperUncertainty>0.5469394734158575</upperUncertainty>
        </time>
