<?xml version='1.0' encoding='utf-8'?>
<q:quakeml xmlns="http://quakeml.org/xmlns/bed/1.2" xmlns:q="http://quakeml.org/xmlns/quakeml/1.2">
  <eventParameters publicID="smi:local/ae26b044-5c22-4e2b-8075-73bda642dd3f">
    <event publicID="smi:local/20150624_223222.a">
      <origin publicID="smi:local/ndk/C201506242232A/origin#cmtorigin">
        <time>
          <value>2015-06-24T22:32:22.700000Z</value>
        </time>
        <latitude>
          <value>61.85</value>
        </latitude>
        <longitude>
          <value>-152.01</value>
        </longitude>
        <depth>
          <value>125.7</value>
        </depth>
      </origin>
      <magnitude publicID="smi:local/4e83fb9f-46a6-4a8a-9c6f-4ac2bc3e0cef">
        <mag>
          <value>5.82</value>
        </mag>
        <type>Mwc</type>
        <originID>smi:local/ndk/C201506242232A/origin#cmtorigin</originID>
      </magnitude>
      <pick publicID="smi:local/aadd8041-381b-41f5-b220-b46c59feb0f2">
        <time>
          <value>2015-06-24T22:52:34.494055Z</value>
          <uncertainty>0.4571141258311426</uncertainty>
          <lowerUncertainty>0.4571141258311426</lowerUncertainty>
          <upperUncertainty>0.4571141258311426</upperUncertainty>
        </time>
        <waveformID networkCode="FR" stationCode="CFF"></waveformID>
        <methodID>smi:local/auto</methodID>
        <phaseHint>S</phaseHint>
      </pick>
      <pick publicID="smi:local/7857be46-6a44-427c-a578-94245b92ad1e">
        <time>
          <value>2015-06-24T22:53:21.353127Z</value>
          <uncertainty>1.2034295978947698</uncertainty>
          <lowerUncertainty>1.2034295978947698</lowerUncertainty>
          <upperUncertainty>1.2034295978947698</upperUncertainty>
        </time>
        <waveformID networkCode="FR" stationCode="CORF"></waveformID>
        <methodID>smi:local/auto</methodID>
        <phaseHint>S</phaseHint>
      </pick>
      <pick publicID="smi:local/af4d1ef4-d909-465d-bcf6-d3e67fa34465">
        <time>
          <value>2015-06-24T22:53:12.768792Z</value>
          <uncertainty>0.4535897654670728</uncertainty>
          <lowerUncertainty>0.4535897654670728</lowerUncertainty>
          <upperUncertainty>0.4535897654670728</upperUncertainty>
        </time>
        <waveformID networkCode="IV" stationCode="CING"></waveformID>
        <methodID>smi:local/auto</methodID>
        <phaseHint>S</phaseHint>
      </pick>
      <pick publicID="smi:local/d06d8076-7b34-440a-94a1-54965b5203c4">
        <time>
          <value>2015-06-24T22:52:32.069637Z</value>
          <uncertainty>0.6894221677156877</uncertainty>
          <lowerUncertainty>0.6894221677156877</lowerUncertainty>
          <upperUncertainty>0.6894221677156877</upperUncertainty>
        </time>
        <waveformID networkCode="SI" stationCode="ROSI"></waveformID>
        <methodID>smi:local/auto</methodID>
        <phaseHint>S</phaseHint>
      </pick>
      <pick publicID="smi:local/85fd7f6a-bb0f-4a6e-ad6a-37aa1bf8c61d">
        <time>
          <value>2015-06-24T22:52:42.931560Z</value>
          <uncertainty>0.7390799449214394</uncertainty>
          <lowerUncertainty>0.7390799449214394</lowerUncertainty>
          <upperUncertainty>0.7390799449214394</upperUncertainty>
        </time>
        <waveformID networkCode="XT" stationCode="AAE53"></waveformID>
        <methodID>smi:local/auto</methodID>
        <phaseHint>S</phaseHint>
      </pick>
      <pick publicID="smi:local/151e2583-5520-4b9a-aa38-9739d6b337b8">
        <time>
          <value>2015-06-24T22:52:19.761610Z</value>
          <uncertainty>0.5180681846667452</uncertainty>
          <lowerUncertainty>0.5180681846667452</lowerUncertainty>
          <upperUncertainty>0.5180681846667452</upperUncertainty>
        </time>
        <waveformID networkCode="Z3" stationCode="A005A"></waveformID>
        <methodID>smi:local/auto</methodID>
        <phaseHint>S</phaseHint>
      </pick>
      <pick publicID="smi:local/47a91624-e8ec-4dcb-b026-e1d476c7ba56">
        <time>
          <value>2015-06-24T22:52:49.152988Z</value>
          <uncertainty>0.758175438788492</uncertainty>
          <lowerUncertainty>0.758175438788492</lowerUncertainty>
          <upperUncertainty>0.758175438788492</upperUncertainty>
        </time>
        <waveformID networkCode="IV" stationCode="MONC"></waveformID>
        <methodID>smi:local/auto</methodID>
        <phaseHint>S</phaseHint>
      </pick>
      <pick publicID="smi:local/891fc25a-15a8-4bfa-b05a-1b26292782f0">
        <time>
          <value>2015-06-24T22:52:29.122042Z</value>
          <uncertainty>0.945880982564343</uncertainty>
          <lowerUncertainty>0.945880982564343</lowerUncertainty>
          <upperUncertainty>0.945880982564343</upperUncertainty>
        </time>
        <waveformID networkCode="Z3" stationCode="A009A"></waveformID>
        <methodID>smi:local/auto</methodID>
        <phaseHint>S</phaseHint>
      </pick>
      <pick publicID="smi:local/b59cb9a5-a1d6-41e3-a4a0-d3c1936486c5">
        <time>
          <value>2015-06-24T22:53:06.931809Z</value>
          <uncertainty>0.5716434292716039</uncertainty>
          <lowerUncertainty>0.5716434292716039</lowerUncertainty>
          <upperUncertainty>0.5716434292716039</upperUncertainty>
        </time>
        <waveformID networkCode="IV" stationCode="OSSC"></waveformID>
        <methodID>smi:local/auto</methodID>
        <phaseHint>S</phaseHint>
      </pick>
      <pick publicID="smi:local/62da6b20-3c90-49ab-b509-5706960c3e57">
        <time>
          <value>2015-06-24T22:52:16.656887Z</value>
          <uncertainty>0.5943627308970495</uncertainty>
          <lowerUncertainty>0.5943627308970495</lowerUncertainty>
          <upperUncertainty>0.5943627308970495</upperUncertainty>
        </time>
        <waveformID networkCode="Z3" stationCode="A001A"></waveformID>
        <methodID>smi:local/auto</methodID>
        <phaseHint>S</phaseHint>
      </pick>
      <pick publicID="smi:local/e1664919-ece9-469e-aa1d-08c4fbd2331d">
        <time>
          <value>2015-06-24T22:53:28.388239Z</value>
          <uncertainty>0.5593217871733497</uncertainty>
          <lowerUncertainty>0.5593217871733497</lowerUncertainty>
          <upperUncertainty>0.5593217871733497</upperUncertainty>
        </time>
        <waveformID networkCode="IV" stationCode="INTR"></waveformID>
        <methodID>smi:local/auto</methodID>
        <phaseHint>S</phaseHint>
      </pick>
      <pick publicID="smi:local/0c86d1dc-fff6-445a-8b68-968e10383e8a">
        <time>
          <value>2015-06-24T22:53:02.986168Z</value>
          <uncertainty>0.7840807079003055</uncertainty>
          <lowerUncertainty>0.7840807079003055</lowerUncertainty>
          <upperUncertainty>0.7840807079003055</upperUncertainty>
        </time>
        <waveformID networkCode="IV" stationCode="BRIS"></waveformID>
        <methodID>smi:local/auto</methodID>
        <phaseHint>S</phaseHint>
      </pick>
      <pick publicID="smi:local/46cfbcbf-f190-463e-8f3d-0fc3cb9d5e76">
        <time>
          <value>2015-06-24T22:53:29.436757Z</value>
          <uncertainty>0.6439396300204653</uncertainty>
          <lowerUncertainty>0.6439396300204653</lowerUncertainty>
          <upperUncertainty>0.6439396300204653</upperUncertainty>
        </time>
        <waveformID networkCode="IV" stationCode="ROM9"></waveformID>
        <methodID>smi:local/auto</methodID>
        <phaseHint>S</phaseHint>
      </pick>
      <pick publicID="smi:local/a465e5a7-91a0-4756-bfb6-73960da9c4d5">
        <time>
          <value>2015-06-24T22:52:35.703258Z</value>
          <uncertainty>0.6243670663814813</uncertainty>
          <lowerUncertainty>0.6243670663814813</lowerUncertainty>
          <upperUncertainty>0.6243670663814813</upperUncertainty>
        </time>
        <waveformID networkCode="CH" stationCode="VDL"></waveformID>
        <methodID>smi:local/auto</methodID>
        <phaseHint>S</phaseHint>
      </pick>
      <pick publicID="smi:local/e8cb126d-79c9-419a-8d07-5532d95c252f">
        <time>
          <value>2015-06-24T22:53:27.752346Z</value>
          <uncertainty>0.7262207531422449</uncertainty>
          <lowerUncertainty>0.7262207531422449</lowerUncertainty>
          <upperUncertainty>0.7262207531422449</upperUncertainty>
        </time>
        <waveformID networkCode="IV" stationCode="CERT"></waveformID>
        <methodID>smi:local/auto</methodID>
        <phaseHint>S</phaseHint>
      </pick>
      <pick publicID="smi:local/0a9263f1-0074-4bf9-bbdb-bbe2879c0020">
        <time>
          <value>2015-06-24T22:52:43.652631Z</value>
          <uncertainty>0.8454877849659085</uncertainty>
          <lowerUncertainty>0.8454877849659085</lowerUncertainty>
          <upperUncertainty>0.8454877849659085</upperUncertainty>
        </time>
        <waveformID networkCode="XT" stationCode="AAE54"></waveformID>
        <methodID>smi:local/auto</methodID>
        <phaseHint>S</phaseHint>
      </pick>
      <pick publicID="smi:local/c00207d8-03a7-435b-b75d-b864c8613192">
        <time>
          <value>2015-06-24T22:53:12.228787Z</value>
          <uncertainty>0.6672889081904272</uncertainty>
          <lowerUncertainty>0.6672889081904272</lowerUncertainty>
          <upperUncertainty>0.6672889081904272</upperUncertainty>
        </time>
        <waveformID networkCode="IV" stationCode="SSFR"></waveformID>
        <methodID>smi:local/auto</methodID>
        <phaseHint>S</phaseHint>
      </pick>
      <pick publicID="smi:local/3990d7f0-22ce-4242-914c-b26d902e5188">
        <time>
          <value>2015-06-24T22:52:29.352099Z</value>
          <uncertainty>1.0271443047520898</uncertainty>
          <lowerUncertainty>1.0271443047520898</lowerUncertainty>
          <upperUncertainty>1.0271443047520898</upperUncertainty>
        </time>
        <waveformID networkCode="HU" stationCode="SOP"></waveformID>
        <methodID>smi:local/auto</methodID>
        <phaseHint>S</phaseHint>
      </pick>
      <pick publicID="smi:local/d336b94e-8a27-4e89-9aff-7ea9f99b36e9">
        <time>
          <value>2015-06-24T22:52:02.540230Z</value>
          <uncertainty>0.4254291392513736</uncertainty>
          <lowerUncertainty>0.4254291392513736</lowerUncertainty>
          <upperUncertainty>0.4254291392513736</upperUncertainty>
        </time>
        <waveformID networkCode="GR" stationCode="GRB4"></waveformID>
        <methodID>smi:local/auto</methodID>
        <phaseHint>S</phaseHint>
      </pick>
      <pick publicID="smi:local/28f6c7e9-a2be-48ab-b772-5256c4ee3251">
        <time>
          <value>2015-06-24T22:52:00.186977Z</value>
          <uncertainty>0.4446256442768515</uncertainty>
          <lowerUncertainty>0.4446256442768515</lowerUncertainty>
          <upperUncertainty>0.4446256442768515</upperUncertainty>
        </time>
        <waveformID networkCode="GR" stationCode="GRA2"></waveformID>
        <methodID>smi:local/auto</methodID>
        <phaseHint>S</phaseHint>
      </pick>
      <pick publicID="smi:local/420bce5c-a7ad-4d38-92d8-82534d24f628">
        <time>
          <value>2015-06-24T22:52:55.753616Z</value>
          <uncertainty>1.0308226808669212</uncertainty>
          <lowerUncertainty>1.0308226808669212</lowerUncertainty>
          <upperUncertainty>1.0308226808669212</upperUncertainty>
        </time>
        <waveformID networkCode="IV" stationCode="MSSA"></waveformID>
        <methodID>smi:local/auto</methodID>
        <phaseHint>S</phaseHint>
      </pick>
      <pick publicID="smi:local/9fc1e5b7-9c1f-44c4-8f31-2547f5498d27">
        <time>
          <value>2015-06-24T22:53:11.033955Z</value>
          <uncertainty>0.4704666942663484</uncertainty>
          <lowerUncertainty>0.4704666942663484</lowerUncertainty>
          <upperUncertainty>0.4704666942663484</upperUncertainty>
        </time>
        <waveformID networkCode="IV" stationCode="ARVD"></waveformID>
        <methodID>smi:local/auto</methodID>
        <phaseHint>S</phaseHint>
      </pick>
      <pick publicID="smi:local/cd7816ba-2034-491e-835a-597f056c2bb4">
        <time>
          <value>2015-06-24T22:51:47.491626Z</value>
          <uncertainty>0.6747190722971983</uncertainty>
          <lowerUncertainty>0.6747190722971983</lowerUncertainty>
          <upperUncertainty>0.6747190722971983</upperUncertainty>
        </time>
        <waveformID networkCode="TH" stationCode="CRUX"></waveformID>
        <methodID>smi:local/auto</methodID>
        <phaseHint>S</phaseHint>
      </pick>
      <pick publicID="smi:local/b8288236-9249-47ee-9d94-9158395cf523">
        <time>
          <value>2015-06-24T22:52:36.485330Z</value>
          <uncertainty>0.7454532274171479</uncertainty>
          <lowerUncertainty>0.7454532274171479</lowerUncertainty>
          <upperUncertainty>0.7454532274171479</upperUncertainty>
        </time>
        <waveformID networkCode="HU" stationCode="MPLH"></waveformID>
        <methodID>smi:local/auto</methodID>
        <phaseHint>S</phaseHint>
      </pick>
      <pick publicID="smi:local/b374eed1-3812-4747-8c1b-b45af740ddd7">
        <time>
          <value>2015-06-24T22:52:28.499445Z</value>
          <uncertainty>0.7740221157212803</uncertainty>
          <lowerUncertainty>0.7740221157212803</lowerUncertainty>
          <upperUncertainty>0.7740221157212803</upperUncertainty>
        </time>
        <waveformID networkCode="XT" stationCode="AAE36"></waveformID>
        <methodID>smi:local/auto</methodID>
        <phaseHint>S</phaseHint>
      </pick>
      <pick publicID="smi:local/70d2e6d2-9b51-4ed0-896b-3c3241f62e7f">
        <time>
          <value>2015-06-24T22:53:00.229180Z</value>
          <uncertainty>0.5375760921425315</uncertainty>
          <lowerUncertainty>0.5375760921425315</lowerUncertainty>
          <upperUncertainty>0.5375760921425315</upperUncertainty>
        </time>
        <waveformID networkCode="IV" stationCode="IMI"></waveformID>
        <methodID>smi:local/auto</methodID>
        <phaseHint>S</phaseHint>
      </pick>
      <pick publicID="smi:local/a5c7de76-c6c8-4b36-a08d-e9cec06ca796">
        <time>
          <value>2015-06-24T22:51:55.693340Z</value>
          <uncertainty>0.38299633954921974</uncertainty>
          <lowerUncertainty>0.38299633954921974</lowerUncertainty>
          <upperUncertainty>0.38299633954921974</upperUncertainty>
        </time>
        <waveformID networkCode="GR" stationCode="MILB"></waveformID>
        <methodID>smi:local/auto</methodID>
        <phaseHint>S</phaseHint>
      </pick>
      <pick publicID="smi:local/18e8f4c9-904f-4c00-ad42-05863f0a55ab">
        <time>
          <value>2015-06-24T22:53:09.736345Z</value>
          <uncertainty>0.6813408489438987</uncertainty>
          <lowerUncertainty>0.6813408489438987</lowerUncertainty>
          <upperUncertainty>0.6813408489438987</upperUncertainty>
        </time>
        <waveformID networkCode="IV" stationCode="PARC"></waveformID>
        <methodID>smi:local/auto</methodID>
        <phaseHint>S</phaseHint>
      </pick>
      <pick publicID="smi:local/fc59762d-7276-4fc7-be43-573fbbbd9903">
        <time>
          <value>2015-06-24T22:53:10.495377Z</value>
          <uncertainty>0.4992765147288926</uncertainty>
          <lowerUncertainty>0.4992765147288926</lowerUncertainty>
          <upperUncertainty>0.4992765147288926</upperUncertainty>
        </time>
        <waveformID networkCode="IV" stationCode="PIEI"></waveformID>
        <methodID>smi:local/auto</methodID>
        <phaseHint>S</phaseHint>
      </pick>
      <pick publicID="smi:local/0926b208-56fe-4027-950e-5fa432c8f389">
        <time>
          <value>2015-06-24T22:53:06.865346Z</value>
          <uncertainty>0.493705820706196</uncertainty>
          <lowerUncertainty>0.493705820706196</lowerUncertainty>
          <upperUncertainty>0.493705820706196</upperUncertainty>
        </time>
        <waveformID networkCode="IV" stationCode="ASQU"></waveformID>
        <methodID>smi:local/auto</methodID>
        <phaseHint>S</phaseHint>
      </pick>
      <pick publicID="smi:local/c3bdf083-4891-4829-acfd-5713d3298e70">
        <time>
          <value>2015-06-24T22:52:04.279784Z</value>
          <uncertainty>0.42266055248322315</uncertainty>
          <lowerUncertainty>0.42266055248322315</lowerUncertainty>
          <upperUncertainty>0.42266055248322315</upperUncertainty>
        </time>
        <waveformID networkCode="GR" stationCode="GRB3"></waveformID>
        <methodID>smi:local/auto</methodID>
        <phaseHint>S</phaseHint>
      </pick>
      <pick publicID="smi:local/b8df2fd8-2f8f-4fe8-beda-29ca2fd7aefe">
        <time>
          <value>2015-06-24T22:52:39.755700Z</value>
          <uncertainty>0.6190574925348122</uncertainty>
          <lowerUncertainty>0.6190574925348122</lowerUncertainty>
          <upperUncertainty>0.6190574925348122</upperUncertainty>
        </time>
        <waveformID networkCode="IV" stationCode="VARE"></waveformID>
        <methodID>smi:local/auto</methodID>
        <phaseHint>S</phaseHint>
      </pick>
      <pick publicID="smi:local/a398863f-994d-45d4-ae3d-8e72ffc42f48">
        <time>
          <value>2015-06-24T22:53:25.880016Z</value>
          <uncertainty>0.466758415760822</uncertainty>
          <lowerUncertainty>0.466758415760822</lowerUncertainty>
          <upperUncertainty>0.466758415760822</upperUncertainty>
        </time>
        <waveformID networkCode="IV" stationCode="FAGN"></waveformID>
        <methodID>smi:local/auto</methodID>
        <phaseHint>S</phaseHint>
      </pick>
      <pick publicID="smi:local/a1076a48-5ec9-475b-a916-54c84a1c8008">
        <time>
          <value>2015-06-24T22:53:21.647326Z</value>
          <uncertainty>0.7655974281354717</uncertainty>
          <lowerUncertainty>0.7655974281354717</lowerUncertainty>
          <upperUncertainty>0.7655974281354717</upperUncertainty>
        </time>
        <waveformID networkCode="IV" stationCode="TRTR"></waveformID>
        <methodID>smi:local/auto</methodID>
        <phaseHint>S</phaseHint>
      </pick>
      <pick publicID="smi:local/b9b949f8-b3b2-4d5c-9ea7-3b3c8288d80e">
        <time>
          <value>2015-06-24T22:53:01.637134Z</value>
          <uncertainty>0.5861578081135338</uncertainty>
          <lowerUncertainty>0.5861578081135338</lowerUncertainty>
          <upperUncertainty>0.5861578081135338</upperUncertainty>
        </time>
        <waveformID networkCode="FR" stationCode="ESCA"></waveformID>
        <methodID>smi:local/auto</methodID>
        <phaseHint>S</phaseHint>
      </pick>
      <pick publicID="smi:local/ff924aed-2a6d-43ff-b777-047e7a7b96c8">
        <time>
          <value>2015-06-24T22:53:29.853650Z</value>
          <uncertainty>0.7480084853031655</uncertainty>
          <lowerUncertainty>0.7480084853031655</lowerUncertainty>
          <upperUncertainty>0.7480084853031655</upperUncertainty>
        </time>
        <waveformID networkCode="IV" stationCode="VIVA"></waveformID>
        <methodID>smi:local/auto</methodID>
        <phaseHint>S</phaseHint>
      </pick>
      <pick publicID="smi:local/4458b11a-763c-4442-83c8-f0d6472dd09a">
        <time>
          <value>2015-06-24T22:52:26.098524Z</value>
          <uncertainty>0.5799981174235371</uncertainty>
          <lowerUncertainty>0.5799981174235371</lowerUncertainty>
          <upperUncertainty>0.5799981174235371</upperUncertainty>
        </time>
        <waveformID networkCode="CH" stationCode="SGT04"></waveformID>
        <methodID>smi:local/auto</methodID>
        <phaseHint>S</phaseHint>
      </pick>
      <pick publicID="smi:local/bd4f26c5-b71c-4bca-ab77-4ff6cf397bb2">
        <time>
          <value>2015-06-24T22:52:25.373111Z</value>
          <uncertainty>0.7164375574480186</uncertainty>
          <lowerUncertainty>0.7164375574480186</lowerUncertainty>
          <upperUncertainty>0.7164375574480186</upperUncertainty>
        </time>
        <waveformID networkCode="CH" stationCode="SGT03"></waveformID>
