<?xml version='1.0' encoding='utf-8'?>
<q:quakeml xmlns="http://quakeml.org/xmlns/bed/1.2" xmlns:q="http://quakeml.org/xmlns/quakeml/1.2">
  <eventParameters publicID="smi:local/ec7b47d2-fbe3-4090-a022-6069db1a0013">
    <event publicID="smi:local/20150727_214131.a">
      <origin publicID="smi:local/ndk/C201507272141A/origin#cmtorigin">
        <time>
          <value>2015-07-27T21:41:31.000000Z</value>
        </time>
        <latitude>
          <value>-2.53</value>
        </latitude>
        <longitude>
          <value>138.44</value>
        </longitude>
        <depth>
          <value>40.6</value>
        </depth>
      </origin>
      <magnitude publicID="smi:local/6d1eaffd-4a14-4951-9b30-92fea2b4a35e">
        <mag>
          <value>6.97</value>
        </mag>
        <type>Mwc</type>
        <originID>smi:local/ndk/C201507272141A/origin#cmtorigin</originID>
      </magnitude>
      <pick publicID="smi:local/52d673c6-a5b8-48ee-8f72-640a7ce102a3">
        <time>
          <value>2015-07-27T22:07:01.745099Z</value>
          <uncertainty>1.863451395661415</uncertainty>
          <lowerUncertainty>1.863451395661415</lowerUncertainty>
          <upperUncertainty>1.863451395661415</upperUncertainty>
        </time>
        <waveformID networkCode="IV" stationCode="IMI"></waveformID>
        <methodID>smi:local/auto</methodID>
        <phaseHint>SKS</phaseHint>
      </pick>
      <pick publicID="smi:local/8949fb45-a5aa-4c6d-afc1-65d72ae79a0d">
        <time>
          <value>2015-07-27T22:06:55.569800Z</value>
          <uncertainty>1.4380095365332877</uncertainty>
          <lowerUncertainty>1.4380095365332877</lowerUncertainty>
          <upperUncertainty>1.4380095365332877</upperUncertainty>
        </time>
        <waveformID networkCode="FR" stationCode="MOF"></waveformID>
        <methodID>smi:local/auto</methodID>
        <phaseHint>SKS</phaseHint>
      </pick>
      <pick publicID="smi:local/fafe3271-e761-440e-8483-d66a4857bf81">
        <time>
          <value>2015-07-27T22:06:44.159094Z</value>
          <uncertainty>2.56985460048381</uncertainty>
          <lowerUncertainty>2.56985460048381</lowerUncertainty>
          <upperUncertainty>2.56985460048381</upperUncertainty>
        </time>
        <waveformID networkCode="XT" stationCode="AAE52"></waveformID>
        <methodID>smi:local/auto</methodID>
        <phaseHint>SKS</phaseHint>
      </pick>
      <pick publicID="smi:local/c3b3d387-0a11-4b3a-91c6-47098bdadb84">
        <time>
          <value>2015-07-27T22:06:54.155978Z</value>
          <uncertainty>1.5214769851139676</uncertainty>
          <lowerUncertainty>1.5214769851139676</lowerUncertainty>
          <upperUncertainty>1.5214769851139676</upperUncertainty>
        </time>
        <waveformID networkCode="IV" stationCode="FNVD"></waveformID>
        <methodID>smi:local/auto</methodID>
        <phaseHint>SKS</phaseHint>
      </pick>
      <pick publicID="smi:local/e9fdda4d-dcfc-499b-8e91-8f39a1fb5428">
        <time>
          <value>2015-07-27T22:06:48.706203Z</value>
          <uncertainty>1.9909102592998604</uncertainty>
          <lowerUncertainty>1.9909102592998604</lowerUncertainty>
          <upperUncertainty>1.9909102592998604</upperUncertainty>
        </time>
        <waveformID networkCode="IV" stationCode="TEOL"></waveformID>
        <methodID>smi:local/auto</methodID>
        <phaseHint>SKS</phaseHint>
      </pick>
      <pick publicID="smi:local/cd441d95-334e-479f-a190-af9adb099ec3">
        <time>
          <value>2015-07-27T22:06:59.477660Z</value>
          <uncertainty>1.3147786317215762</uncertainty>
          <lowerUncertainty>1.3147786317215762</lowerUncertainty>
          <upperUncertainty>1.3147786317215762</upperUncertainty>
        </time>
        <waveformID networkCode="CH" stationCode="AIGLE"></waveformID>
        <methodID>smi:local/auto</methodID>
        <phaseHint>SKS</phaseHint>
      </pick>
      <pick publicID="smi:local/633dbfba-f454-4d9b-98cb-46e31e716a42">
        <time>
          <value>2015-07-27T22:06:53.943559Z</value>
          <uncertainty>1.8993309488292625</uncertainty>
          <lowerUncertainty>1.8993309488292625</lowerUncertainty>
          <upperUncertainty>1.8993309488292625</upperUncertainty>
        </time>
        <waveformID networkCode="CH" stationCode="ROTHE"></waveformID>
        <methodID>smi:local/auto</methodID>
        <phaseHint>SKS</phaseHint>
      </pick>
      <pick publicID="smi:local/9b605adf-ff90-4ca6-902e-8cb7021d192d">
        <time>
          <value>2015-07-27T22:06:43.608320Z</value>
          <uncertainty>1.4610756204228705</uncertainty>
          <lowerUncertainty>1.4610756204228705</lowerUncertainty>
          <upperUncertainty>1.4610756204228705</upperUncertainty>
        </time>
        <waveformID networkCode="SI" stationCode="RISI"></waveformID>
        <methodID>smi:local/auto</methodID>
        <phaseHint>SKS</phaseHint>
      </pick>
      <pick publicID="smi:local/9b47b3be-21ae-44ba-834c-ef2a9e5709c7">
        <time>
          <value>2015-07-27T22:06:50.256141Z</value>
          <uncertainty>1.174381550247519</uncertainty>
          <lowerUncertainty>1.174381550247519</lowerUncertainty>
          <upperUncertainty>1.174381550247519</upperUncertainty>
        </time>
        <waveformID networkCode="CH" stationCode="BERNI"></waveformID>
        <methodID>smi:local/auto</methodID>
        <phaseHint>SKS</phaseHint>
      </pick>
      <pick publicID="smi:local/408b6cfc-480a-47f8-aeef-658de874492d">
        <time>
          <value>2015-07-27T22:06:44.100904Z</value>
          <uncertainty>2.0218203901866736</uncertainty>
          <lowerUncertainty>2.0218203901866736</lowerUncertainty>
          <upperUncertainty>2.0218203901866736</upperUncertainty>
        </time>
        <waveformID networkCode="GR" stationCode="GRB2"></waveformID>
        <methodID>smi:local/auto</methodID>
        <phaseHint>SKS</phaseHint>
      </pick>
      <pick publicID="smi:local/3906f971-7420-4d39-8c6c-c0446ca42325">
        <time>
          <value>2015-07-27T22:06:44.256640Z</value>
          <uncertainty>1.9331363726837576</uncertainty>
          <lowerUncertainty>1.9331363726837576</lowerUncertainty>
          <upperUncertainty>1.9331363726837576</upperUncertainty>
        </time>
        <waveformID networkCode="GR" stationCode="GRB5"></waveformID>
        <methodID>smi:local/auto</methodID>
        <phaseHint>SKS</phaseHint>
      </pick>
      <pick publicID="smi:local/dee3cafa-a291-4b82-96a2-eb9e834f1c90">
        <time>
          <value>2015-07-27T22:06:46.497746Z</value>
          <uncertainty>2.009318842404465</uncertainty>
          <lowerUncertainty>2.009318842404465</lowerUncertainty>
          <upperUncertainty>2.009318842404465</upperUncertainty>
        </time>
        <waveformID networkCode="GR" stationCode="GRA3"></waveformID>
        <methodID>smi:local/auto</methodID>
        <phaseHint>SKS</phaseHint>
      </pick>
      <pick publicID="smi:local/5ae7c427-71c3-4316-86ff-4dd613e242e3">
        <time>
          <value>2015-07-27T22:06:40.547747Z</value>
          <uncertainty>1.7526235017902727</uncertainty>
          <lowerUncertainty>1.7526235017902727</lowerUncertainty>
          <upperUncertainty>1.7526235017902727</upperUncertainty>
        </time>
        <waveformID networkCode="XT" stationCode="AAE31"></waveformID>
        <methodID>smi:local/auto</methodID>
        <phaseHint>SKS</phaseHint>
      </pick>
      <pick publicID="smi:local/92b67a73-9c5d-4ff6-816e-0daad64f4913">
        <time>
          <value>2015-07-27T22:06:45.392231Z</value>
          <uncertainty>1.3908147973640534</uncertainty>
          <lowerUncertainty>1.3908147973640534</lowerUncertainty>
          <upperUncertainty>1.3908147973640534</upperUncertainty>
        </time>
        <waveformID networkCode="SI" stationCode="KOSI"></waveformID>
        <methodID>smi:local/auto</methodID>
        <phaseHint>SKS</phaseHint>
      </pick>
      <pick publicID="smi:local/7f23b223-784d-4055-a656-7dc0c515e220">
        <time>
          <value>2015-07-27T22:06:36.559114Z</value>
          <uncertainty>1.4986949151237974</uncertainty>
          <lowerUncertainty>1.4986949151237974</lowerUncertainty>
          <upperUncertainty>1.4986949151237974</upperUncertainty>
        </time>
        <waveformID networkCode="HU" stationCode="SOP"></waveformID>
        <methodID>smi:local/auto</methodID>
        <phaseHint>SKS</phaseHint>
      </pick>
      <pick publicID="smi:local/3ffcfe37-4ab5-4501-b5f3-7b59fdcde916">
        <time>
          <value>2015-07-27T22:06:38.686348Z</value>
          <uncertainty>2.169601035877028</uncertainty>
          <lowerUncertainty>2.169601035877028</lowerUncertainty>
          <upperUncertainty>2.169601035877028</upperUncertainty>
        </time>
        <waveformID networkCode="Z3" stationCode="A007A"></waveformID>
        <methodID>smi:local/auto</methodID>
        <phaseHint>SKS</phaseHint>
      </pick>
      <pick publicID="smi:local/670f097e-bd8b-49b8-a611-6aa600ea8de8">
        <time>
          <value>2015-07-27T22:06:44.991198Z</value>
          <uncertainty>1.5573478276831012</uncertainty>
          <lowerUncertainty>1.5573478276831012</lowerUncertainty>
          <upperUncertainty>1.5573478276831012</upperUncertainty>
        </time>
        <waveformID networkCode="XT" stationCode="AAE55"></waveformID>
        <methodID>smi:local/auto</methodID>
        <phaseHint>SKS</phaseHint>
      </pick>
      <pick publicID="smi:local/e62f0d11-df25-4f17-97ef-79c64403c9ed">
        <time>
          <value>2015-07-27T22:06:51.504719Z</value>
          <uncertainty>2.157305907910161</uncertainty>
          <lowerUncertainty>2.157305907910161</lowerUncertainty>
          <upperUncertainty>2.157305907910161</upperUncertainty>
        </time>
        <waveformID networkCode="IV" stationCode="PTQR"></waveformID>
        <methodID>smi:local/auto</methodID>
        <phaseHint>SKS</phaseHint>
      </pick>
      <pick publicID="smi:local/b3d4ff9e-ea10-4ad2-9929-327ad31b2ab6">
        <time>
          <value>2015-07-27T22:06:53.013828Z</value>
          <uncertainty>0.9217513793933915</uncertainty>
          <lowerUncertainty>0.9217513793933915</lowerUncertainty>
          <upperUncertainty>0.9217513793933915</upperUncertainty>
        </time>
        <waveformID networkCode="CH" stationCode="MUGIO"></waveformID>
        <methodID>smi:local/auto</methodID>
        <phaseHint>SKS</phaseHint>
      </pick>
      <pick publicID="smi:local/f3c4b5b3-059d-4f1b-9611-ee8574dbe240">
        <time>
          <value>2015-07-27T22:06:57.007754Z</value>
          <uncertainty>1.1032579799131252</uncertainty>
          <lowerUncertainty>1.1032579799131252</lowerUncertainty>
          <upperUncertainty>1.1032579799131252</upperUncertainty>
        </time>
        <waveformID networkCode="CH" stationCode="WIMIS"></waveformID>
        <methodID>smi:local/auto</methodID>
        <phaseHint>SKS</phaseHint>
      </pick>
      <pick publicID="smi:local/0f703dfd-a09e-467c-9f96-bea308aa1bb0">
        <time>
          <value>2015-07-27T22:06:54.336239Z</value>
          <uncertainty>1.0954747725264966</uncertainty>
          <lowerUncertainty>1.0954747725264966</lowerUncertainty>
          <upperUncertainty>1.0954747725264966</upperUncertainty>
        </time>
        <waveformID networkCode="CH" stationCode="DAGMA"></waveformID>
        <methodID>smi:local/auto</methodID>
        <phaseHint>SKS</phaseHint>
      </pick>
      <pick publicID="smi:local/42c39bcc-4560-4f3a-9af6-859c813d16fc">
        <time>
          <value>2015-07-27T22:06:49.198280Z</value>
          <uncertainty>2.536763622478155</uncertainty>
          <lowerUncertainty>2.536763622478155</lowerUncertainty>
          <upperUncertainty>2.536763622478155</upperUncertainty>
        </time>
        <waveformID networkCode="CH" stationCode="LIENZ"></waveformID>
        <methodID>smi:local/auto</methodID>
        <phaseHint>SKS</phaseHint>
      </pick>
      <pick publicID="smi:local/9fcc28fb-e7c3-4f1c-aa8d-19139895decd">
        <time>
          <value>2015-07-27T22:06:44.641251Z</value>
          <uncertainty>2.7946942427943844</uncertainty>
          <lowerUncertainty>2.7946942427943844</lowerUncertainty>
          <upperUncertainty>2.7946942427943844</upperUncertainty>
        </time>
        <waveformID networkCode="NI" stationCode="ACOM"></waveformID>
        <methodID>smi:local/auto</methodID>
        <phaseHint>SKS</phaseHint>
      </pick>
      <pick publicID="smi:local/610866ef-10b1-4edb-ac77-c6c8a66f84bf">
        <time>
          <value>2015-07-27T22:06:39.322956Z</value>
          <uncertainty>2.8403173490128024</uncertainty>
          <lowerUncertainty>2.8403173490128024</lowerUncertainty>
          <upperUncertainty>2.8403173490128024</upperUncertainty>
        </time>
        <waveformID networkCode="XT" stationCode="AAE01"></waveformID>
        <methodID>smi:local/auto</methodID>
        <phaseHint>SKS</phaseHint>
      </pick>
      <pick publicID="smi:local/59705279-e1f1-4108-8076-e83755920215">
        <time>
          <value>2015-07-27T22:06:51.536812Z</value>
          <uncertainty>1.0770678160847256</uncertainty>
          <lowerUncertainty>1.0770678160847256</lowerUncertainty>
          <upperUncertainty>1.0770678160847256</upperUncertainty>
        </time>
        <waveformID networkCode="CH" stationCode="VDL"></waveformID>
        <methodID>smi:local/auto</methodID>
        <phaseHint>SKS</phaseHint>
      </pick>
      <pick publicID="smi:local/6015c434-d666-46a3-9151-ffb93a47260c">
        <time>
          <value>2015-07-27T22:06:55.606875Z</value>
          <uncertainty>1.388447852208283</uncertainty>
          <lowerUncertainty>1.388447852208283</lowerUncertainty>
          <upperUncertainty>1.388447852208283</upperUncertainty>
        </time>
        <waveformID networkCode="IV" stationCode="ARCI"></waveformID>
        <methodID>smi:local/auto</methodID>
        <phaseHint>SKS</phaseHint>
      </pick>
      <pick publicID="smi:local/466b0258-aeda-497b-873b-6a5801973ce7">
        <time>
          <value>2015-07-27T22:06:42.124313Z</value>
          <uncertainty>1.8157819412830059</uncertainty>
          <lowerUncertainty>1.8157819412830059</lowerUncertainty>
          <upperUncertainty>1.8157819412830059</upperUncertainty>
        </time>
        <waveformID networkCode="TH" stationCode="HKWD"></waveformID>
        <methodID>smi:local/auto</methodID>
        <phaseHint>SKS</phaseHint>
      </pick>
      <pick publicID="smi:local/8d21c329-dd51-4b5f-94ba-9a041ace68d9">
        <time>
          <value>2015-07-27T22:06:52.706119Z</value>
          <uncertainty>1.874862247924465</uncertainty>
          <lowerUncertainty>1.874862247924465</lowerUncertainty>
          <upperUncertainty>1.874862247924465</upperUncertainty>
        </time>
        <waveformID networkCode="GU" stationCode="CARD"></waveformID>
        <methodID>smi:local/auto</methodID>
        <phaseHint>SKS</phaseHint>
      </pick>
      <pick publicID="smi:local/bdac81a1-543f-4a33-b0e3-bbda6468c6f4">
        <time>
          <value>2015-07-27T22:06:48.549281Z</value>
          <uncertainty>1.0106079472088492</uncertainty>
          <lowerUncertainty>1.0106079472088492</lowerUncertainty>
          <upperUncertainty>1.0106079472088492</upperUncertainty>
        </time>
        <waveformID networkCode="SI" stationCode="LUSI"></waveformID>
        <methodID>smi:local/auto</methodID>
        <phaseHint>SKS</phaseHint>
      </pick>
      <pick publicID="smi:local/592abc00-ff98-4baa-bf43-adada1d72338">
        <time>
          <value>2015-07-27T22:06:40.115494Z</value>
          <uncertainty>1.7235250293689055</uncertainty>
          <lowerUncertainty>1.7235250293689055</lowerUncertainty>
          <upperUncertainty>1.7235250293689055</upperUncertainty>
        </time>
        <waveformID networkCode="XT" stationCode="AAE06"></waveformID>
        <methodID>smi:local/auto</methodID>
        <phaseHint>SKS</phaseHint>
      </pick>
      <pick publicID="smi:local/104e43bb-7017-4be3-8637-8101c3f1e306">
        <time>
          <value>2015-07-27T22:06:40.725983Z</value>
          <uncertainty>2.245089624546232</uncertainty>
          <lowerUncertainty>2.245089624546232</lowerUncertainty>
          <upperUncertainty>2.245089624546232</upperUncertainty>
        </time>
        <waveformID networkCode="Z3" stationCode="A024A"></waveformID>
        <methodID>smi:local/auto</methodID>
        <phaseHint>SKS</phaseHint>
      </pick>
      <pick publicID="smi:local/4b4cd4bb-6b5f-4dc3-95a0-1b7b11a1c8fb">
        <time>
          <value>2015-07-27T22:06:41.458489Z</value>
          <uncertainty>2.02169691307085</uncertainty>
          <lowerUncertainty>2.02169691307085</lowerUncertainty>
          <upperUncertainty>2.02169691307085</upperUncertainty>
        </time>
        <waveformID networkCode="XT" stationCode="AAE27"></waveformID>
        <methodID>smi:local/auto</methodID>
        <phaseHint>SKS</phaseHint>
      </pick>
      <pick publicID="smi:local/12cf0740-3c46-4b5e-a0f5-17eb557cbb1f">
        <time>
          <value>2015-07-27T22:07:03.894930Z</value>
          <uncertainty>1.50066449648825</uncertainty>
          <lowerUncertainty>1.50066449648825</lowerUncertainty>
          <upperUncertainty>1.50066449648825</upperUncertainty>
        </time>
        <waveformID networkCode="FR" stationCode="SURF"></waveformID>
        <methodID>smi:local/auto</methodID>
        <phaseHint>SKS</phaseHint>
      </pick>
      <pick publicID="smi:local/2b9ed064-92a8-40f2-9ecb-8e219fd8c55b">
        <time>
          <value>2015-07-27T22:06:39.683965Z</value>
          <uncertainty>1.562029103794518</uncertainty>
          <lowerUncertainty>1.562029103794518</lowerUncertainty>
          <upperUncertainty>1.562029103794518</upperUncertainty>
        </time>
        <waveformID networkCode="XT" stationCode="AAE04"></waveformID>
        <methodID>smi:local/auto</methodID>
        <phaseHint>SKS</phaseHint>
      </pick>
      <pick publicID="smi:local/51a61cca-007b-42a4-bed8-aac5453c5fd4">
        <time>
          <value>2015-07-27T22:06:49.947065Z</value>
          <uncertainty>1.9555800405843091</uncertainty>
          <lowerUncertainty>1.9555800405843091</lowerUncertainty>
          <upperUncertainty>1.9555800405843091</upperUncertainty>
        </time>
        <waveformID networkCode="IV" stationCode="GUMA"></waveformID>
        <methodID>smi:local/auto</methodID>
        <phaseHint>SKS</phaseHint>
      </pick>
      <pick publicID="smi:local/0fd1f93d-8d38-4d82-b89f-8b02a1472284">
        <time>
          <value>2015-07-27T22:06:50.903665Z</value>
          <uncertainty>2.493275016112643</uncertainty>
          <lowerUncertainty>2.493275016112643</lowerUncertainty>
          <upperUncertainty>2.493275016112643</upperUncertainty>
        </time>
        <waveformID networkCode="IV" stationCode="TERO"></waveformID>
        <methodID>smi:local/auto</methodID>
        <phaseHint>SKS</phaseHint>
      </pick>
      <pick publicID="smi:local/a995bfe5-4d0f-4ec5-bb12-2775a5767c11">
        <time>
          <value>2015-07-27T22:06:54.744763Z</value>
          <uncertainty>0.6848713508301287</uncertainty>
          <lowerUncertainty>0.6848713508301287</lowerUncertainty>
          <upperUncertainty>0.6848713508301287</upperUncertainty>
        </time>
        <waveformID networkCode="CH" stationCode="HASLI"></waveformID>
        <methodID>smi:local/auto</methodID>
        <phaseHint>SKS</phaseHint>
      </pick>
      <pick publicID="smi:local/1ce5302e-f5d4-4ef0-9401-67a702fccee7">
        <time>
          <value>2015-07-27T22:07:04.423636Z</value>
          <uncertainty>1.3923307305508656</uncertainty>
          <lowerUncertainty>1.3923307305508656</lowerUncertainty>
          <upperUncertainty>1.3923307305508656</upperUncertainty>
        </time>
        <waveformID networkCode="FR" stationCode="OGSM"></waveformID>
