<?xml version='1.0' encoding='utf-8'?>
<q:quakeml xmlns="http://quakeml.org/xmlns/bed/1.2" xmlns:q="http://quakeml.org/xmlns/quakeml/1.2">
  <eventParameters publicID="smi:local/36485e0e-e7c2-48d0-a508-b0d2ae7d52c1">
    <event publicID="smi:local/20150729_023601.a">
      <origin publicID="smi:local/ndk/C201507290235A/origin#cmtorigin">
        <time>
          <value>2015-07-29T02:36:01.600000Z</value>
        </time>
        <latitude>
          <value>60.02</value>
        </latitude>
        <longitude>
          <value>-153.15</value>
        </longitude>
        <depth>
          <value>129.8</value>
        </depth>
      </origin>
      <magnitude publicID="smi:local/bf5bd165-f81e-47d9-a681-4b91709593f0">
        <mag>
          <value>6.37</value>
        </mag>
        <type>Mwc</type>
        <originID>smi:local/ndk/C201507290235A/origin#cmtorigin</originID>
      </magnitude>
      <pick publicID="smi:local/c58d6164-f057-4335-a0c4-d47c3b3719f5">
        <time>
          <value>2015-07-29T02:56:29.004957Z</value>
          <uncertainty>0.30894727568092745</uncertainty>
          <lowerUncertainty>0.30894727568092745</lowerUncertainty>
          <upperUncertainty>0.30894727568092745</upperUncertainty>
        </time>
        <waveformID networkCode="GU" stationCode="LSD"></waveformID>
        <methodID>smi:local/auto</methodID>
        <phaseHint>S</phaseHint>
      </pick>
      <pick publicID="smi:local/727e2276-ab75-491a-871c-26fa47844aea">
        <time>
          <value>2015-07-29T02:55:42.137095Z</value>
          <uncertainty>0.6172055153086108</uncertainty>
          <lowerUncertainty>0.6172055153086108</lowerUncertainty>
          <upperUncertainty>0.6172055153086108</upperUncertainty>
        </time>
        <waveformID networkCode="XT" stationCode="AAE07"></waveformID>
        <methodID>smi:local/auto</methodID>
        <phaseHint>S</phaseHint>
      </pick>
      <pick publicID="smi:local/71db6eae-8b98-42fb-ab79-c79d5fe2bfae">
        <time>
          <value>2015-07-29T02:55:43.819221Z</value>
          <uncertainty>0.23220895290481972</uncertainty>
          <lowerUncertainty>0.23220895290481972</lowerUncertainty>
          <upperUncertainty>0.23220895290481972</upperUncertainty>
        </time>
        <waveformID networkCode="GR" stationCode="GRA3"></waveformID>
        <methodID>smi:local/auto</methodID>
        <phaseHint>S</phaseHint>
      </pick>
      <pick publicID="smi:local/3e94ff57-5cb0-42e3-978f-2f357b68e5ba">
        <time>
          <value>2015-07-29T02:55:46.212837Z</value>
          <uncertainty>0.17327650699023717</uncertainty>
          <lowerUncertainty>0.17327650699023717</lowerUncertainty>
          <upperUncertainty>0.17327650699023717</upperUncertainty>
        </time>
        <waveformID networkCode="GR" stationCode="GRA4"></waveformID>
        <methodID>smi:local/auto</methodID>
        <phaseHint>S</phaseHint>
      </pick>
      <pick publicID="smi:local/519fee2b-050a-4f24-a73e-1c035b4fc88e">
        <time>
          <value>2015-07-29T02:56:19.226430Z</value>
          <uncertainty>0.5919582790993382</uncertainty>
          <lowerUncertainty>0.5919582790993382</lowerUncertainty>
          <upperUncertainty>0.5919582790993382</upperUncertainty>
        </time>
        <waveformID networkCode="SI" stationCode="KOSI"></waveformID>
        <methodID>smi:local/auto</methodID>
        <phaseHint>S</phaseHint>
      </pick>
      <pick publicID="smi:local/497f83d0-cb83-459a-abdf-13a492d4d699">
        <time>
          <value>2015-07-29T02:56:05.788495Z</value>
          <uncertainty>0.29717698613456617</uncertainty>
          <lowerUncertainty>0.29717698613456617</lowerUncertainty>
          <upperUncertainty>0.29717698613456617</upperUncertainty>
        </time>
        <waveformID networkCode="FR" stationCode="CHMF"></waveformID>
        <methodID>smi:local/auto</methodID>
        <phaseHint>S</phaseHint>
      </pick>
      <pick publicID="smi:local/1e80326a-769e-44ec-930d-5f1cbbb0b474">
        <time>
          <value>2015-07-29T02:55:49.781453Z</value>
          <uncertainty>0.18641636903295172</uncertainty>
          <lowerUncertainty>0.18641636903295172</lowerUncertainty>
          <upperUncertainty>0.18641636903295172</upperUncertainty>
        </time>
        <waveformID networkCode="GR" stationCode="GRB2"></waveformID>
        <methodID>smi:local/auto</methodID>
        <phaseHint>S</phaseHint>
      </pick>
      <pick publicID="smi:local/79593c57-45ab-4201-a5d6-a84725e7a2b2">
        <time>
          <value>2015-07-29T02:56:12.566511Z</value>
          <uncertainty>0.37635126910652633</uncertainty>
          <lowerUncertainty>0.37635126910652633</lowerUncertainty>
          <upperUncertainty>0.37635126910652633</upperUncertainty>
        </time>
        <waveformID networkCode="XT" stationCode="AAE36"></waveformID>
        <methodID>smi:local/auto</methodID>
        <phaseHint>S</phaseHint>
      </pick>
      <pick publicID="smi:local/9f258c1a-4ba8-4629-a253-b7dbdb392d24">
        <time>
          <value>2015-07-29T02:56:16.903183Z</value>
          <uncertainty>0.6194126082331359</uncertainty>
          <lowerUncertainty>0.6194126082331359</lowerUncertainty>
          <upperUncertainty>0.6194126082331359</upperUncertainty>
        </time>
        <waveformID networkCode="SI" stationCode="RISI"></waveformID>
        <methodID>smi:local/auto</methodID>
        <phaseHint>S</phaseHint>
      </pick>
      <pick publicID="smi:local/384449ef-36e8-4f09-95fe-f69253c77ddf">
        <time>
          <value>2015-07-29T02:56:26.005807Z</value>
          <uncertainty>0.3675253038567144</uncertainty>
          <lowerUncertainty>0.3675253038567144</lowerUncertainty>
          <upperUncertainty>0.3675253038567144</upperUncertainty>
        </time>
        <waveformID networkCode="NI" stationCode="SABO"></waveformID>
        <methodID>smi:local/auto</methodID>
        <phaseHint>S</phaseHint>
      </pick>
      <pick publicID="smi:local/b4edff56-c8b9-486c-8d6b-0c4152fe12a0">
        <time>
          <value>2015-07-29T02:56:47.619463Z</value>
          <uncertainty>0.361872093539471</uncertainty>
          <lowerUncertainty>0.361872093539471</lowerUncertainty>
          <upperUncertainty>0.361872093539471</upperUncertainty>
        </time>
        <waveformID networkCode="FR" stationCode="EILF"></waveformID>
        <methodID>smi:local/auto</methodID>
        <phaseHint>S</phaseHint>
      </pick>
      <pick publicID="smi:local/319714eb-f450-4398-bea8-9b986b2ddb01">
        <time>
          <value>2015-07-29T02:56:31.235376Z</value>
          <uncertainty>0.6613856335807119</uncertainty>
          <lowerUncertainty>0.6613856335807119</lowerUncertainty>
          <upperUncertainty>0.6613856335807119</upperUncertainty>
        </time>
        <waveformID networkCode="IV" stationCode="TEOL"></waveformID>
        <methodID>smi:local/auto</methodID>
        <phaseHint>S</phaseHint>
      </pick>
      <pick publicID="smi:local/7b4b1626-772a-46c9-8fd4-75102ff8134a">
        <time>
          <value>2015-07-29T02:56:34.626317Z</value>
          <uncertainty>0.3678223797739729</uncertainty>
          <lowerUncertainty>0.3678223797739729</lowerUncertainty>
          <upperUncertainty>0.3678223797739729</upperUncertainty>
        </time>
        <waveformID networkCode="FR" stationCode="OGAG"></waveformID>
        <methodID>smi:local/auto</methodID>
        <phaseHint>S</phaseHint>
      </pick>
      <pick publicID="smi:local/a66a6882-bdf1-4c1b-a6e6-e26fafaa9675">
        <time>
          <value>2015-07-29T02:56:38.335212Z</value>
          <uncertainty>0.7099916272905064</uncertainty>
          <lowerUncertainty>0.7099916272905064</lowerUncertainty>
          <upperUncertainty>0.7099916272905064</upperUncertainty>
        </time>
        <waveformID networkCode="IV" stationCode="PRMA"></waveformID>
        <methodID>smi:local/auto</methodID>
        <phaseHint>S</phaseHint>
      </pick>
      <pick publicID="smi:local/52467c1d-db26-4e7f-94ab-96493e81c9f7">
        <time>
          <value>2015-07-29T02:56:45.680974Z</value>
          <uncertainty>0.6817917291191667</uncertainty>
          <lowerUncertainty>0.6817917291191667</lowerUncertainty>
          <upperUncertainty>0.6817917291191667</upperUncertainty>
        </time>
        <waveformID networkCode="IV" stationCode="FNVD"></waveformID>
        <methodID>smi:local/auto</methodID>
        <phaseHint>S</phaseHint>
      </pick>
      <pick publicID="smi:local/f7e0cc76-7d33-40b2-aeba-52b3e70d13dd">
        <time>
          <value>2015-07-29T02:55:51.610228Z</value>
          <uncertainty>0.13933522939208245</uncertainty>
          <lowerUncertainty>0.13933522939208245</lowerUncertainty>
          <upperUncertainty>0.13933522939208245</upperUncertainty>
        </time>
        <waveformID networkCode="GR" stationCode="GRB5"></waveformID>
        <methodID>smi:local/auto</methodID>
        <phaseHint>S</phaseHint>
      </pick>
      <pick publicID="smi:local/c3cf60eb-8fc9-4d09-afb2-d7f0933f4587">
        <time>
          <value>2015-07-29T02:56:43.014118Z</value>
          <uncertainty>0.7010334491539911</uncertainty>
          <lowerUncertainty>0.7010334491539911</lowerUncertainty>
          <upperUncertainty>0.7010334491539911</upperUncertainty>
        </time>
        <waveformID networkCode="GU" stationCode="CARD"></waveformID>
        <methodID>smi:local/auto</methodID>
        <phaseHint>S</phaseHint>
      </pick>
      <pick publicID="smi:local/9bb1f40c-70b3-42ed-83bf-f72d2957b2ec">
        <time>
          <value>2015-07-29T02:55:32.430381Z</value>
          <uncertainty>0.19452175083923215</uncertainty>
          <lowerUncertainty>0.19452175083923215</lowerUncertainty>
          <upperUncertainty>0.19452175083923215</upperUncertainty>
        </time>
        <waveformID networkCode="TH" stationCode="HKWD"></waveformID>
        <methodID>smi:local/auto</methodID>
        <phaseHint>S</phaseHint>
      </pick>
      <pick publicID="smi:local/3537fbfb-8639-49e8-bdb3-9c8bdf1b4f4c">
        <time>
          <value>2015-07-29T02:56:24.092366Z</value>
          <uncertainty>0.43040853107936267</uncertainty>
          <lowerUncertainty>0.43040853107936267</lowerUncertainty>
          <upperUncertainty>0.43040853107936267</upperUncertainty>
        </time>
        <waveformID networkCode="SI" stationCode="LUSI"></waveformID>
        <methodID>smi:local/auto</methodID>
        <phaseHint>S</phaseHint>
      </pick>
      <pick publicID="smi:local/2c003311-d383-40d3-a5e3-480581ea7992">
        <time>
          <value>2015-07-29T02:56:03.718934Z</value>
          <uncertainty>0.31011079636360517</uncertainty>
          <lowerUncertainty>0.31011079636360517</lowerUncertainty>
          <upperUncertainty>0.31011079636360517</upperUncertainty>
        </time>
        <waveformID networkCode="Z3" stationCode="A005A"></waveformID>
        <methodID>smi:local/auto</methodID>
        <phaseHint>S</phaseHint>
      </pick>
      <pick publicID="smi:local/c6ccf8c0-39b9-40ba-8638-147290742b6c">
        <time>
          <value>2015-07-29T02:55:33.039074Z</value>
          <uncertainty>0.2514503024884647</uncertainty>
          <lowerUncertainty>0.2514503024884647</lowerUncertainty>
          <upperUncertainty>0.2514503024884647</upperUncertainty>
        </time>
        <waveformID networkCode="GR" stationCode="MOX"></waveformID>
        <methodID>smi:local/auto</methodID>
        <phaseHint>S</phaseHint>
      </pick>
      <pick publicID="smi:local/ac40da80-d09b-4b2f-a8dd-b8d743fa434e">
        <time>
          <value>2015-07-29T02:56:12.838776Z</value>
          <uncertainty>0.3307658080870079</uncertainty>
          <lowerUncertainty>0.3307658080870079</lowerUncertainty>
          <upperUncertainty>0.3307658080870079</upperUncertainty>
        </time>
        <waveformID networkCode="Z3" stationCode="A009A"></waveformID>
        <methodID>smi:local/auto</methodID>
        <phaseHint>S</phaseHint>
      </pick>
      <pick publicID="smi:local/1f4f931f-b4bf-4a12-a707-88ca83829ca2">
        <time>
          <value>2015-07-29T02:56:04.852410Z</value>
          <uncertainty>0.9622866718145199</uncertainty>
          <lowerUncertainty>0.9622866718145199</lowerUncertainty>
          <upperUncertainty>0.9622866718145199</upperUncertainty>
        </time>
        <waveformID networkCode="CH" stationCode="WALHA"></waveformID>
        <methodID>smi:local/auto</methodID>
        <phaseHint>S</phaseHint>
      </pick>
      <pick publicID="smi:local/1ec7197b-4887-4e3e-ba5f-7a9d43db3f53">
        <time>
          <value>2015-07-29T02:55:49.896553Z</value>
          <uncertainty>0.40156081440800073</uncertainty>
          <lowerUncertainty>0.40156081440800073</lowerUncertainty>
          <upperUncertainty>0.40156081440800073</upperUncertainty>
        </time>
        <waveformID networkCode="Z3" stationCode="A126A"></waveformID>
        <methodID>smi:local/auto</methodID>
        <phaseHint>S</phaseHint>
      </pick>
      <pick publicID="smi:local/097f3ba9-d792-47c6-9afc-a59d6ed724ce">
        <time>
          <value>2015-07-29T02:56:24.942107Z</value>
          <uncertainty>0.4820218327260248</uncertainty>
          <lowerUncertainty>0.4820218327260248</lowerUncertainty>
          <upperUncertainty>0.4820218327260248</upperUncertainty>
        </time>
        <waveformID networkCode="IV" stationCode="MRGE"></waveformID>
        <methodID>smi:local/auto</methodID>
        <phaseHint>S</phaseHint>
      </pick>
      <pick publicID="smi:local/4831fece-d105-4e59-91b5-a18d895ccae5">
        <time>
          <value>2015-07-29T02:56:53.906635Z</value>
          <uncertainty>0.7808532763789707</uncertainty>
          <lowerUncertainty>0.7808532763789707</lowerUncertainty>
          <upperUncertainty>0.7808532763789707</upperUncertainty>
        </time>
        <waveformID networkCode="IV" stationCode="APEC"></waveformID>
        <methodID>smi:local/auto</methodID>
        <phaseHint>S</phaseHint>
      </pick>
      <pick publicID="smi:local/56bda851-e34e-4cb8-b2f8-3ffc4e8a44bd">
        <time>
          <value>2015-07-29T02:56:26.767231Z</value>
          <uncertainty>1.0598348210156903</uncertainty>
          <lowerUncertainty>1.0598348210156903</lowerUncertainty>
          <upperUncertainty>1.0598348210156903</upperUncertainty>
        </time>
        <waveformID networkCode="XT" stationCode="AAE53"></waveformID>
        <methodID>smi:local/auto</methodID>
        <phaseHint>S</phaseHint>
      </pick>
      <pick publicID="smi:local/b0bdae4a-d1da-45e0-9495-54579607a306">
        <time>
          <value>2015-07-29T02:56:27.041848Z</value>
          <uncertainty>0.5404513968568189</uncertainty>
          <lowerUncertainty>0.5404513968568189</lowerUncertainty>
          <upperUncertainty>0.5404513968568189</upperUncertainty>
        </time>
        <waveformID networkCode="XT" stationCode="AAE54"></waveformID>
        <methodID>smi:local/auto</methodID>
        <phaseHint>S</phaseHint>
      </pick>
      <pick publicID="smi:local/302a804c-6644-43f4-999b-c1525587eb12">
        <time>
          <value>2015-07-29T02:57:11.325470Z</value>
          <uncertainty>0.5005757003339398</uncertainty>
          <lowerUncertainty>0.5005757003339398</lowerUncertainty>
          <upperUncertainty>0.5005757003339398</upperUncertainty>
        </time>
        <waveformID networkCode="IV" stationCode="PTQR"></waveformID>
        <methodID>smi:local/auto</methodID>
        <phaseHint>S</phaseHint>
      </pick>
      <pick publicID="smi:local/7d2018cb-fbda-46d1-8f37-6c2b573ac280">
        <time>
          <value>2015-07-29T02:55:53.089708Z</value>
          <uncertainty>0.20404461804237878</uncertainty>
          <lowerUncertainty>0.20404461804237878</lowerUncertainty>
          <upperUncertainty>0.20404461804237878</upperUncertainty>
        </time>
        <waveformID networkCode="GE" stationCode="STU"></waveformID>
        <methodID>smi:local/auto</methodID>
        <phaseHint>S</phaseHint>
      </pick>
      <pick publicID="smi:local/be2fd44c-f336-4dca-a21b-d6fb883482fc">
        <time>
          <value>2015-07-29T02:56:00.375896Z</value>
          <uncertainty>0.6910046710370881</uncertainty>
          <lowerUncertainty>0.6910046710370881</lowerUncertainty>
          <upperUncertainty>0.6910046710370881</upperUncertainty>
        </time>
        <waveformID networkCode="Z3" stationCode="A001A"></waveformID>
        <methodID>smi:local/auto</methodID>
        <phaseHint>S</phaseHint>
      </pick>
      <pick publicID="smi:local/a58d364d-15a0-46be-89f4-ff057a858253">
        <time>
          <value>2015-07-29T02:56:25.052473Z</value>
          <uncertainty>0.6126781811165647</uncertainty>
          <lowerUncertainty>0.6126781811165647</lowerUncertainty>
          <upperUncertainty>0.6126781811165647</upperUncertainty>
        </time>
        <waveformID networkCode="YI" stationCode="SG20"></waveformID>
        <methodID>smi:local/auto</methodID>
        <phaseHint>S</phaseHint>
      </pick>
      <pick publicID="smi:local/ab440c68-fdd5-4e13-9738-93e3928b76f8">
        <time>
          <value>2015-07-29T02:56:18.108488Z</value>
          <uncertainty>0.31835818088195983</uncertainty>
          <lowerUncertainty>0.31835818088195983</lowerUncertainty>
          <upperUncertainty>0.31835818088195983</upperUncertainty>
        </time>
        <waveformID networkCode="FR" stationCode="OG02"></waveformID>
        <methodID>smi:local/auto</methodID>
        <phaseHint>S</phaseHint>
      </pick>
      <pick publicID="smi:local/82fb4226-e31c-41a9-9b27-a6cc9cc199de">
        <time>
          <value>2015-07-29T02:56:21.295262Z</value>
          <uncertainty>0.7034404442923914</uncertainty>
          <lowerUncertainty>0.7034404442923914</lowerUncertainty>
          <upperUncertainty>0.7034404442923914</upperUncertainty>
        </time>
        <waveformID networkCode="NI" stationCode="ACOM"></waveformID>
        <methodID>smi:local/auto</methodID>
        <phaseHint>S</phaseHint>
      </pick>
      <pick publicID="smi:local/f2450549-ae39-4ded-aa91-a7b3214ba353">
        <time>
          <value>2015-07-29T02:56:23.781208Z</value>
          <uncertainty>0.7212943459185732</uncertainty>
          <lowerUncertainty>0.7212943459185732</lowerUncertainty>
          <upperUncertainty>0.7212943459185732</upperUncertainty>
        </time>
        <waveformID networkCode="IV" stationCode="CTI"></waveformID>
        <methodID>smi:local/auto</methodID>
        <phaseHint>S</phaseHint>
      </pick>
      <pick publicID="smi:local/382e082d-c3b6-48b5-86eb-73dd1a79ab3d">
        <time>
          <value>2015-07-29T02:56:17.943934Z</value>
          <uncertainty>0.21139230290440317</uncertainty>
          <lowerUncertainty>0.21139230290440317</lowerUncertainty>
          <upperUncertainty>0.21139230290440317</upperUncertainty>
        </time>
        <waveformID networkCode="FR" stationCode="OG35"></waveformID>
        <methodID>smi:local/auto</methodID>
        <phaseHint>S</phaseHint>
      </pick>
      <pick publicID="smi:local/d50a077d-c0af-454b-ab49-766a835ea245">
        <time>
          <value>2015-07-29T02:56:58.677525Z</value>
          <uncertainty>0.6407948163727439</uncertainty>
          <lowerUncertainty>0.6407948163727439</lowerUncertainty>
          <upperUncertainty>0.6407948163727439</upperUncertainty>
        </time>
        <waveformID networkCode="IV" stationCode="CASP"></waveformID>
        <methodID>smi:local/auto</methodID>
        <phaseHint>S</phaseHint>
      </pick>
      <pick publicID="smi:local/bedc4a17-b2d9-4b75-818f-481b3b36a339">
        <time>
          <value>2015-07-29T02:56:34.928967Z</value>
          <uncertainty>0.8771971796030218</uncertainty>
          <lowerUncertainty>0.8771971796030218</lowerUncertainty>
          <upperUncertainty>0.8771971796030218</upperUncertainty>
        </time>
