<?xml version='1.0' encoding='utf-8'?>
<q:quakeml xmlns="http://quakeml.org/xmlns/bed/1.2" xmlns:q="http://quakeml.org/xmlns/quakeml/1.2">
  <eventParameters publicID="smi:local/5cff7229-b9f7-41c5-993d-152d73786388">
    <event publicID="smi:local/20150817_161659.a">
      <origin publicID="smi:local/ndk/C201508171616A/origin#cmtorigin">
        <time>
          <value>2015-08-17T16:16:59.500000Z</value>
        </time>
        <latitude>
          <value>13.82</value>
        </latitude>
        <longitude>
          <value>51.59</value>
        </longitude>
        <depth>
          <value>19.8</value>
        </depth>
      </origin>
      <magnitude publicID="smi:local/b74af2a4-e7e4-4620-a602-09e901724590">
        <mag>
          <value>5.7</value>
        </mag>
        <type>Mwc</type>
        <originID>smi:local/ndk/C201508171616A/origin#cmtorigin</originID>
      </magnitude>
      <pick publicID="smi:local/83e27e93-a82a-40af-b678-98e5b6239d94">
        <time>
          <value>2015-08-17T16:32:18.531714Z</value>
          <uncertainty>1.2204000847228875</uncertainty>
          <lowerUncertainty>1.2204000847228875</lowerUncertainty>
          <upperUncertainty>1.2204000847228875</upperUncertainty>
        </time>
        <waveformID networkCode="MN" stationCode="TUE"></waveformID>
        <methodID>smi:local/auto</methodID>
        <phaseHint>S</phaseHint>
      </pick>
      <pick publicID="smi:local/d29f0335-bdf3-4400-b5b9-b751356caeb4">
        <time>
          <value>2015-08-17T16:31:47.432235Z</value>
          <uncertainty>1.1613462555462897</uncertainty>
          <lowerUncertainty>1.1613462555462897</lowerUncertainty>
          <upperUncertainty>1.1613462555462897</upperUncertainty>
        </time>
        <waveformID networkCode="NI" stationCode="ZOU2"></waveformID>
        <methodID>smi:local/auto</methodID>
        <phaseHint>S</phaseHint>
      </pick>
      <pick publicID="smi:local/f5ad61f0-7615-499c-9a96-bc8a0f19ee9f">
        <time>
          <value>2015-08-17T16:31:21.824661Z</value>
          <uncertainty>1.8215709987642446</uncertainty>
          <lowerUncertainty>1.8215709987642446</lowerUncertainty>
          <upperUncertainty>1.8215709987642446</upperUncertainty>
        </time>
        <waveformID networkCode="IV" stationCode="AOI"></waveformID>
        <methodID>smi:local/auto</methodID>
        <phaseHint>S</phaseHint>
      </pick>
      <pick publicID="smi:local/9218f974-ac12-4d1f-bff5-1054556b92e4">
        <time>
          <value>2015-08-17T16:32:14.606717Z</value>
          <uncertainty>2.3382224522906907</uncertainty>
          <lowerUncertainty>2.3382224522906907</lowerUncertainty>
          <upperUncertainty>2.3382224522906907</upperUncertainty>
        </time>
        <waveformID networkCode="GR" stationCode="GRC2"></waveformID>
        <methodID>smi:local/auto</methodID>
        <phaseHint>S</phaseHint>
      </pick>
      <pick publicID="smi:local/3bbc080c-f9db-4275-99d6-f1e1753a4f31">
        <time>
          <value>2015-08-17T16:32:31.404774Z</value>
          <uncertainty>1.621483230253488</uncertainty>
          <lowerUncertainty>1.621483230253488</lowerUncertainty>
          <upperUncertainty>1.621483230253488</upperUncertainty>
        </time>
        <waveformID networkCode="FR" stationCode="OGAG"></waveformID>
        <methodID>smi:local/auto</methodID>
        <phaseHint>S</phaseHint>
      </pick>
      <pick publicID="smi:local/ed933953-36b9-493b-b349-586f7c97d973">
        <time>
          <value>2015-08-17T16:31:43.547706Z</value>
          <uncertainty>1.1516042441831633</uncertainty>
          <lowerUncertainty>1.1516042441831633</lowerUncertainty>
          <upperUncertainty>1.1516042441831633</upperUncertainty>
        </time>
        <waveformID networkCode="XT" stationCode="AAE48"></waveformID>
        <methodID>smi:local/auto</methodID>
        <phaseHint>S</phaseHint>
      </pick>
      <pick publicID="smi:local/8c89c821-5670-4940-8ed1-93e0c511d263">
        <time>
          <value>2015-08-17T16:32:46.050052Z</value>
          <uncertainty>1.1862108628029602</uncertainty>
          <lowerUncertainty>1.1862108628029602</lowerUncertainty>
          <upperUncertainty>1.1862108628029602</upperUncertainty>
        </time>
        <waveformID networkCode="FR" stationCode="CHMF"></waveformID>
        <methodID>smi:local/auto</methodID>
        <phaseHint>S</phaseHint>
      </pick>
      <pick publicID="smi:local/3398ac3e-d5b7-4e83-86c6-0c2b7c80c165">
        <time>
          <value>2015-08-17T16:32:50.094781Z</value>
          <uncertainty>0.6024813103634221</uncertainty>
          <lowerUncertainty>0.6024813103634221</lowerUncertainty>
          <upperUncertainty>0.6024813103634221</upperUncertainty>
        </time>
        <waveformID networkCode="GR" stationCode="TNS"></waveformID>
        <methodID>smi:local/auto</methodID>
        <phaseHint>S</phaseHint>
      </pick>
      <pick publicID="smi:local/d3c30500-cf26-4831-a08d-dcd27441277f">
        <time>
          <value>2015-08-17T16:31:31.227427Z</value>
          <uncertainty>1.4510693253312874</uncertainty>
          <lowerUncertainty>1.4510693253312874</lowerUncertainty>
          <upperUncertainty>1.4510693253312874</upperUncertainty>
        </time>
        <waveformID networkCode="IV" stationCode="SACS"></waveformID>
        <methodID>smi:local/auto</methodID>
        <phaseHint>S</phaseHint>
      </pick>
      <pick publicID="smi:local/3e4185f8-d1a1-47bb-bd54-cd61fb313c12">
        <time>
          <value>2015-08-17T16:32:26.527967Z</value>
          <uncertainty>1.0959908001646752</uncertainty>
          <lowerUncertainty>1.0959908001646752</lowerUncertainty>
          <upperUncertainty>1.0959908001646752</upperUncertainty>
        </time>
        <waveformID networkCode="CH" stationCode="MUO"></waveformID>
        <methodID>smi:local/auto</methodID>
        <phaseHint>S</phaseHint>
      </pick>
      <pick publicID="smi:local/a2983747-5140-4519-b7a6-8fc9de633879">
        <time>
          <value>2015-08-17T16:32:02.716790Z</value>
          <uncertainty>1.0338454981863814</uncertainty>
          <lowerUncertainty>1.0338454981863814</lowerUncertainty>
          <upperUncertainty>1.0338454981863814</upperUncertainty>
        </time>
        <waveformID networkCode="IV" stationCode="SALO"></waveformID>
        <methodID>smi:local/auto</methodID>
        <phaseHint>S</phaseHint>
      </pick>
      <pick publicID="smi:local/a2134706-2a18-4661-96b1-929b94bf2491">
        <time>
          <value>2015-08-17T16:31:52.926885Z</value>
          <uncertainty>2.256224637445666</uncertainty>
          <lowerUncertainty>2.256224637445666</lowerUncertainty>
          <upperUncertainty>2.256224637445666</upperUncertainty>
        </time>
        <waveformID networkCode="XT" stationCode="AAE31"></waveformID>
        <methodID>smi:local/auto</methodID>
        <phaseHint>S</phaseHint>
      </pick>
      <pick publicID="smi:local/ce9e746e-7a67-42e2-8964-cf376a67d65c">
        <time>
          <value>2015-08-17T16:31:42.680514Z</value>
          <uncertainty>0.9781678408050368</uncertainty>
          <lowerUncertainty>0.9781678408050368</lowerUncertainty>
          <upperUncertainty>0.9781678408050368</upperUncertainty>
        </time>
        <waveformID networkCode="Z3" stationCode="A007A"></waveformID>
        <methodID>smi:local/auto</methodID>
        <phaseHint>S</phaseHint>
      </pick>
      <pick publicID="smi:local/0de7e917-b5c5-4445-8b07-6582ef6c738f">
        <time>
          <value>2015-08-17T16:32:24.256032Z</value>
          <uncertainty>0.9213721186084204</uncertainty>
          <lowerUncertainty>0.9213721186084204</lowerUncertainty>
          <upperUncertainty>0.9213721186084204</upperUncertainty>
        </time>
        <waveformID networkCode="GU" stationCode="TRAV"></waveformID>
        <methodID>smi:local/auto</methodID>
        <phaseHint>S</phaseHint>
      </pick>
      <pick publicID="smi:local/b72731d7-ba9f-4a9a-8c3b-271165bed769">
        <time>
          <value>2015-08-17T16:32:21.844203Z</value>
          <uncertainty>1.9754745485590925</uncertainty>
          <lowerUncertainty>1.9754745485590925</lowerUncertainty>
          <upperUncertainty>1.9754745485590925</upperUncertainty>
        </time>
        <waveformID networkCode="GU" stationCode="STV"></waveformID>
        <methodID>smi:local/auto</methodID>
        <phaseHint>S</phaseHint>
      </pick>
      <pick publicID="smi:local/afbd3ead-e1b0-45b3-bde9-064d6015c006">
        <time>
          <value>2015-08-17T16:31:48.019194Z</value>
          <uncertainty>0.7129513997162127</uncertainty>
          <lowerUncertainty>0.7129513997162127</lowerUncertainty>
          <upperUncertainty>0.7129513997162127</upperUncertainty>
        </time>
        <waveformID networkCode="IV" stationCode="STAL"></waveformID>
        <methodID>smi:local/auto</methodID>
        <phaseHint>S</phaseHint>
      </pick>
      <pick publicID="smi:local/d5b720df-8967-4847-b002-308d14ab59f6">
        <time>
          <value>2015-08-17T16:32:17.452010Z</value>
          <uncertainty>2.2318988117418166</uncertainty>
          <lowerUncertainty>2.2318988117418166</lowerUncertainty>
          <upperUncertainty>2.2318988117418166</upperUncertainty>
        </time>
        <waveformID networkCode="GR" stationCode="UBR"></waveformID>
        <methodID>smi:local/auto</methodID>
        <phaseHint>S</phaseHint>
      </pick>
      <pick publicID="smi:local/19094b4a-8527-49b8-813b-7c20c2c601f9">
        <time>
          <value>2015-08-17T16:31:40.712176Z</value>
          <uncertainty>1.7004123177835768</uncertainty>
          <lowerUncertainty>1.7004123177835768</lowerUncertainty>
          <upperUncertainty>1.7004123177835768</upperUncertainty>
        </time>
        <waveformID networkCode="CZ" stationCode="VRAC"></waveformID>
        <methodID>smi:local/auto</methodID>
        <phaseHint>S</phaseHint>
      </pick>
      <pick publicID="smi:local/d21c3478-f44c-4512-8ae1-f7735bdfd72f">
        <time>
          <value>2015-08-17T16:31:49.544572Z</value>
          <uncertainty>3.0059149982519644</uncertainty>
          <lowerUncertainty>3.0059149982519644</lowerUncertainty>
          <upperUncertainty>3.0059149982519644</upperUncertainty>
        </time>
        <waveformID networkCode="XT" stationCode="AAE35"></waveformID>
        <methodID>smi:local/auto</methodID>
        <phaseHint>S</phaseHint>
      </pick>
      <pick publicID="smi:local/7ed7770e-8945-4298-b868-f6dcdfa15f89">
        <time>
          <value>2015-08-17T16:31:50.880913Z</value>
          <uncertainty>2.38259377549038</uncertainty>
          <lowerUncertainty>2.38259377549038</lowerUncertainty>
          <upperUncertainty>2.38259377549038</upperUncertainty>
        </time>
        <waveformID networkCode="Z3" stationCode="A024A"></waveformID>
        <methodID>smi:local/auto</methodID>
        <phaseHint>S</phaseHint>
      </pick>
      <pick publicID="smi:local/6b22bf76-c767-459e-9d3d-519a2b10bafb">
        <time>
          <value>2015-08-17T16:31:09.704121Z</value>
          <uncertainty>2.0780148246483807</uncertainty>
          <lowerUncertainty>2.0780148246483807</lowerUncertainty>
          <upperUncertainty>2.0780148246483807</upperUncertainty>
        </time>
        <waveformID networkCode="IV" stationCode="GIUL"></waveformID>
        <methodID>smi:local/auto</methodID>
        <phaseHint>S</phaseHint>
      </pick>
      <pick publicID="smi:local/dd6aa469-66b2-4b4e-97c5-8d6d008a24bc">
        <time>
          <value>2015-08-17T16:31:31.363928Z</value>
          <uncertainty>0.8971975202096627</uncertainty>
          <lowerUncertainty>0.8971975202096627</lowerUncertainty>
          <upperUncertainty>0.8971975202096627</upperUncertainty>
        </time>
        <waveformID networkCode="IV" stationCode="ATMI"></waveformID>
        <methodID>smi:local/auto</methodID>
        <phaseHint>S</phaseHint>
      </pick>
      <pick publicID="smi:local/ff6f1357-7e94-4530-a54f-8d653cf28998">
        <time>
          <value>2015-08-17T16:32:23.729286Z</value>
          <uncertainty>1.245529700604888</uncertainty>
          <lowerUncertainty>1.245529700604888</lowerUncertainty>
          <upperUncertainty>1.245529700604888</upperUncertainty>
        </time>
        <waveformID networkCode="CH" stationCode="NALPS"></waveformID>
        <methodID>smi:local/auto</methodID>
        <phaseHint>S</phaseHint>
      </pick>
      <pick publicID="smi:local/ef1327b9-5ea6-4a35-a269-52ddac6cc076">
        <time>
          <value>2015-08-17T16:31:51.290010Z</value>
          <uncertainty>1.2858273168009027</uncertainty>
          <lowerUncertainty>1.2858273168009027</lowerUncertainty>
          <upperUncertainty>1.2858273168009027</upperUncertainty>
        </time>
        <waveformID networkCode="NI" stationCode="VARN"></waveformID>
        <methodID>smi:local/auto</methodID>
        <phaseHint>S</phaseHint>
      </pick>
      <pick publicID="smi:local/96629ddd-4a18-4083-a487-1196bf878ed2">
        <time>
          <value>2015-08-17T16:31:42.482270Z</value>
          <uncertainty>0.9758161407904228</uncertainty>
          <lowerUncertainty>0.9758161407904228</lowerUncertainty>
          <upperUncertainty>0.9758161407904228</upperUncertainty>
        </time>
        <waveformID networkCode="XT" stationCode="AAE50"></waveformID>
        <methodID>smi:local/auto</methodID>
        <phaseHint>S</phaseHint>
      </pick>
      <pick publicID="smi:local/263aeeaa-88af-42c2-9dfd-6b96270b718c">
        <time>
          <value>2015-08-17T16:32:23.898497Z</value>
          <uncertainty>1.3020342618117455</uncertainty>
          <lowerUncertainty>1.3020342618117455</lowerUncertainty>
          <upperUncertainty>1.3020342618117455</upperUncertainty>
        </time>
        <waveformID networkCode="CH" stationCode="SGT04"></waveformID>
        <methodID>smi:local/auto</methodID>
        <phaseHint>S</phaseHint>
      </pick>
      <pick publicID="smi:local/fa3e9aa5-ffdd-48f6-bdd8-97e7dd6c1fe9">
        <time>
          <value>2015-08-17T16:32:25.819749Z</value>
          <uncertainty>1.315406381034625</uncertainty>
          <lowerUncertainty>1.315406381034625</lowerUncertainty>
          <upperUncertainty>1.315406381034625</upperUncertainty>
        </time>
        <waveformID networkCode="CH" stationCode="SGT03"></waveformID>
        <methodID>smi:local/auto</methodID>
        <phaseHint>S</phaseHint>
      </pick>
      <pick publicID="smi:local/8a647ce8-c479-4340-97a2-2fad196f6829">
        <time>
          <value>2015-08-17T16:32:26.704252Z</value>
          <uncertainty>0.8347881657429539</uncertainty>
          <lowerUncertainty>0.8347881657429539</lowerUncertainty>
          <upperUncertainty>0.8347881657429539</upperUncertainty>
        </time>
        <waveformID networkCode="CH" stationCode="MMK"></waveformID>
        <methodID>smi:local/auto</methodID>
        <phaseHint>S</phaseHint>
      </pick>
      <pick publicID="smi:local/7eeea1f2-d798-4d3b-a533-0bae0149ecbd">
        <time>
          <value>2015-08-17T16:31:46.412981Z</value>
          <uncertainty>1.9287747529229944</uncertainty>
          <lowerUncertainty>1.9287747529229944</lowerUncertainty>
          <upperUncertainty>1.9287747529229944</upperUncertainty>
        </time>
        <waveformID networkCode="IV" stationCode="PII"></waveformID>
        <methodID>smi:local/auto</methodID>
        <phaseHint>S</phaseHint>
      </pick>
      <pick publicID="smi:local/0cb0c4ec-9b94-4c9f-954f-f8ac19a78379">
        <time>
          <value>2015-08-17T16:31:53.507332Z</value>
          <uncertainty>1.7952242387452826</uncertainty>
          <lowerUncertainty>1.7952242387452826</lowerUncertainty>
          <upperUncertainty>1.7952242387452826</upperUncertainty>
        </time>
        <waveformID networkCode="NI" stationCode="CGRP"></waveformID>
        <methodID>smi:local/auto</methodID>
        <phaseHint>S</phaseHint>
      </pick>
      <pick publicID="smi:local/3474a3b8-0492-43c2-aaa7-20ac0a273070">
        <time>
          <value>2015-08-17T16:32:28.573243Z</value>
          <uncertainty>1.5769912885909858</uncertainty>
          <lowerUncertainty>1.5769912885909858</lowerUncertainty>
          <upperUncertainty>1.5769912885909858</upperUncertainty>
        </time>
        <waveformID networkCode="GU" stationCode="BHB"></waveformID>
        <methodID>smi:local/auto</methodID>
        <phaseHint>S</phaseHint>
      </pick>
      <pick publicID="smi:local/57e1f0e5-0a33-4e81-883f-48ef899f672e">
        <time>
          <value>2015-08-17T16:32:29.763415Z</value>
          <uncertainty>1.482771512225911</uncertainty>
          <lowerUncertainty>1.482771512225911</lowerUncertainty>
          <upperUncertainty>1.482771512225911</upperUncertainty>
        </time>
        <waveformID networkCode="CH" stationCode="ZUR"></waveformID>
        <methodID>smi:local/auto</methodID>
        <phaseHint>S</phaseHint>
      </pick>
      <pick publicID="smi:local/2ea8bac7-0bca-4062-b785-e3ee0177b221">
        <time>
          <value>2015-08-17T16:32:14.646569Z</value>
          <uncertainty>0.9600066134559531</uncertainty>
          <lowerUncertainty>0.9600066134559531</lowerUncertainty>
          <upperUncertainty>0.9600066134559531</upperUncertainty>
        </time>
        <waveformID networkCode="GR" stationCode="GRC1"></waveformID>
        <methodID>smi:local/auto</methodID>
        <phaseHint>S</phaseHint>
      </pick>
      <pick publicID="smi:local/d9bd1aeb-0ce1-45cd-ba71-1b4a8bd11b30">
        <time>
          <value>2015-08-17T16:32:47.821740Z</value>
          <uncertainty>0.9337984953734481</uncertainty>
          <lowerUncertainty>0.9337984953734481</lowerUncertainty>
          <upperUncertainty>0.9337984953734481</upperUncertainty>
        </time>
        <waveformID networkCode="FR" stationCode="OG35"></waveformID>
        <methodID>smi:local/auto</methodID>
        <phaseHint>S</phaseHint>
      </pick>
      <pick publicID="smi:local/b12e36b3-e6dc-405e-85fd-fd718ea335c8">
        <time>
          <value>2015-08-17T16:31:41.791512Z</value>
          <uncertainty>1.1408432350515072</uncertainty>
          <lowerUncertainty>1.1408432350515072</lowerUncertainty>
          <upperUncertainty>1.1408432350515072</upperUncertainty>
        </time>
        <waveformID networkCode="IV" stationCode="LMD"></waveformID>
        <methodID>smi:local/auto</methodID>
        <phaseHint>S</phaseHint>
      </pick>
      <pick publicID="smi:local/6539e56d-29c5-4a98-846c-58aa6ef0624f">
        <time>
          <value>2015-08-17T16:31:36.357178Z</value>
          <uncertainty>1.461797761217314</uncertainty>
          <lowerUncertainty>1.461797761217314</lowerUncertainty>
          <upperUncertainty>1.461797761217314</upperUncertainty>
        </time>
        <waveformID networkCode="Z3" stationCode="A001A"></waveformID>
        <methodID>smi:local/auto</methodID>
        <phaseHint>S</phaseHint>
      </pick>
      <pick publicID="smi:local/0cb10cfd-4162-48ec-a2fd-bcf9a78f1eee">
        <time>
          <value>2015-08-17T16:32:37.324895Z</value>
          <uncertainty>1.3504866760904446</uncertainty>
          <lowerUncertainty>1.3504866760904446</lowerUncertainty>
          <upperUncertainty>1.3504866760904446</upperUncertainty>
        </time>
        <waveformID networkCode="FR" stationCode="RUSF"></waveformID>
        <methodID>smi:local/auto</methodID>
        <phaseHint>S</phaseHint>
      </pick>
      <pick publicID="smi:local/8d699ace-2ad3-49c4-98b3-88a39ac5de06">
        <time>
          <value>2015-08-17T16:31:38.414139Z</value>
          <uncertainty>1.6211459632708054</uncertainty>
          <lowerUncertainty>1.6211459632708054</lowerUncertainty>
          <upperUncertainty>1.6211459632708054</upperUncertainty>
        </time>
        <waveformID networkCode="XT" stationCode="AAE54"></waveformID>
        <methodID>smi:local/auto</methodID>
