<?xml version='1.0' encoding='utf-8'?>
<q:quakeml xmlns:q="http://quakeml.org/xmlns/quakeml/1.2" xmlns="http://quakeml.org/xmlns/bed/1.2">
  <eventParameters publicID="smi:local/5c695ffb-8483-4d5f-b02d-eef372e6f8a9">
    <event publicID="smi:local/20171010_063224.a">
      <origin publicID="smi:local/ndk/C201710100632A/origin#cmtorigin">
        <time>
          <value>2017-10-10T06:32:24.800000Z</value>
        </time>
        <latitude>
          <value>-18.58</value>
        </latitude>
        <longitude>
          <value>-69.86</value>
        </longitude>
        <depth>
          <value>106.4</value>
        </depth>
      </origin>
      <magnitude publicID="smi:local/13efacf9-b96f-4ec3-8e61-d9f45b11cb81">
        <mag>
          <value>6.27</value>
        </mag>
        <type>Mwc</type>
        <originID>smi:local/ndk/C201710100632A/origin#cmtorigin</originID>
      </magnitude>
      <pick publicID="smi:local/bfb8bfe8-c1b3-41a1-b3da-2a68d3aad4b9">
        <time>
          <value>2017-10-10T06:45:41.497489Z</value>
          <uncertainty>0.1109451465295</uncertainty>
          <lowerUncertainty>0.110945146529</lowerUncertainty>
          <upperUncertainty>0.110945146529</upperUncertainty>
        </time>
        <waveformID networkCode="IV" stationCode="ASSB"></waveformID>
        <methodID>smi:local/auto</methodID>
        <phaseHint>P</phaseHint>
      </pick>
      <pick publicID="smi:local/9e90f048-1162-484c-a71b-d8437d61e6bc">
        <time>
          <value>2017-10-10T06:45:40.813546Z</value>
          <uncertainty>0.09592500007</uncertainty>
          <lowerUncertainty>0.0959250000702</lowerUncertainty>
          <upperUncertainty>0.0959250000702</upperUncertainty>
        </time>
        <waveformID networkCode="IV" stationCode="RMP"></waveformID>
        <methodID>smi:local/auto</methodID>
        <phaseHint>P</phaseHint>
      </pick>
      <pick publicID="smi:local/0ac68fae-0929-46de-9c13-7baa2072b137">
        <time>
          <value>2017-10-10T06:45:41.582459Z</value>
          <uncertainty>0.123487274482</uncertainty>
          <lowerUncertainty>0.123487274482</lowerUncertainty>
          <upperUncertainty>0.123487274482</upperUncertainty>
        </time>
        <waveformID networkCode="IV" stationCode="CESX"></waveformID>
        <methodID>smi:local/auto</methodID>
        <phaseHint>P</phaseHint>
      </pick>
      <pick publicID="smi:local/5de81379-ab75-4a0e-afdc-44fe2aff2cb4">
        <time>
          <value>2017-10-10T06:46:05.623783Z</value>
          <uncertainty>0.307816089011</uncertainty>
          <lowerUncertainty>0.307816089011</lowerUncertainty>
          <upperUncertainty>0.307816089011</upperUncertainty>
        </time>
        <waveformID networkCode="Z3" stationCode="A269A"></waveformID>
        <methodID>smi:local/auto</methodID>
        <phaseHint>P</phaseHint>
      </pick>
      <pick publicID="smi:local/4af096b7-6f4a-4a5e-b0f0-c634fbd31100">
        <time>
          <value>2017-10-10T06:45:45.081912Z</value>
          <uncertainty>0.124797490968</uncertainty>
          <lowerUncertainty>0.124797490968</lowerUncertainty>
          <upperUncertainty>0.124797490968</upperUncertainty>
        </time>
        <waveformID networkCode="ZS" stationCode="D089"></waveformID>
        <methodID>smi:local/auto</methodID>
        <phaseHint>P</phaseHint>
      </pick>
      <pick publicID="smi:local/c355dee6-cb12-4478-924a-fe9bce9567a3">
        <time>
          <value>2017-10-10T06:45:30.363490Z</value>
          <uncertainty>0.1765721527665</uncertainty>
          <lowerUncertainty>0.176572152766</lowerUncertainty>
          <upperUncertainty>0.176572152766</upperUncertainty>
        </time>
        <waveformID networkCode="CH" stationCode="AIGLE"></waveformID>
        <methodID>smi:local/auto</methodID>
        <phaseHint>P</phaseHint>
      </pick>
      <pick publicID="smi:local/e41c352d-d9cd-4dbc-b72e-4bae8d9fbe17">
        <time>
          <value>2017-10-10T06:45:50.325759Z</value>
          <uncertainty>0.1005496707765</uncertainty>
          <lowerUncertainty>0.100549670776</lowerUncertainty>
          <upperUncertainty>0.100549670776</upperUncertainty>
        </time>
        <waveformID networkCode="OX" stationCode="ACOM"></waveformID>
        <methodID>smi:local/auto</methodID>
        <phaseHint>P</phaseHint>
      </pick>
      <pick publicID="smi:local/8eff2703-4e29-4e4a-8310-93f58ab5b9ea">
        <time>
          <value>2017-10-10T06:45:35.118331Z</value>
          <uncertainty>0.069763786375</uncertainty>
          <lowerUncertainty>0.069763786375</lowerUncertainty>
          <upperUncertainty>0.069763786375</upperUncertainty>
        </time>
        <waveformID networkCode="CH" stationCode="ROTHE"></waveformID>
        <methodID>smi:local/auto</methodID>
        <phaseHint>P</phaseHint>
      </pick>
      <pick publicID="smi:local/5337944f-57f5-4395-8706-63ccff4612d5">
        <time>
          <value>2017-10-10T06:45:48.913746Z</value>
          <uncertainty>0.126938661541</uncertainty>
          <lowerUncertainty>0.126938661541</lowerUncertainty>
          <upperUncertainty>0.126938661541</upperUncertainty>
        </time>
        <waveformID networkCode="Z3" stationCode="A145A"></waveformID>
        <methodID>smi:local/auto</methodID>
        <phaseHint>P</phaseHint>
      </pick>
      <pick publicID="smi:local/4d793b8e-0a45-4290-a726-432351f2eef6">
        <time>
          <value>2017-10-10T06:45:33.540206Z</value>
          <uncertainty>0.1603192586615</uncertainty>
          <lowerUncertainty>0.160319258661</lowerUncertainty>
          <upperUncertainty>0.160319258661</upperUncertainty>
        </time>
        <waveformID networkCode="CH" stationCode="MMK"></waveformID>
        <methodID>smi:local/auto</methodID>
        <phaseHint>P</phaseHint>
      </pick>
      <pick publicID="smi:local/ec055a30-26a7-44a4-8030-ba6aee5ca95a">
        <time>
          <value>2017-10-10T06:45:32.925692Z</value>
          <uncertainty>0.062477479114</uncertainty>
          <lowerUncertainty>0.0624774791142</lowerUncertainty>
          <upperUncertainty>0.0624774791142</upperUncertainty>
        </time>
        <waveformID networkCode="FR" stationCode="MOF"></waveformID>
        <methodID>smi:local/auto</methodID>
        <phaseHint>P</phaseHint>
      </pick>
      <pick publicID="smi:local/e226089b-d149-4879-8241-a23884ec1001">
        <time>
          <value>2017-10-10T06:45:36.307418Z</value>
          <uncertainty>0.0957157245065</uncertainty>
          <lowerUncertainty>0.0957157245065</lowerUncertainty>
          <upperUncertainty>0.0957157245065</upperUncertainty>
        </time>
        <waveformID networkCode="IV" stationCode="PII"></waveformID>
        <methodID>smi:local/auto</methodID>
        <phaseHint>P</phaseHint>
      </pick>
      <pick publicID="smi:local/4ccce49c-efec-4080-b5b3-a54c74ce85cc">
        <time>
          <value>2017-10-10T06:45:39.255431Z</value>
          <uncertainty>0.2266601173905</uncertainty>
          <lowerUncertainty>0.226660117391</lowerUncertainty>
          <upperUncertainty>0.226660117391</upperUncertainty>
        </time>
        <waveformID networkCode="IV" stationCode="MCIV"></waveformID>
        <methodID>smi:local/auto</methodID>
        <phaseHint>P</phaseHint>
      </pick>
      <pick publicID="smi:local/2cc3584c-fbcd-4ed1-b626-c0b119613a1a">
        <time>
          <value>2017-10-10T06:45:37.093874Z</value>
          <uncertainty>0.0602198698655</uncertainty>
          <lowerUncertainty>0.0602198698653</lowerUncertainty>
          <upperUncertainty>0.0602198698653</upperUncertainty>
        </time>
        <waveformID networkCode="FR" stationCode="SZBH"></waveformID>
        <methodID>smi:local/auto</methodID>
        <phaseHint>P</phaseHint>
      </pick>
      <pick publicID="smi:local/917c74c6-2777-4e93-b21a-15ede227b587">
        <time>
          <value>2017-10-10T06:45:52.790709Z</value>
          <uncertainty>0.1480629495545</uncertainty>
          <lowerUncertainty>0.148062949554</lowerUncertainty>
          <upperUncertainty>0.148062949554</upperUncertainty>
        </time>
        <waveformID networkCode="SX" stationCode="TANN"></waveformID>
        <methodID>smi:local/auto</methodID>
        <phaseHint>P</phaseHint>
      </pick>
      <pick publicID="smi:local/2e020063-96bb-4b36-978c-bfdcd8747493">
        <time>
          <value>2017-10-10T06:45:47.313638Z</value>
          <uncertainty>0.171879983959</uncertainty>
          <lowerUncertainty>0.171879983959</lowerUncertainty>
          <upperUncertainty>0.171879983959</upperUncertainty>
        </time>
        <waveformID networkCode="Z3" stationCode="A141A"></waveformID>
        <methodID>smi:local/auto</methodID>
        <phaseHint>P</phaseHint>
      </pick>
      <pick publicID="smi:local/9c5ec3db-7dda-4a85-b991-abee78ede491">
        <time>
          <value>2017-10-10T06:45:56.156554Z</value>
          <uncertainty>0.095955518737</uncertainty>
          <lowerUncertainty>0.0959555187369</lowerUncertainty>
          <upperUncertainty>0.0959555187369</upperUncertainty>
        </time>
        <waveformID networkCode="Z3" stationCode="A076A"></waveformID>
        <methodID>smi:local/auto</methodID>
        <phaseHint>P</phaseHint>
      </pick>
      <pick publicID="smi:local/07cc29e6-177e-4d57-9593-e05760e5a119">
        <time>
          <value>2017-10-10T06:45:34.850823Z</value>
          <uncertainty>0.146493117914</uncertainty>
          <lowerUncertainty>0.146493117914</lowerUncertainty>
          <upperUncertainty>0.146493117914</upperUncertainty>
        </time>
        <waveformID networkCode="Z3" stationCode="A060B"></waveformID>
        <methodID>smi:local/auto</methodID>
        <phaseHint>P</phaseHint>
      </pick>
      <pick publicID="smi:local/061340bb-fe02-4eee-99e7-30321e326183">
        <time>
          <value>2017-10-10T06:45:41.646652Z</value>
          <uncertainty>0.2766715595065</uncertainty>
          <lowerUncertainty>0.276671559506</lowerUncertainty>
          <upperUncertainty>0.276671559506</upperUncertainty>
        </time>
        <waveformID networkCode="IV" stationCode="ATPC"></waveformID>
        <methodID>smi:local/auto</methodID>
        <phaseHint>P</phaseHint>
      </pick>
      <pick publicID="smi:local/ef3ba9a8-0281-4d94-8a77-10afae05ac56">
        <time>
          <value>2017-10-10T06:45:44.166652Z</value>
          <uncertainty>0.165331368515</uncertainty>
          <lowerUncertainty>0.165331368515</lowerUncertainty>
          <upperUncertainty>0.165331368515</upperUncertainty>
        </time>
        <waveformID networkCode="IV" stationCode="CAMP"></waveformID>
        <methodID>smi:local/auto</methodID>
        <phaseHint>P</phaseHint>
      </pick>
      <pick publicID="smi:local/2d6e6c80-3c6f-4a8c-bee3-5e691dfe03b2">
        <time>
          <value>2017-10-10T06:45:51.683673Z</value>
          <uncertainty>0.3046178076755</uncertainty>
          <lowerUncertainty>0.304617807675</lowerUncertainty>
          <upperUncertainty>0.304617807675</upperUncertainty>
        </time>
        <waveformID networkCode="ZS" stationCode="D060"></waveformID>
        <methodID>smi:local/auto</methodID>
        <phaseHint>P</phaseHint>
      </pick>
      <pick publicID="smi:local/5c31a295-827c-4cda-8765-6c2956d4bfe1">
        <time>
          <value>2017-10-10T06:46:03.573684Z</value>
          <uncertainty>0.130936915355</uncertainty>
          <lowerUncertainty>0.130936915355</lowerUncertainty>
          <upperUncertainty>0.130936915355</upperUncertainty>
        </time>
        <waveformID networkCode="HU" stationCode="KOVH"></waveformID>
        <methodID>smi:local/auto</methodID>
        <phaseHint>P</phaseHint>
      </pick>
      <pick publicID="smi:local/1d27689b-197e-495b-8623-c60d48c01465">
        <time>
          <value>2017-10-10T06:45:49.565277Z</value>
          <uncertainty>0.220953328172</uncertainty>
          <lowerUncertainty>0.220953328172</lowerUncertainty>
          <upperUncertainty>0.220953328172</upperUncertainty>
        </time>
        <waveformID networkCode="ZS" stationCode="D056"></waveformID>
        <methodID>smi:local/auto</methodID>
        <phaseHint>P</phaseHint>
      </pick>
      <pick publicID="smi:local/bd1712b8-7bef-4071-9531-f78d027062a7">
        <time>
          <value>2017-10-10T06:45:48.105968Z</value>
          <uncertainty>0.1343610624875</uncertainty>
          <lowerUncertainty>0.134361062487</lowerUncertainty>
          <upperUncertainty>0.134361062487</upperUncertainty>
        </time>
        <waveformID networkCode="GR" stationCode="GRA1"></waveformID>
        <methodID>smi:local/auto</methodID>
        <phaseHint>P</phaseHint>
      </pick>
      <pick publicID="smi:local/ee6413a9-55be-4be7-9c7f-4c5b418236c4">
        <time>
          <value>2017-10-10T06:45:39.814990Z</value>
          <uncertainty>0.12181803537</uncertainty>
          <lowerUncertainty>0.12181803537</lowerUncertainty>
          <upperUncertainty>0.12181803537</upperUncertainty>
        </time>
        <waveformID networkCode="CH" stationCode="BERNI"></waveformID>
        <methodID>smi:local/auto</methodID>
        <phaseHint>P</phaseHint>
      </pick>
      <pick publicID="smi:local/7ae2e380-95e5-4a60-aae2-421071521d59">
        <time>
          <value>2017-10-10T06:45:51.602484Z</value>
          <uncertainty>0.2372678165115</uncertainty>
          <lowerUncertainty>0.237267816511</lowerUncertainty>
          <upperUncertainty>0.237267816511</upperUncertainty>
        </time>
        <waveformID networkCode="Z3" stationCode="A027A"></waveformID>
        <methodID>smi:local/auto</methodID>
        <phaseHint>P</phaseHint>
      </pick>
      <pick publicID="smi:local/2c1c308a-826a-4618-911c-0ab2c316ee90">
        <time>
          <value>2017-10-10T06:45:31.229941Z</value>
          <uncertainty>0.0855017687455</uncertainty>
          <lowerUncertainty>0.0855017687457</lowerUncertainty>
          <upperUncertainty>0.0855017687457</upperUncertainty>
        </time>
        <waveformID networkCode="CH" stationCode="TORNY"></waveformID>
        <methodID>smi:local/auto</methodID>
        <phaseHint>P</phaseHint>
      </pick>
      <pick publicID="smi:local/9b80c49b-907a-483d-a921-aedc214d3b38">
        <time>
          <value>2017-10-10T06:45:44.270035Z</value>
          <uncertainty>0.1382807184885</uncertainty>
          <lowerUncertainty>0.138280718488</lowerUncertainty>
          <upperUncertainty>0.138280718488</upperUncertainty>
        </time>
        <waveformID networkCode="BW" stationCode="SCE"></waveformID>
        <methodID>smi:local/auto</methodID>
        <phaseHint>P</phaseHint>
      </pick>
      <pick publicID="smi:local/d4182796-620b-438d-b171-52c54fad4801">
        <time>
          <value>2017-10-10T06:45:41.553513Z</value>
          <uncertainty>0.238661229529</uncertainty>
          <lowerUncertainty>0.238661229529</lowerUncertainty>
          <upperUncertainty>0.238661229529</upperUncertainty>
        </time>
        <waveformID networkCode="ZS" stationCode="D103"></waveformID>
        <methodID>smi:local/auto</methodID>
        <phaseHint>P</phaseHint>
      </pick>
      <pick publicID="smi:local/97025df6-c940-4d34-b596-acb6513350ea">
        <time>
          <value>2017-10-10T06:45:26.363712Z</value>
          <uncertainty>0.073759594301</uncertainty>
          <lowerUncertainty>0.0737595943011</lowerUncertainty>
          <upperUncertainty>0.0737595943011</upperUncertainty>
        </time>
        <waveformID networkCode="Z3" stationCode="A163A"></waveformID>
        <methodID>smi:local/auto</methodID>
        <phaseHint>P</phaseHint>
      </pick>
      <pick publicID="smi:local/dde4b48e-3be2-4257-b9b9-cca061596c90">
        <time>
          <value>2017-10-10T06:45:43.138390Z</value>
          <uncertainty>0.1779909236935</uncertainty>
          <lowerUncertainty>0.177990923694</lowerUncertainty>
          <upperUncertainty>0.177990923694</upperUncertainty>
        </time>
        <waveformID networkCode="ZS" stationCode="D148"></waveformID>
        <methodID>smi:local/auto</methodID>
        <phaseHint>P</phaseHint>
      </pick>
      <pick publicID="smi:local/dc04d803-10a7-461c-866a-885ff6e50326">
        <time>
          <value>2017-10-10T06:45:41.783289Z</value>
          <uncertainty>0.082563512478</uncertainty>
          <lowerUncertainty>0.082563512478</lowerUncertainty>
          <upperUncertainty>0.082563512478</upperUncertainty>
        </time>
        <waveformID networkCode="Z3" stationCode="A105A"></waveformID>
        <methodID>smi:local/auto</methodID>
        <phaseHint>P</phaseHint>
      </pick>
      <pick publicID="smi:local/d5221dbf-76a5-4212-829f-6a6f98db0a8c">
        <time>
          <value>2017-10-10T06:45:16.481524Z</value>
          <uncertainty>0.2936400566315</uncertainty>
          <lowerUncertainty>0.293640056631</lowerUncertainty>
          <upperUncertainty>0.293640056631</upperUncertainty>
        </time>
        <waveformID networkCode="Z3" stationCode="A404A"></waveformID>
        <methodID>smi:local/auto</methodID>
        <phaseHint>P</phaseHint>
      </pick>
      <pick publicID="smi:local/971386bd-f39b-4614-9912-f985f26d8940">
        <time>
          <value>2017-10-10T06:45:18.872671Z</value>
          <uncertainty>0.2716567626075</uncertainty>
          <lowerUncertainty>0.271656762607</lowerUncertainty>
          <upperUncertainty>0.271656762607</upperUncertainty>
        </time>
        <waveformID networkCode="Z3" stationCode="A414A"></waveformID>
        <methodID>smi:local/auto</methodID>
        <phaseHint>P</phaseHint>
      </pick>
      <pick publicID="smi:local/c3c4a269-1c3d-442f-bbda-ddf3f528aeb3">
        <time>
          <value>2017-10-10T06:46:00.409470Z</value>
          <uncertainty>0.1591240915165</uncertainty>
          <lowerUncertainty>0.159124091517</lowerUncertainty>
          <upperUncertainty>0.159124091517</upperUncertainty>
        </time>
        <waveformID networkCode="Z3" stationCode="A004A"></waveformID>
        <methodID>smi:local/auto</methodID>
        <phaseHint>P</phaseHint>
      </pick>
      <pick publicID="smi:local/13293340-d253-4ff9-a5d4-838f868da6dd">
        <time>
          <value>2017-10-10T06:45:25.006063Z</value>
          <uncertainty>0.0769143768275</uncertainty>
          <lowerUncertainty>0.0769143768276</lowerUncertainty>
          <upperUncertainty>0.0769143768276</upperUncertainty>
        </time>
        <waveformID networkCode="FR" stationCode="OGS2"></waveformID>
        <methodID>smi:local/auto</methodID>
        <phaseHint>P</phaseHint>
      </pick>
      <pick publicID="smi:local/fab7d683-3f8d-464b-8289-fe2bad8a2437">
        <time>
          <value>2017-10-10T06:45:48.895469Z</value>
          <uncertainty>0.3329126042845</uncertainty>
          <lowerUncertainty>0.332912604285</lowerUncertainty>
          <upperUncertainty>0.332912604285</upperUncertainty>
        </time>
        <waveformID networkCode="Z3" stationCode="A034A"></waveformID>
        <methodID>smi:local/auto</methodID>
        <phaseHint>P</phaseHint>
      </pick>
      <pick publicID="smi:local/15ffec4e-24d6-4471-86ac-acf5c5a5f89f">
        <time>
          <value>2017-10-10T06:45:50.820177Z</value>
          <uncertainty>0.2746077486515</uncertainty>
          <lowerUncertainty>0.274607748652</lowerUncertainty>
          <upperUncertainty>0.274607748652</upperUncertainty>
        </time>
        <waveformID networkCode="ZS" stationCode="D078"></waveformID>
        <methodID>smi:local/auto</methodID>
        <phaseHint>P</phaseHint>
      </pick>
      <pick publicID="smi:local/afe0de6c-f9c3-4cf4-b183-26daf3b2c18b">
        <time>
          <value>2017-10-10T06:45:20.460561Z</value>
          <uncertainty>0.0577719435985</uncertainty>
          <lowerUncertainty>0.0577719435984</lowerUncertainty>
          <upperUncertainty>0.0577719435984</upperUncertainty>
        </time>
