<?xml version='1.0' encoding='utf-8'?>
<q:quakeml xmlns:q="http://quakeml.org/xmlns/quakeml/1.2" xmlns="http://quakeml.org/xmlns/bed/1.2">
  <eventParameters publicID="smi:local/b9c80ee2-ac95-4b9f-924c-06f05c72861a">
    <event publicID="smi:local/20180419_210919.a">
      <origin publicID="smi:local/ndk/C201804192109A/origin#cmtorigin">
        <time>
          <value>2018-04-19T21:09:19.300000Z</value>
        </time>
        <latitude>
          <value>-42.67</value>
        </latitude>
        <longitude>
          <value>42.35</value>
        </longitude>
        <depth>
          <value>12.0</value>
        </depth>
      </origin>
      <magnitude publicID="smi:local/b87a328b-6a92-4407-b94c-1a0d3e0cbf56">
        <mag>
          <value>5.89</value>
        </mag>
        <type>Mwc</type>
        <originID>smi:local/ndk/C201804192109A/origin#cmtorigin</originID>
      </magnitude>
      <pick publicID="smi:local/c6b66be1-b47b-4cbc-9b35-d1a6641fdfd2">
        <time>
          <value>2018-04-19T21:22:28.427695Z</value>
          <uncertainty>0.414753235718</uncertainty>
          <lowerUncertainty>0.414753235718</lowerUncertainty>
          <upperUncertainty>0.414753235718</upperUncertainty>
        </time>
        <waveformID networkCode="OE" stationCode="MYKA"></waveformID>
        <methodID>smi:local/auto</methodID>
        <phaseHint>P</phaseHint>
      </pick>
      <pick publicID="smi:local/bc75fb87-ed9d-49b5-86e4-fc2f8897f76c">
        <time>
          <value>2018-04-19T21:22:31.882500Z</value>
          <uncertainty>0.3825490663375</uncertainty>
          <lowerUncertainty>0.382549066338</lowerUncertainty>
          <upperUncertainty>0.382549066338</upperUncertainty>
        </time>
        <waveformID networkCode="OE" stationCode="LESA"></waveformID>
        <methodID>smi:local/auto</methodID>
        <phaseHint>P</phaseHint>
      </pick>
      <pick publicID="smi:local/ae276546-7d2d-47da-9d33-846ba323c134">
        <time>
          <value>2018-04-19T21:22:31.561944Z</value>
          <uncertainty>0.55789418001</uncertainty>
          <lowerUncertainty>0.557894180009</lowerUncertainty>
          <upperUncertainty>0.557894180009</upperUncertainty>
        </time>
        <waveformID networkCode="Z3" stationCode="A018A"></waveformID>
        <methodID>smi:local/auto</methodID>
        <phaseHint>P</phaseHint>
      </pick>
      <pick publicID="smi:local/7d08dc7e-21c5-4aa1-950e-b6d7768eea25">
        <time>
          <value>2018-04-19T21:22:28.016244Z</value>
          <uncertainty>0.3082034774785</uncertainty>
          <lowerUncertainty>0.308203477479</lowerUncertainty>
          <upperUncertainty>0.308203477479</upperUncertainty>
        </time>
        <waveformID networkCode="IV" stationCode="CTI"></waveformID>
        <methodID>smi:local/auto</methodID>
        <phaseHint>P</phaseHint>
      </pick>
      <pick publicID="smi:local/dbe513da-1b66-43ed-8d3a-1eeb5830c8db">
        <time>
          <value>2018-04-19T21:22:22.863391Z</value>
          <uncertainty>0.466839597213</uncertainty>
          <lowerUncertainty>0.466839597213</lowerUncertainty>
          <upperUncertainty>0.466839597213</upperUncertainty>
        </time>
        <waveformID networkCode="Z3" stationCode="A206A"></waveformID>
        <methodID>smi:local/auto</methodID>
        <phaseHint>P</phaseHint>
      </pick>
      <pick publicID="smi:local/a4cef911-3a58-4cd3-af35-9ec9020f29cb">
        <time>
          <value>2018-04-19T21:22:27.675602Z</value>
          <uncertainty>0.2893979194015</uncertainty>
          <lowerUncertainty>0.289397919401</lowerUncertainty>
          <upperUncertainty>0.289397919401</upperUncertainty>
        </time>
        <waveformID networkCode="ST" stationCode="DOSS"></waveformID>
        <methodID>smi:local/auto</methodID>
        <phaseHint>P</phaseHint>
      </pick>
      <pick publicID="smi:local/661c906c-2436-417a-ba2f-2ec3131deffc">
        <time>
          <value>2018-04-19T21:22:34.359317Z</value>
          <uncertainty>0.72294347467</uncertainty>
          <lowerUncertainty>0.722943474669</lowerUncertainty>
          <upperUncertainty>0.722943474669</upperUncertainty>
        </time>
        <waveformID networkCode="Z3" stationCode="A022A"></waveformID>
        <methodID>smi:local/auto</methodID>
        <phaseHint>P</phaseHint>
      </pick>
      <pick publicID="smi:local/ff24588f-47ac-480b-b74b-84c1d46653d2">
        <time>
          <value>2018-04-19T21:22:36.524094Z</value>
          <uncertainty>0.305453358917</uncertainty>
          <lowerUncertainty>0.305453358917</lowerUncertainty>
          <upperUncertainty>0.305453358917</upperUncertainty>
        </time>
        <waveformID networkCode="BW" stationCode="FFB3"></waveformID>
        <methodID>smi:local/auto</methodID>
        <phaseHint>P</phaseHint>
      </pick>
      <pick publicID="smi:local/dd663024-6ff0-48ea-b627-0d91de0380fd">
        <time>
          <value>2018-04-19T21:22:26.046097Z</value>
          <uncertainty>0.2110542577605</uncertainty>
          <lowerUncertainty>0.21105425776</lowerUncertainty>
          <upperUncertainty>0.21105425776</upperUncertainty>
        </time>
        <waveformID networkCode="Z3" stationCode="A268A"></waveformID>
        <methodID>smi:local/auto</methodID>
        <phaseHint>P</phaseHint>
      </pick>
      <pick publicID="smi:local/4554ce4a-af61-4e2d-9716-36ec14be787d">
        <time>
          <value>2018-04-19T21:22:30.859100Z</value>
          <uncertainty>0.4914864911165</uncertainty>
          <lowerUncertainty>0.491486491116</lowerUncertainty>
          <upperUncertainty>0.491486491116</upperUncertainty>
        </time>
        <waveformID networkCode="ZS" stationCode="D084"></waveformID>
        <methodID>smi:local/auto</methodID>
        <phaseHint>P</phaseHint>
      </pick>
      <pick publicID="smi:local/0ec497ef-78ff-42d1-8c2b-7d04ffd549b0">
        <time>
          <value>2018-04-19T21:22:26.655792Z</value>
          <uncertainty>0.4563205386965</uncertainty>
          <lowerUncertainty>0.456320538697</lowerUncertainty>
          <upperUncertainty>0.456320538697</upperUncertainty>
        </time>
        <waveformID networkCode="OE" stationCode="SOKA"></waveformID>
        <methodID>smi:local/auto</methodID>
        <phaseHint>P</phaseHint>
      </pick>
      <pick publicID="smi:local/f92b654d-9239-4c56-9107-b0ada1a880e6">
        <time>
          <value>2018-04-19T21:22:27.913848Z</value>
          <uncertainty>0.3154265762515</uncertainty>
          <lowerUncertainty>0.315426576252</lowerUncertainty>
          <upperUncertainty>0.315426576252</upperUncertainty>
        </time>
        <waveformID networkCode="ZS" stationCode="D017"></waveformID>
        <methodID>smi:local/auto</methodID>
        <phaseHint>P</phaseHint>
      </pick>
      <pick publicID="smi:local/ecd1dd18-e9c7-402d-bd7b-61b8e27fe6c5">
        <time>
          <value>2018-04-19T21:22:36.122153Z</value>
          <uncertainty>0.52288212192</uncertainty>
          <lowerUncertainty>0.522882121921</lowerUncertainty>
          <upperUncertainty>0.522882121921</upperUncertainty>
        </time>
        <waveformID networkCode="Z3" stationCode="A078A"></waveformID>
        <methodID>smi:local/auto</methodID>
        <phaseHint>P</phaseHint>
      </pick>
      <pick publicID="smi:local/c538de91-ae29-4100-9248-d3c8dcf342d2">
        <time>
          <value>2018-04-19T21:22:32.555039Z</value>
          <uncertainty>0.4142670173965</uncertainty>
          <lowerUncertainty>0.414267017396</lowerUncertainty>
          <upperUncertainty>0.414267017396</upperUncertainty>
        </time>
        <waveformID networkCode="OE" stationCode="WATA"></waveformID>
        <methodID>smi:local/auto</methodID>
        <phaseHint>P</phaseHint>
      </pick>
      <pick publicID="smi:local/252c9b95-ff9b-4850-8d65-20fe9458e174">
        <time>
          <value>2018-04-19T21:22:30.427838Z</value>
          <uncertainty>0.364708171523</uncertainty>
          <lowerUncertainty>0.364708171523</lowerUncertainty>
          <upperUncertainty>0.364708171523</upperUncertainty>
        </time>
        <waveformID networkCode="ZS" stationCode="D109"></waveformID>
        <methodID>smi:local/auto</methodID>
        <phaseHint>P</phaseHint>
      </pick>
      <pick publicID="smi:local/fb72dabb-df2c-4076-87f1-18426933da79">
        <time>
          <value>2018-04-19T21:22:23.116862Z</value>
          <uncertainty>0.201205259449</uncertainty>
          <lowerUncertainty>0.201205259449</lowerUncertainty>
          <upperUncertainty>0.201205259449</upperUncertainty>
        </time>
        <waveformID networkCode="IV" stationCode="CAVE"></waveformID>
        <methodID>smi:local/auto</methodID>
        <phaseHint>P</phaseHint>
      </pick>
      <pick publicID="smi:local/0d1defe0-3263-48ec-bfc0-dc2102b958ca">
        <time>
          <value>2018-04-19T21:22:15.304183Z</value>
          <uncertainty>0.382226479395</uncertainty>
          <lowerUncertainty>0.382226479395</lowerUncertainty>
          <upperUncertainty>0.382226479395</upperUncertainty>
        </time>
        <waveformID networkCode="IV" stationCode="NARO"></waveformID>
        <methodID>smi:local/auto</methodID>
        <phaseHint>P</phaseHint>
      </pick>
      <pick publicID="smi:local/dc3e8545-1a2b-463a-9977-f43f2b11356b">
        <time>
          <value>2018-04-19T21:22:45.526403Z</value>
          <uncertainty>0.596170207595</uncertainty>
          <lowerUncertainty>0.596170207595</lowerUncertainty>
          <upperUncertainty>0.596170207595</upperUncertainty>
        </time>
        <waveformID networkCode="TH" stationCode="PLN"></waveformID>
        <methodID>smi:local/auto</methodID>
        <phaseHint>P</phaseHint>
      </pick>
      <pick publicID="smi:local/cf161e2c-60ef-43d3-bd44-f89285e52cac">
        <time>
          <value>2018-04-19T21:22:30.599615Z</value>
          <uncertainty>0.354301348263</uncertainty>
          <lowerUncertainty>0.354301348263</lowerUncertainty>
          <upperUncertainty>0.354301348263</upperUncertainty>
        </time>
        <waveformID networkCode="ZS" stationCode="D138"></waveformID>
        <methodID>smi:local/auto</methodID>
        <phaseHint>P</phaseHint>
      </pick>
      <pick publicID="smi:local/24195d57-24cd-449c-845f-af49e21228c3">
        <time>
          <value>2018-04-19T21:22:27.988506Z</value>
          <uncertainty>0.272515606302</uncertainty>
          <lowerUncertainty>0.272515606302</lowerUncertainty>
          <upperUncertainty>0.272515606302</upperUncertainty>
        </time>
        <waveformID networkCode="NI" stationCode="PURA"></waveformID>
        <methodID>smi:local/auto</methodID>
        <phaseHint>P</phaseHint>
      </pick>
      <pick publicID="smi:local/138c6ed3-a78c-4d9b-93d4-15057817072f">
        <time>
          <value>2018-04-19T21:22:26.643346Z</value>
          <uncertainty>0.218550221628</uncertainty>
          <lowerUncertainty>0.218550221628</lowerUncertainty>
          <upperUncertainty>0.218550221628</upperUncertainty>
        </time>
        <waveformID networkCode="OE" stationCode="OBKA"></waveformID>
        <methodID>smi:local/auto</methodID>
        <phaseHint>P</phaseHint>
      </pick>
      <pick publicID="smi:local/21e0b0a6-78e8-45c2-bea2-a330a2289a69">
        <time>
          <value>2018-04-19T21:22:29.293230Z</value>
          <uncertainty>0.4005269419165</uncertainty>
          <lowerUncertainty>0.400526941916</lowerUncertainty>
          <upperUncertainty>0.400526941916</upperUncertainty>
        </time>
        <waveformID networkCode="ZS" stationCode="D026"></waveformID>
        <methodID>smi:local/auto</methodID>
        <phaseHint>P</phaseHint>
      </pick>
      <pick publicID="smi:local/415efaf6-a2c1-4ecd-9732-6c37788d0756">
        <time>
          <value>2018-04-19T21:22:27.476439Z</value>
          <uncertainty>0.359705099278</uncertainty>
          <lowerUncertainty>0.359705099278</lowerUncertainty>
          <upperUncertainty>0.359705099278</upperUncertainty>
        </time>
        <waveformID networkCode="ZS" stationCode="D142"></waveformID>
        <methodID>smi:local/auto</methodID>
        <phaseHint>P</phaseHint>
      </pick>
      <pick publicID="smi:local/842759bc-9043-4a9f-907d-af244603be59">
        <time>
          <value>2018-04-19T21:22:44.131546Z</value>
          <uncertainty>0.478008581741</uncertainty>
          <lowerUncertainty>0.478008581741</lowerUncertainty>
          <upperUncertainty>0.478008581741</upperUncertainty>
        </time>
        <waveformID networkCode="Z3" stationCode="A155A"></waveformID>
        <methodID>smi:local/auto</methodID>
        <phaseHint>P</phaseHint>
      </pick>
      <pick publicID="smi:local/8f752dae-0375-4cf7-b314-ae09cf0c12d6">
        <time>
          <value>2018-04-19T21:22:34.000776Z</value>
          <uncertainty>0.768771436</uncertainty>
          <lowerUncertainty>0.768771435999</lowerUncertainty>
          <upperUncertainty>0.768771435999</upperUncertainty>
        </time>
        <waveformID networkCode="Z3" stationCode="A178B"></waveformID>
        <methodID>smi:local/auto</methodID>
        <phaseHint>P</phaseHint>
      </pick>
      <pick publicID="smi:local/01004cfa-0719-4273-b8cd-8f7ac664409a">
        <time>
          <value>2018-04-19T21:22:22.991681Z</value>
          <uncertainty>0.371037159951</uncertainty>
          <lowerUncertainty>0.371037159951</lowerUncertainty>
          <upperUncertainty>0.371037159951</upperUncertainty>
        </time>
        <waveformID networkCode="Z3" stationCode="A305A"></waveformID>
        <methodID>smi:local/auto</methodID>
        <phaseHint>P</phaseHint>
      </pick>
      <pick publicID="smi:local/8147f7fb-a8a8-4646-94ac-0169a0ced6fc">
        <time>
          <value>2018-04-19T21:22:30.965306Z</value>
          <uncertainty>0.3742490668135</uncertainty>
          <lowerUncertainty>0.374249066813</lowerUncertainty>
          <upperUncertainty>0.374249066813</upperUncertainty>
        </time>
        <waveformID networkCode="Z3" stationCode="A029A"></waveformID>
        <methodID>smi:local/auto</methodID>
        <phaseHint>P</phaseHint>
      </pick>
      <pick publicID="smi:local/639d6e2b-d6fc-46b0-a174-3ac930dbb6d0">
        <time>
          <value>2018-04-19T21:22:20.516629Z</value>
          <uncertainty>0.3276027971945</uncertainty>
          <lowerUncertainty>0.327602797194</lowerUncertainty>
          <upperUncertainty>0.327602797194</upperUncertainty>
        </time>
        <waveformID networkCode="IV" stationCode="PLMA"></waveformID>
        <methodID>smi:local/auto</methodID>
        <phaseHint>P</phaseHint>
      </pick>
      <pick publicID="smi:local/c90f84d8-ba72-406f-9037-a863d9a7b89d">
        <time>
          <value>2018-04-19T21:22:20.968955Z</value>
          <uncertainty>0.3717138582625</uncertainty>
          <lowerUncertainty>0.371713858262</lowerUncertainty>
          <upperUncertainty>0.371713858262</upperUncertainty>
        </time>
        <waveformID networkCode="IV" stationCode="MTRZ"></waveformID>
        <methodID>smi:local/auto</methodID>
        <phaseHint>P</phaseHint>
      </pick>
      <pick publicID="smi:local/d33dbca1-43af-4209-b3eb-c75a151ad163">
        <time>
          <value>2018-04-19T21:22:15.394150Z</value>
          <uncertainty>0.061670322827</uncertainty>
          <lowerUncertainty>0.0616703228271</lowerUncertainty>
          <upperUncertainty>0.0616703228271</upperUncertainty>
        </time>
        <waveformID networkCode="MN" stationCode="BLY"></waveformID>
        <methodID>smi:local/auto</methodID>
        <phaseHint>P</phaseHint>
      </pick>
      <pick publicID="smi:local/54113ce7-c680-4cf0-8dc4-f2e608ba737a">
        <time>
          <value>2018-04-19T21:22:26.727793Z</value>
          <uncertainty>0.227404679468</uncertainty>
          <lowerUncertainty>0.227404679468</lowerUncertainty>
          <upperUncertainty>0.227404679468</upperUncertainty>
        </time>
        <waveformID networkCode="ZS" stationCode="D145"></waveformID>
        <methodID>smi:local/auto</methodID>
        <phaseHint>P</phaseHint>
      </pick>
      <pick publicID="smi:local/90ccf6d7-0e7c-43aa-8f06-4fbab4d6d765">
        <time>
          <value>2018-04-19T21:22:21.610780Z</value>
          <uncertainty>0.302294701574</uncertainty>
          <lowerUncertainty>0.302294701574</lowerUncertainty>
          <upperUncertainty>0.302294701574</upperUncertainty>
        </time>
        <waveformID networkCode="Z3" stationCode="A264A"></waveformID>
        <methodID>smi:local/auto</methodID>
        <phaseHint>P</phaseHint>
      </pick>
      <pick publicID="smi:local/6e1285bb-42d5-4cae-b74e-e7c4cc56368c">
        <time>
          <value>2018-04-19T21:22:33.060476Z</value>
          <uncertainty>0.3586920699825</uncertainty>
          <lowerUncertainty>0.358692069982</lowerUncertainty>
          <upperUncertainty>0.358692069982</upperUncertainty>
        </time>
        <waveformID networkCode="Z3" stationCode="A014A"></waveformID>
        <methodID>smi:local/auto</methodID>
        <phaseHint>P</phaseHint>
      </pick>
      <pick publicID="smi:local/5ae2152b-9aae-4570-896a-49ba2a7b5f3b">
        <time>
          <value>2018-04-19T21:22:24.806262Z</value>
          <uncertainty>0.253032001956</uncertainty>
          <lowerUncertainty>0.253032001956</lowerUncertainty>
          <upperUncertainty>0.253032001956</upperUncertainty>
        </time>
        <waveformID networkCode="GU" stationCode="PCP"></waveformID>
        <methodID>smi:local/auto</methodID>
        <phaseHint>P</phaseHint>
      </pick>
      <pick publicID="smi:local/49c1c9e7-0585-4703-a4a2-c142d47b35f3">
        <time>
          <value>2018-04-19T21:22:26.989523Z</value>
          <uncertainty>0.249306840254</uncertainty>
          <lowerUncertainty>0.249306840254</lowerUncertainty>
          <upperUncertainty>0.249306840254</upperUncertainty>
        </time>
        <waveformID networkCode="Z3" stationCode="A010A"></waveformID>
        <methodID>smi:local/auto</methodID>
        <phaseHint>P</phaseHint>
      </pick>
      <pick publicID="smi:local/3dd80033-8aef-4220-9a48-7fe44d132b2c">
        <time>
          <value>2018-04-19T21:22:38.025111Z</value>
          <uncertainty>0.4544541228255</uncertainty>
          <lowerUncertainty>0.454454122826</lowerUncertainty>
          <upperUncertainty>0.454454122826</upperUncertainty>
        </time>
        <waveformID networkCode="FR" stationCode="FRNF"></waveformID>
        <methodID>smi:local/auto</methodID>
        <phaseHint>P</phaseHint>
      </pick>
      <pick publicID="smi:local/68970baa-7e29-4540-ae4a-f7db4de2fa7e">
        <time>
          <value>2018-04-19T21:22:26.012640Z</value>
          <uncertainty>0.203216082435</uncertainty>
          <lowerUncertainty>0.203216082435</lowerUncertainty>
          <upperUncertainty>0.203216082435</upperUncertainty>
        </time>
        <waveformID networkCode="FR" stationCode="SALSA"></waveformID>
        <methodID>smi:local/auto</methodID>
        <phaseHint>P</phaseHint>
      </pick>
      <pick publicID="smi:local/7d0d3bf3-2916-4d65-b242-8708edc3eaa2">
        <time>
          <value>2018-04-19T21:22:25.629666Z</value>
          <uncertainty>0.4985567398005</uncertainty>
          <lowerUncertainty>0.498556739801</lowerUncertainty>
          <upperUncertainty>0.498556739801</upperUncertainty>
        </time>
        <waveformID networkCode="FR" stationCode="SPIF"></waveformID>
        <methodID>smi:local/auto</methodID>
        <phaseHint>P</phaseHint>
      </pick>
      <pick publicID="smi:local/84d76e09-3256-423f-94a8-4bf5ae76b7f5">
        <time>
          <value>2018-04-19T21:22:27.136830Z</value>
          <uncertainty>0.446413195625</uncertainty>
          <lowerUncertainty>0.446413195625</lowerUncertainty>
          <upperUncertainty>0.446413195625</upperUncertainty>
        </time>
