<?xml version='1.0' encoding='utf-8'?>
<q:quakeml xmlns:q="http://quakeml.org/xmlns/quakeml/1.2" xmlns="http://quakeml.org/xmlns/bed/1.2">
  <eventParameters publicID="smi:local/1796364a-7f88-4df5-8500-25572fdc57de">
    <event publicID="smi:local/20170717_110513.a">
      <origin publicID="smi:local/ndk/C201707171105A/origin#cmtorigin">
        <time>
          <value>2017-07-17T11:05:13.200000Z</value>
        </time>
        <latitude>
          <value>54.63</value>
        </latitude>
        <longitude>
          <value>168.62</value>
        </longitude>
        <depth>
          <value>16.0</value>
        </depth>
      </origin>
      <magnitude publicID="smi:local/4ee3223c-0440-41d3-98ac-9c5f8b704f34">
        <mag>
          <value>6.33</value>
        </mag>
        <type>Mwc</type>
        <originID>smi:local/ndk/C201707171105A/origin#cmtorigin</originID>
      </magnitude>
      <pick publicID="smi:local/57c0f5ea-d93e-49c0-b815-b0070d5613d1">
        <time>
          <value>2017-07-17T11:16:57.268422Z</value>
          <uncertainty>0.204974906133</uncertainty>
          <lowerUncertainty>0.204974906133</lowerUncertainty>
          <upperUncertainty>0.204974906133</upperUncertainty>
        </time>
        <waveformID networkCode="BW" stationCode="RJOB"></waveformID>
        <methodID>smi:local/auto</methodID>
        <phaseHint>P</phaseHint>
      </pick>
      <pick publicID="smi:local/9e02b337-b8e4-49d0-a28e-3e2fd8251b5f">
        <time>
          <value>2017-07-17T11:17:07.362713Z</value>
          <uncertainty>0.1065678347055</uncertainty>
          <lowerUncertainty>0.106567834705</lowerUncertainty>
          <upperUncertainty>0.106567834705</upperUncertainty>
        </time>
        <waveformID networkCode="CH" stationCode="BERNI"></waveformID>
        <methodID>smi:local/auto</methodID>
        <phaseHint>P</phaseHint>
      </pick>
      <pick publicID="smi:local/6f7a02cb-3d12-4085-90e1-43eadf68bbaa">
        <time>
          <value>2017-07-17T11:17:01.097003Z</value>
          <uncertainty>0.108160940037</uncertainty>
          <lowerUncertainty>0.108160940037</lowerUncertainty>
          <upperUncertainty>0.108160940037</upperUncertainty>
        </time>
        <waveformID networkCode="Z3" stationCode="A027A"></waveformID>
        <methodID>smi:local/auto</methodID>
        <phaseHint>P</phaseHint>
      </pick>
      <pick publicID="smi:local/32cc1576-bb65-41ff-acd2-40049c4835b4">
        <time>
          <value>2017-07-17T11:17:17.947946Z</value>
          <uncertainty>0.076577719406</uncertainty>
          <lowerUncertainty>0.0765777194061</lowerUncertainty>
          <upperUncertainty>0.0765777194061</upperUncertainty>
        </time>
        <waveformID networkCode="FR" stationCode="OGSA"></waveformID>
        <methodID>smi:local/auto</methodID>
        <phaseHint>P</phaseHint>
      </pick>
      <pick publicID="smi:local/3baf38e7-804e-44b3-9983-8d617379640d">
        <time>
          <value>2017-07-17T11:17:22.512977Z</value>
          <uncertainty>0.08925644661</uncertainty>
          <lowerUncertainty>0.0892564466099</lowerUncertainty>
          <upperUncertainty>0.0892564466099</upperUncertainty>
        </time>
        <waveformID networkCode="FR" stationCode="BANN"></waveformID>
        <methodID>smi:local/auto</methodID>
        <phaseHint>P</phaseHint>
      </pick>
      <pick publicID="smi:local/97bf6599-0a9a-4145-9e71-b26c7a530816">
        <time>
          <value>2017-07-17T11:17:00.753991Z</value>
          <uncertainty>0.080889751383</uncertainty>
          <lowerUncertainty>0.0808897513832</lowerUncertainty>
          <upperUncertainty>0.0808897513832</upperUncertainty>
        </time>
        <waveformID networkCode="Z3" stationCode="A105A"></waveformID>
        <methodID>smi:local/auto</methodID>
        <phaseHint>P</phaseHint>
      </pick>
      <pick publicID="smi:local/778dc533-26bc-44c3-ad64-445ea3ac2cca">
        <time>
          <value>2017-07-17T11:17:10.602201Z</value>
          <uncertainty>0.4329277577615</uncertainty>
          <lowerUncertainty>0.432927757762</lowerUncertainty>
          <upperUncertainty>0.432927757762</upperUncertainty>
        </time>
        <waveformID networkCode="Z3" stationCode="A303A"></waveformID>
        <methodID>smi:local/auto</methodID>
        <phaseHint>P</phaseHint>
      </pick>
      <pick publicID="smi:local/d12016cd-e377-4efd-b19d-27ebba3887c2">
        <time>
          <value>2017-07-17T11:17:20.563278Z</value>
          <uncertainty>0.165834708293</uncertainty>
          <lowerUncertainty>0.165834708293</lowerUncertainty>
          <upperUncertainty>0.165834708293</upperUncertainty>
        </time>
        <waveformID networkCode="IV" stationCode="CRE"></waveformID>
        <methodID>smi:local/auto</methodID>
        <phaseHint>P</phaseHint>
      </pick>
      <pick publicID="smi:local/16ba4133-5cc3-4685-b781-1983faa0a023">
        <time>
          <value>2017-07-17T11:17:18.688800Z</value>
          <uncertainty>0.0793152554625</uncertainty>
          <lowerUncertainty>0.0793152554625</lowerUncertainty>
          <upperUncertainty>0.0793152554625</upperUncertainty>
        </time>
        <waveformID networkCode="IV" stationCode="BDI"></waveformID>
        <methodID>smi:local/auto</methodID>
        <phaseHint>P</phaseHint>
      </pick>
      <pick publicID="smi:local/c18ccf1d-18a2-4a99-9c93-fb0a0c408851">
        <time>
          <value>2017-07-17T11:17:20.880496Z</value>
          <uncertainty>0.116968604615</uncertainty>
          <lowerUncertainty>0.116968604615</lowerUncertainty>
          <upperUncertainty>0.116968604615</upperUncertainty>
        </time>
        <waveformID networkCode="Z3" stationCode="A194A"></waveformID>
        <methodID>smi:local/auto</methodID>
        <phaseHint>P</phaseHint>
      </pick>
      <pick publicID="smi:local/c00e8451-eb41-4ddf-97bd-b42bd2dc718e">
        <time>
          <value>2017-07-17T11:17:20.696918Z</value>
          <uncertainty>0.310387337256</uncertainty>
          <lowerUncertainty>0.310387337256</lowerUncertainty>
          <upperUncertainty>0.310387337256</upperUncertainty>
        </time>
        <waveformID networkCode="IV" stationCode="APEC"></waveformID>
        <methodID>smi:local/auto</methodID>
        <phaseHint>P</phaseHint>
      </pick>
      <pick publicID="smi:local/81712f06-1bd6-4053-b7fe-9beae5832954">
        <time>
          <value>2017-07-17T11:17:06.833703Z</value>
          <uncertainty>0.1915643454605</uncertainty>
          <lowerUncertainty>0.19156434546</lowerUncertainty>
          <upperUncertainty>0.19156434546</upperUncertainty>
        </time>
        <waveformID networkCode="CH" stationCode="TORNY"></waveformID>
        <methodID>smi:local/auto</methodID>
        <phaseHint>P</phaseHint>
      </pick>
      <pick publicID="smi:local/12965b97-2e18-4460-bf28-a20c23081976">
        <time>
          <value>2017-07-17T11:17:27.080739Z</value>
          <uncertainty>0.133956830947</uncertainty>
          <lowerUncertainty>0.133956830947</lowerUncertainty>
          <upperUncertainty>0.133956830947</upperUncertainty>
        </time>
        <waveformID networkCode="IV" stationCode="PTQR"></waveformID>
        <methodID>smi:local/auto</methodID>
        <phaseHint>P</phaseHint>
      </pick>
      <pick publicID="smi:local/4b7a4ebb-4628-4351-8490-f7a29f55792b">
        <time>
          <value>2017-07-17T11:17:05.115152Z</value>
          <uncertainty>0.117644806216</uncertainty>
          <lowerUncertainty>0.117644806216</lowerUncertainty>
          <upperUncertainty>0.117644806216</upperUncertainty>
        </time>
        <waveformID networkCode="Z3" stationCode="A060B"></waveformID>
        <methodID>smi:local/auto</methodID>
        <phaseHint>P</phaseHint>
      </pick>
      <pick publicID="smi:local/cac56c78-8994-45f5-946b-6c4663744be8">
        <time>
          <value>2017-07-17T11:17:18.048243Z</value>
          <uncertainty>0.1142529408305</uncertainty>
          <lowerUncertainty>0.11425294083</lowerUncertainty>
          <upperUncertainty>0.11425294083</upperUncertainty>
        </time>
        <waveformID networkCode="GU" stationCode="RRL"></waveformID>
        <methodID>smi:local/auto</methodID>
        <phaseHint>P</phaseHint>
      </pick>
      <pick publicID="smi:local/07ed62b8-1116-497b-8665-b9af4775d1e8">
        <time>
          <value>2017-07-17T11:16:39.524806Z</value>
          <uncertainty>0.0553370280965</uncertainty>
          <lowerUncertainty>0.0553370280967</lowerUncertainty>
          <upperUncertainty>0.0553370280967</upperUncertainty>
        </time>
        <waveformID networkCode="TH" stationCode="HKWD"></waveformID>
        <methodID>smi:local/auto</methodID>
        <phaseHint>P</phaseHint>
      </pick>
      <pick publicID="smi:local/da837678-a19c-4083-8264-ab18588f9c85">
        <time>
          <value>2017-07-17T11:16:59.402401Z</value>
          <uncertainty>0.0864159920035</uncertainty>
          <lowerUncertainty>0.0864159920036</lowerUncertainty>
          <upperUncertainty>0.0864159920036</upperUncertainty>
        </time>
        <waveformID networkCode="Z3" stationCode="A021A"></waveformID>
        <methodID>smi:local/auto</methodID>
        <phaseHint>P</phaseHint>
      </pick>
      <pick publicID="smi:local/0cd16b7b-051a-4f7f-b4e6-a2bb73adafc0">
        <time>
          <value>2017-07-17T11:17:24.563655Z</value>
          <uncertainty>0.484305268418</uncertainty>
          <lowerUncertainty>0.484305268418</lowerUncertainty>
          <upperUncertainty>0.484305268418</upperUncertainty>
        </time>
        <waveformID networkCode="IV" stationCode="ARCI"></waveformID>
        <methodID>smi:local/auto</methodID>
        <phaseHint>P</phaseHint>
      </pick>
      <pick publicID="smi:local/7b94531e-2ee0-4e5e-abad-8a06278b129e">
        <time>
          <value>2017-07-17T11:17:00.402522Z</value>
          <uncertainty>0.175018024145</uncertainty>
          <lowerUncertainty>0.175018024145</lowerUncertainty>
          <upperUncertainty>0.175018024145</upperUncertainty>
        </time>
        <waveformID networkCode="FR" stationCode="MOF"></waveformID>
        <methodID>smi:local/auto</methodID>
        <phaseHint>P</phaseHint>
      </pick>
      <pick publicID="smi:local/26687f74-8085-4aa0-a413-6896bc842684">
        <time>
          <value>2017-07-17T11:16:58.586874Z</value>
          <uncertainty>0.1422954330055</uncertainty>
          <lowerUncertainty>0.142295433005</lowerUncertainty>
          <upperUncertainty>0.142295433005</upperUncertainty>
        </time>
        <waveformID networkCode="Z3" stationCode="A263A"></waveformID>
        <methodID>smi:local/auto</methodID>
        <phaseHint>P</phaseHint>
      </pick>
      <pick publicID="smi:local/32b642e3-9631-4c55-b1d3-003f1c234e18">
        <time>
          <value>2017-07-17T11:17:02.700698Z</value>
          <uncertainty>0.129855785338</uncertainty>
          <lowerUncertainty>0.129855785338</lowerUncertainty>
          <upperUncertainty>0.129855785338</upperUncertainty>
        </time>
        <waveformID networkCode="Z3" stationCode="A160A"></waveformID>
        <methodID>smi:local/auto</methodID>
        <phaseHint>P</phaseHint>
      </pick>
      <pick publicID="smi:local/2e8ae335-5d9e-47f5-b844-2846d8ec52a4">
        <time>
          <value>2017-07-17T11:17:18.635155Z</value>
          <uncertainty>0.078293743625</uncertainty>
          <lowerUncertainty>0.0782937436249</lowerUncertainty>
          <upperUncertainty>0.0782937436249</upperUncertainty>
        </time>
        <waveformID networkCode="GU" stationCode="CARD"></waveformID>
        <methodID>smi:local/auto</methodID>
        <phaseHint>P</phaseHint>
      </pick>
      <pick publicID="smi:local/6eede550-c56b-4d2a-af73-965c9c18606d">
        <time>
          <value>2017-07-17T11:16:53.345803Z</value>
          <uncertainty>0.1862300979855</uncertainty>
          <lowerUncertainty>0.186230097985</lowerUncertainty>
          <upperUncertainty>0.186230097985</upperUncertainty>
        </time>
        <waveformID networkCode="Z3" stationCode="A003A"></waveformID>
        <methodID>smi:local/auto</methodID>
        <phaseHint>P</phaseHint>
      </pick>
      <pick publicID="smi:local/01835fd2-62c3-44dc-878a-4c36724111a7">
        <time>
          <value>2017-07-17T11:17:09.228962Z</value>
          <uncertainty>0.14801415053</uncertainty>
          <lowerUncertainty>0.14801415053</lowerUncertainty>
          <upperUncertainty>0.14801415053</upperUncertainty>
        </time>
        <waveformID networkCode="CH" stationCode="AIGLE"></waveformID>
        <methodID>smi:local/auto</methodID>
        <phaseHint>P</phaseHint>
      </pick>
      <pick publicID="smi:local/7c3d5d2c-fb7d-4136-ae43-0ab964fc841f">
        <time>
          <value>2017-07-17T11:17:23.917987Z</value>
          <uncertainty>0.55939159597</uncertainty>
          <lowerUncertainty>0.559391595969</lowerUncertainty>
          <upperUncertainty>0.559391595969</upperUncertainty>
        </time>
        <waveformID networkCode="FR" stationCode="MLYF"></waveformID>
        <methodID>smi:local/auto</methodID>
        <phaseHint>P</phaseHint>
      </pick>
      <pick publicID="smi:local/d9c0d5c9-9b5b-449c-a7e1-ff6fc6f17c60">
        <time>
          <value>2017-07-17T11:17:24.291393Z</value>
          <uncertainty>0.152531658435</uncertainty>
          <lowerUncertainty>0.152531658435</lowerUncertainty>
          <upperUncertainty>0.152531658435</upperUncertainty>
        </time>
        <waveformID networkCode="FR" stationCode="RUSF"></waveformID>
        <methodID>smi:local/auto</methodID>
        <phaseHint>P</phaseHint>
      </pick>
      <pick publicID="smi:local/88db3f09-6110-460d-9408-4d6635f24eef">
        <time>
          <value>2017-07-17T11:16:53.521429Z</value>
          <uncertainty>0.1916119135805</uncertainty>
          <lowerUncertainty>0.191611913581</lowerUncertainty>
          <upperUncertainty>0.191611913581</upperUncertainty>
        </time>
        <waveformID networkCode="Z3" stationCode="A146A"></waveformID>
        <methodID>smi:local/auto</methodID>
        <phaseHint>P</phaseHint>
      </pick>
      <pick publicID="smi:local/08090ae1-f1c5-4201-b348-a375e61fcbbb">
        <time>
          <value>2017-07-17T11:17:09.612434Z</value>
          <uncertainty>0.199186300398</uncertainty>
          <lowerUncertainty>0.199186300398</lowerUncertainty>
          <upperUncertainty>0.199186300398</upperUncertainty>
        </time>
        <waveformID networkCode="Z3" stationCode="A168A"></waveformID>
        <methodID>smi:local/auto</methodID>
        <phaseHint>P</phaseHint>
      </pick>
      <pick publicID="smi:local/3a7f3b39-cdfc-41b4-b1aa-d169d14271d5">
        <time>
          <value>2017-07-17T11:17:28.311657Z</value>
          <uncertainty>0.1865976594975</uncertainty>
          <lowerUncertainty>0.186597659497</lowerUncertainty>
          <upperUncertainty>0.186597659497</upperUncertainty>
        </time>
        <waveformID networkCode="IV" stationCode="RDP"></waveformID>
        <methodID>smi:local/auto</methodID>
        <phaseHint>P</phaseHint>
      </pick>
      <pick publicID="smi:local/02a1bd0b-ee5e-4e86-91e0-b72b7a6657fb">
        <time>
          <value>2017-07-17T11:17:07.673755Z</value>
          <uncertainty>0.096787809481</uncertainty>
          <lowerUncertainty>0.0967878094809</lowerUncertainty>
          <upperUncertainty>0.0967878094809</upperUncertainty>
        </time>
        <waveformID networkCode="Z3" stationCode="A251A"></waveformID>
        <methodID>smi:local/auto</methodID>
        <phaseHint>P</phaseHint>
      </pick>
      <pick publicID="smi:local/e1461124-3557-4be6-b43a-943467335ea2">
        <time>
          <value>2017-07-17T11:17:06.509286Z</value>
          <uncertainty>0.0344161854153</uncertainty>
          <lowerUncertainty>0.0344161854153</lowerUncertainty>
          <upperUncertainty>0.0344161854153</upperUncertainty>
        </time>
        <waveformID networkCode="NI" stationCode="DST2"></waveformID>
        <methodID>smi:local/auto</methodID>
        <phaseHint>P</phaseHint>
      </pick>
      <pick publicID="smi:local/fdcbbe7f-ccd1-40cb-a4a0-892891581bf5">
        <time>
          <value>2017-07-17T11:17:03.152787Z</value>
          <uncertainty>0.2688495551345</uncertainty>
          <lowerUncertainty>0.268849555134</lowerUncertainty>
          <upperUncertainty>0.268849555134</upperUncertainty>
        </time>
        <waveformID networkCode="OE" stationCode="FETA"></waveformID>
        <methodID>smi:local/auto</methodID>
        <phaseHint>P</phaseHint>
      </pick>
      <pick publicID="smi:local/cc7351cd-2865-4b25-962f-eaecd538730c">
        <time>
          <value>2017-07-17T11:17:02.054830Z</value>
          <uncertainty>0.095694663205</uncertainty>
          <lowerUncertainty>0.095694663205</lowerUncertainty>
          <upperUncertainty>0.095694663205</upperUncertainty>
        </time>
        <waveformID networkCode="CH" stationCode="ROTHE"></waveformID>
        <methodID>smi:local/auto</methodID>
        <phaseHint>P</phaseHint>
      </pick>
      <pick publicID="smi:local/1160ce03-31f3-4771-b985-f4aa6a9b2d81">
        <time>
          <value>2017-07-17T11:17:07.669815Z</value>
          <uncertainty>0.137530602312</uncertainty>
          <lowerUncertainty>0.137530602312</lowerUncertainty>
          <upperUncertainty>0.137530602312</upperUncertainty>
        </time>
        <waveformID networkCode="SI" stationCode="LUSI"></waveformID>
        <methodID>smi:local/auto</methodID>
        <phaseHint>P</phaseHint>
      </pick>
      <pick publicID="smi:local/64f6aeef-8802-46c4-a13b-ed81001063ab">
        <time>
          <value>2017-07-17T11:17:27.056352Z</value>
          <uncertainty>0.1142366190025</uncertainty>
          <lowerUncertainty>0.114236619002</lowerUncertainty>
          <upperUncertainty>0.114236619002</upperUncertainty>
        </time>
        <waveformID networkCode="Z3" stationCode="A205A"></waveformID>
        <methodID>smi:local/auto</methodID>
        <phaseHint>P</phaseHint>
      </pick>
      <pick publicID="smi:local/63a7733c-edff-4b92-836c-10316d6f46b7">
        <time>
          <value>2017-07-17T11:17:28.388676Z</value>
          <uncertainty>0.898938648695</uncertainty>
          <lowerUncertainty>0.898938648696</lowerUncertainty>
          <upperUncertainty>0.898938648696</upperUncertainty>
        </time>
        <waveformID networkCode="Z3" stationCode="A416A"></waveformID>
        <methodID>smi:local/auto</methodID>
        <phaseHint>P</phaseHint>
      </pick>
      <pick publicID="smi:local/69c074af-45ad-4b75-8148-30c89718cb20">
        <time>
          <value>2017-07-17T11:17:32.683305Z</value>
          <uncertainty>0.662941792715</uncertainty>
          <lowerUncertainty>0.662941792713</lowerUncertainty>
          <upperUncertainty>0.662941792713</upperUncertainty>
        </time>
        <waveformID networkCode="Z3" stationCode="A404A"></waveformID>
        <methodID>smi:local/auto</methodID>
        <phaseHint>P</phaseHint>
      </pick>
      <pick publicID="smi:local/1f2b60fa-ac05-4cd9-b052-cf6321a22bb2">
        <time>
          <value>2017-07-17T11:17:26.084512Z</value>
          <uncertainty>0.230859460108</uncertainty>
          <lowerUncertainty>0.230859460108</lowerUncertainty>
          <upperUncertainty>0.230859460108</upperUncertainty>
        </time>
        <waveformID networkCode="IV" stationCode="SRES"></waveformID>
        <methodID>smi:local/auto</methodID>
        <phaseHint>P</phaseHint>
      </pick>
      <pick publicID="smi:local/bb6740c6-49df-4fbb-8ef3-9a07da5a5507">
        <time>
          <value>2017-07-17T11:16:44.986855Z</value>
          <uncertainty>0.074675076669</uncertainty>
          <lowerUncertainty>0.0746750766688</lowerUncertainty>
          <upperUncertainty>0.0746750766688</upperUncertainty>
        </time>
