<?xml version='1.0' encoding='utf-8'?>
<q:quakeml xmlns:q="http://quakeml.org/xmlns/quakeml/1.2" xmlns="http://quakeml.org/xmlns/bed/1.2">
  <eventParameters publicID="smi:local/35d8095c-061c-4074-af2c-0aae6334168a">
    <event publicID="smi:local/20180110_025144.a">
      <origin publicID="smi:local/ndk/C201801100251A/origin#cmtorigin">
        <time>
          <value>2018-01-10T02:51:44.300000Z</value>
        </time>
        <latitude>
          <value>17.56</value>
        </latitude>
        <longitude>
          <value>-83.86</value>
        </longitude>
        <depth>
          <value>16.5</value>
        </depth>
      </origin>
      <magnitude publicID="smi:local/5851d8af-63ab-4f1c-897f-1f521c4d4255">
        <mag>
          <value>7.52</value>
        </mag>
        <type>Mwc</type>
        <originID>smi:local/ndk/C201801100251A/origin#cmtorigin</originID>
      </magnitude>
      <pick publicID="smi:local/10cc82e0-2808-42dd-8dd6-4616b195c0d9">
        <time>
          <value>2018-01-10T03:03:49.500158Z</value>
          <uncertainty>0.070604789994</uncertainty>
          <lowerUncertainty>0.0706047899941</lowerUncertainty>
          <upperUncertainty>0.0706047899941</upperUncertainty>
        </time>
        <waveformID networkCode="ZS" stationCode="D029"></waveformID>
        <methodID>smi:local/auto</methodID>
        <phaseHint>P</phaseHint>
      </pick>
      <pick publicID="smi:local/ed909b1c-77b4-4e93-80a1-44723d6eab96">
        <time>
          <value>2018-01-10T03:03:42.355831Z</value>
          <uncertainty>0.073780073756</uncertainty>
          <lowerUncertainty>0.073780073756</lowerUncertainty>
          <upperUncertainty>0.073780073756</upperUncertainty>
        </time>
        <waveformID networkCode="GR" stationCode="GRA4"></waveformID>
        <methodID>smi:local/auto</methodID>
        <phaseHint>P</phaseHint>
      </pick>
      <pick publicID="smi:local/a7371d12-abc8-4a1a-95b2-73b80c26806d">
        <time>
          <value>2018-01-10T03:03:41.838842Z</value>
          <uncertainty>0.0543546763215</uncertainty>
          <lowerUncertainty>0.0543546763217</lowerUncertainty>
          <upperUncertainty>0.0543546763217</upperUncertainty>
        </time>
        <waveformID networkCode="GR" stationCode="GRA3"></waveformID>
        <methodID>smi:local/auto</methodID>
        <phaseHint>P</phaseHint>
      </pick>
      <pick publicID="smi:local/1a4c5a11-3011-45b4-80a9-4700e13d1590">
        <time>
          <value>2018-01-10T03:03:47.603587Z</value>
          <uncertainty>0.066201947954</uncertainty>
          <lowerUncertainty>0.0662019479542</lowerUncertainty>
          <upperUncertainty>0.0662019479542</upperUncertainty>
        </time>
        <waveformID networkCode="ZS" stationCode="D130"></waveformID>
        <methodID>smi:local/auto</methodID>
        <phaseHint>P</phaseHint>
      </pick>
      <pick publicID="smi:local/5c16d71f-8bb2-41de-b503-3b0bf9e7de97">
        <time>
          <value>2018-01-10T03:03:51.484618Z</value>
          <uncertainty>0.0764887975595</uncertainty>
          <lowerUncertainty>0.0764887975594</lowerUncertainty>
          <upperUncertainty>0.0764887975594</upperUncertainty>
        </time>
        <waveformID networkCode="ZS" stationCode="D054"></waveformID>
        <methodID>smi:local/auto</methodID>
        <phaseHint>P</phaseHint>
      </pick>
      <pick publicID="smi:local/57a70a04-b167-435e-98fa-726bab028282">
        <time>
          <value>2018-01-10T03:03:29.954925Z</value>
          <uncertainty>0.094467975953</uncertainty>
          <lowerUncertainty>0.0944679759529</lowerUncertainty>
          <upperUncertainty>0.0944679759529</upperUncertainty>
        </time>
        <waveformID networkCode="FR" stationCode="OGVG"></waveformID>
        <methodID>smi:local/auto</methodID>
        <phaseHint>P</phaseHint>
      </pick>
      <pick publicID="smi:local/7ec040b6-f006-4b59-87e0-a0452a3a4877">
        <time>
          <value>2018-01-10T03:03:44.536962Z</value>
          <uncertainty>0.0662414132695</uncertainty>
          <lowerUncertainty>0.0662414132694</lowerUncertainty>
          <upperUncertainty>0.0662414132694</upperUncertainty>
        </time>
        <waveformID networkCode="SX" stationCode="WERN"></waveformID>
        <methodID>smi:local/auto</methodID>
        <phaseHint>P</phaseHint>
      </pick>
      <pick publicID="smi:local/bfbf8b31-8603-4713-baaf-016f8172c530">
        <time>
          <value>2018-01-10T03:03:45.290494Z</value>
          <uncertainty>0.0949759957095</uncertainty>
          <lowerUncertainty>0.0949759957094</lowerUncertainty>
          <upperUncertainty>0.0949759957094</upperUncertainty>
        </time>
        <waveformID networkCode="ZS" stationCode="D065"></waveformID>
        <methodID>smi:local/auto</methodID>
        <phaseHint>P</phaseHint>
      </pick>
      <pick publicID="smi:local/5e9857ca-d1e3-4e9d-92b2-1ec1cf38dd10">
        <time>
          <value>2018-01-10T03:03:30.662027Z</value>
          <uncertainty>0.137770741657</uncertainty>
          <lowerUncertainty>0.137770741657</lowerUncertainty>
          <upperUncertainty>0.137770741657</upperUncertainty>
        </time>
        <waveformID networkCode="CH" stationCode="AIGLE"></waveformID>
        <methodID>smi:local/auto</methodID>
        <phaseHint>P</phaseHint>
      </pick>
      <pick publicID="smi:local/e3be7ce1-e317-4ea4-b102-64721a015a6e">
        <time>
          <value>2018-01-10T03:03:43.600963Z</value>
          <uncertainty>0.07321430084</uncertainty>
          <lowerUncertainty>0.07321430084</lowerUncertainty>
          <upperUncertainty>0.07321430084</upperUncertainty>
        </time>
        <waveformID networkCode="ZS" stationCode="D062"></waveformID>
        <methodID>smi:local/auto</methodID>
        <phaseHint>P</phaseHint>
      </pick>
      <pick publicID="smi:local/00490940-3514-4c27-8321-ccf9b2909e0a">
        <time>
          <value>2018-01-10T03:03:45.635436Z</value>
          <uncertainty>0.046815763708</uncertainty>
          <lowerUncertainty>0.046815763708</lowerUncertainty>
          <upperUncertainty>0.046815763708</upperUncertainty>
        </time>
        <waveformID networkCode="ZS" stationCode="D106"></waveformID>
        <methodID>smi:local/auto</methodID>
        <phaseHint>P</phaseHint>
      </pick>
      <pick publicID="smi:local/c7d04377-ab77-47f0-8f4b-059f907c1b24">
        <time>
          <value>2018-01-10T03:03:43.326437Z</value>
          <uncertainty>0.0701437018355</uncertainty>
          <lowerUncertainty>0.0701437018354</lowerUncertainty>
          <upperUncertainty>0.0701437018354</upperUncertainty>
        </time>
        <waveformID networkCode="ZS" stationCode="D101"></waveformID>
        <methodID>smi:local/auto</methodID>
        <phaseHint>P</phaseHint>
      </pick>
      <pick publicID="smi:local/f976e81e-6bb1-41de-b66a-edbfcfaacda9">
        <time>
          <value>2018-01-10T03:03:43.835547Z</value>
          <uncertainty>0.050141636017</uncertainty>
          <lowerUncertainty>0.0501416360172</lowerUncertainty>
          <upperUncertainty>0.0501416360172</upperUncertainty>
        </time>
        <waveformID networkCode="GR" stationCode="GRB5"></waveformID>
        <methodID>smi:local/auto</methodID>
        <phaseHint>P</phaseHint>
      </pick>
      <pick publicID="smi:local/9594a8ea-31d9-4ac3-8632-792072db5ef6">
        <time>
          <value>2018-01-10T03:03:42.947808Z</value>
          <uncertainty>0.073425929077</uncertainty>
          <lowerUncertainty>0.073425929077</lowerUncertainty>
          <upperUncertainty>0.073425929077</upperUncertainty>
        </time>
        <waveformID networkCode="OE" stationCode="RETA"></waveformID>
        <methodID>smi:local/auto</methodID>
        <phaseHint>P</phaseHint>
      </pick>
      <pick publicID="smi:local/14784aed-ec2c-4178-afd6-4d42cc776027">
        <time>
          <value>2018-01-10T03:03:27.440851Z</value>
          <uncertainty>0.03579742850385</uncertainty>
          <lowerUncertainty>0.0357974285039</lowerUncertainty>
          <upperUncertainty>0.0357974285039</upperUncertainty>
        </time>
        <waveformID networkCode="FR" stationCode="RONF"></waveformID>
        <methodID>smi:local/auto</methodID>
        <phaseHint>P</phaseHint>
      </pick>
      <pick publicID="smi:local/cd73cf59-f0b1-401f-883c-64f56f22939f">
        <time>
          <value>2018-01-10T03:03:29.041005Z</value>
          <uncertainty>0.0364288722132</uncertainty>
          <lowerUncertainty>0.0364288722132</lowerUncertainty>
          <upperUncertainty>0.0364288722132</upperUncertainty>
        </time>
        <waveformID networkCode="FR" stationCode="MOF"></waveformID>
        <methodID>smi:local/auto</methodID>
        <phaseHint>P</phaseHint>
      </pick>
      <pick publicID="smi:local/63e4c1ef-2a85-44db-b8e0-c7db6611578f">
        <time>
          <value>2018-01-10T03:03:49.330120Z</value>
          <uncertainty>0.04291449168975</uncertainty>
          <lowerUncertainty>0.0429144916897</lowerUncertainty>
          <upperUncertainty>0.0429144916897</upperUncertainty>
        </time>
        <waveformID networkCode="Z3" stationCode="A146A"></waveformID>
        <methodID>smi:local/auto</methodID>
        <phaseHint>P</phaseHint>
      </pick>
      <pick publicID="smi:local/62fcaaa2-c077-4eb5-a951-cac9cace4337">
        <time>
          <value>2018-01-10T03:03:28.966311Z</value>
          <uncertainty>0.0746256857715</uncertainty>
          <lowerUncertainty>0.0746256857713</lowerUncertainty>
          <upperUncertainty>0.0746256857713</upperUncertainty>
        </time>
        <waveformID networkCode="FR" stationCode="RUSF"></waveformID>
        <methodID>smi:local/auto</methodID>
        <phaseHint>P</phaseHint>
      </pick>
      <pick publicID="smi:local/64f06d57-5b03-4056-a787-6ead6810d4cb">
        <time>
          <value>2018-01-10T03:03:46.806522Z</value>
          <uncertainty>0.130124234144</uncertainty>
          <lowerUncertainty>0.130124234144</lowerUncertainty>
          <upperUncertainty>0.130124234144</upperUncertainty>
        </time>
        <waveformID networkCode="IV" stationCode="NDIM"></waveformID>
        <methodID>smi:local/auto</methodID>
        <phaseHint>P</phaseHint>
      </pick>
      <pick publicID="smi:local/7e7a18c3-d939-4c99-8053-e2859701f915">
        <time>
          <value>2018-01-10T03:03:45.023635Z</value>
          <uncertainty>0.0833989792015</uncertainty>
          <lowerUncertainty>0.0833989792017</lowerUncertainty>
          <upperUncertainty>0.0833989792017</upperUncertainty>
        </time>
        <waveformID networkCode="CZ" stationCode="NKC"></waveformID>
        <methodID>smi:local/auto</methodID>
        <phaseHint>P</phaseHint>
      </pick>
      <pick publicID="smi:local/e1baf2c8-797d-4047-b433-d8d18e15e082">
        <time>
          <value>2018-01-10T03:03:33.914593Z</value>
          <uncertainty>0.06228513596</uncertainty>
          <lowerUncertainty>0.0622851359599</lowerUncertainty>
          <upperUncertainty>0.0622851359599</upperUncertainty>
        </time>
        <waveformID networkCode="Z3" stationCode="A060B"></waveformID>
        <methodID>smi:local/auto</methodID>
        <phaseHint>P</phaseHint>
      </pick>
      <pick publicID="smi:local/acdda47c-9406-44ff-a269-53f43ffc9c99">
        <time>
          <value>2018-01-10T03:03:30.250856Z</value>
          <uncertainty>0.03774329250355</uncertainty>
          <lowerUncertainty>0.0377432925035</lowerUncertainty>
          <upperUncertainty>0.0377432925035</upperUncertainty>
        </time>
        <waveformID networkCode="FR" stationCode="ARTF"></waveformID>
        <methodID>smi:local/auto</methodID>
        <phaseHint>P</phaseHint>
      </pick>
      <pick publicID="smi:local/20f590a3-9b85-4aba-8bf4-85a531a640ca">
        <time>
          <value>2018-01-10T03:03:48.940253Z</value>
          <uncertainty>0.077298260449</uncertainty>
          <lowerUncertainty>0.0772982604489</lowerUncertainty>
          <upperUncertainty>0.0772982604489</upperUncertainty>
        </time>
        <waveformID networkCode="IV" stationCode="TEOL"></waveformID>
        <methodID>smi:local/auto</methodID>
        <phaseHint>P</phaseHint>
      </pick>
      <pick publicID="smi:local/a938eee1-dba0-4a76-9a96-a3c251d95f70">
        <time>
          <value>2018-01-10T03:03:48.704419Z</value>
          <uncertainty>0.125179874591</uncertainty>
          <lowerUncertainty>0.125179874591</lowerUncertainty>
          <upperUncertainty>0.125179874591</upperUncertainty>
        </time>
        <waveformID networkCode="IV" stationCode="FNVD"></waveformID>
        <methodID>smi:local/auto</methodID>
        <phaseHint>P</phaseHint>
      </pick>
      <pick publicID="smi:local/db905b83-2575-476b-98fe-d39b51eb3a3c">
        <time>
          <value>2018-01-10T03:03:54.942803Z</value>
          <uncertainty>0.06404635634</uncertainty>
          <lowerUncertainty>0.0640463563399</lowerUncertainty>
          <upperUncertainty>0.0640463563399</upperUncertainty>
        </time>
        <waveformID networkCode="Z3" stationCode="A027A"></waveformID>
        <methodID>smi:local/auto</methodID>
        <phaseHint>P</phaseHint>
      </pick>
      <pick publicID="smi:local/7582aa70-7511-49c5-9bd0-1089049b7cf3">
        <time>
          <value>2018-01-10T03:03:42.599350Z</value>
          <uncertainty>0.101797965977</uncertainty>
          <lowerUncertainty>0.101797965977</lowerUncertainty>
          <upperUncertainty>0.101797965977</upperUncertainty>
        </time>
        <waveformID networkCode="CH" stationCode="BERNI"></waveformID>
        <methodID>smi:local/auto</methodID>
        <phaseHint>P</phaseHint>
      </pick>
      <pick publicID="smi:local/32b5f1b1-5eef-45a8-aede-c2d69a661351">
        <time>
          <value>2018-01-10T03:03:59.831893Z</value>
          <uncertainty>0.05155206337</uncertainty>
          <lowerUncertainty>0.05155206337</lowerUncertainty>
          <upperUncertainty>0.05155206337</upperUncertainty>
        </time>
        <waveformID networkCode="CZ" stationCode="VRAC"></waveformID>
        <methodID>smi:local/auto</methodID>
        <phaseHint>P</phaseHint>
      </pick>
      <pick publicID="smi:local/15969ee8-3a24-4f22-ac52-37569c3efa5e">
        <time>
          <value>2018-01-10T03:03:43.768679Z</value>
          <uncertainty>0.03791690729665</uncertainty>
          <lowerUncertainty>0.0379169072966</lowerUncertainty>
          <upperUncertainty>0.0379169072966</upperUncertainty>
        </time>
        <waveformID networkCode="BW" stationCode="FFB3"></waveformID>
        <methodID>smi:local/auto</methodID>
        <phaseHint>P</phaseHint>
      </pick>
      <pick publicID="smi:local/81241922-4267-4fed-a8b2-4f33321e070c">
        <time>
          <value>2018-01-10T03:03:51.641168Z</value>
          <uncertainty>0.0379665330376</uncertainty>
          <lowerUncertainty>0.0379665330376</lowerUncertainty>
          <upperUncertainty>0.0379665330376</upperUncertainty>
        </time>
        <waveformID networkCode="Z3" stationCode="A076A"></waveformID>
        <methodID>smi:local/auto</methodID>
        <phaseHint>P</phaseHint>
      </pick>
      <pick publicID="smi:local/d2eef098-7d12-4f06-9999-d55f77cebc2a">
        <time>
          <value>2018-01-10T03:03:22.847487Z</value>
          <uncertainty>0.04987135810055</uncertainty>
          <lowerUncertainty>0.0498713581006</lowerUncertainty>
          <upperUncertainty>0.0498713581006</upperUncertainty>
        </time>
        <waveformID networkCode="FR" stationCode="BANN"></waveformID>
        <methodID>smi:local/auto</methodID>
        <phaseHint>P</phaseHint>
      </pick>
      <pick publicID="smi:local/d5218058-2433-48cf-b184-cf5fb4c33e00">
        <time>
          <value>2018-01-10T03:03:45.013371Z</value>
          <uncertainty>0.123807314304</uncertainty>
          <lowerUncertainty>0.123807314304</lowerUncertainty>
          <upperUncertainty>0.123807314304</upperUncertainty>
        </time>
        <waveformID networkCode="IV" stationCode="PRMA"></waveformID>
        <methodID>smi:local/auto</methodID>
        <phaseHint>P</phaseHint>
      </pick>
      <pick publicID="smi:local/d8224734-1b09-4fe1-ae9a-e2992d00e943">
        <time>
          <value>2018-01-10T03:03:28.069427Z</value>
          <uncertainty>0.429981487195</uncertainty>
          <lowerUncertainty>0.429981487195</lowerUncertainty>
          <upperUncertainty>0.429981487195</upperUncertainty>
        </time>
        <waveformID networkCode="Z3" stationCode="A404A"></waveformID>
        <methodID>smi:local/auto</methodID>
        <phaseHint>P</phaseHint>
      </pick>
      <pick publicID="smi:local/6472269e-e444-4c49-a931-bc05a0c198b1">
        <time>
          <value>2018-01-10T03:03:52.186954Z</value>
          <uncertainty>0.0955205476615</uncertainty>
          <lowerUncertainty>0.0955205476616</lowerUncertainty>
          <upperUncertainty>0.0955205476616</upperUncertainty>
        </time>
        <waveformID networkCode="ZS" stationCode="D137"></waveformID>
        <methodID>smi:local/auto</methodID>
        <phaseHint>P</phaseHint>
      </pick>
      <pick publicID="smi:local/86da036f-e6e8-46f5-9657-c144db97b2fb">
        <time>
          <value>2018-01-10T03:03:51.046944Z</value>
          <uncertainty>0.0399227525891</uncertainty>
          <lowerUncertainty>0.0399227525891</lowerUncertainty>
          <upperUncertainty>0.0399227525891</upperUncertainty>
        </time>
        <waveformID networkCode="ZS" stationCode="D053"></waveformID>
        <methodID>smi:local/auto</methodID>
        <phaseHint>P</phaseHint>
      </pick>
      <pick publicID="smi:local/4d0e6eae-def8-4843-b6fa-ed5a7c977014">
        <time>
          <value>2018-01-10T03:03:43.647770Z</value>
          <uncertainty>0.052481019483</uncertainty>
          <lowerUncertainty>0.052481019483</lowerUncertainty>
          <upperUncertainty>0.052481019483</upperUncertainty>
        </time>
        <waveformID networkCode="GR" stationCode="GRB2"></waveformID>
        <methodID>smi:local/auto</methodID>
        <phaseHint>P</phaseHint>
      </pick>
      <pick publicID="smi:local/fdd205ec-d69e-4cb7-8451-9e98e9f7366e">
        <time>
          <value>2018-01-10T03:03:54.922803Z</value>
          <uncertainty>0.0830544416525</uncertainty>
          <lowerUncertainty>0.0830544416526</lowerUncertainty>
          <upperUncertainty>0.0830544416526</upperUncertainty>
        </time>
        <waveformID networkCode="ZS" stationCode="D018"></waveformID>
        <methodID>smi:local/auto</methodID>
        <phaseHint>P</phaseHint>
      </pick>
      <pick publicID="smi:local/4bb4a810-8009-4850-a63b-a513b6eaffb8">
        <time>
          <value>2018-01-10T03:03:32.567893Z</value>
          <uncertainty>0.0363698690548</uncertainty>
          <lowerUncertainty>0.0363698690548</lowerUncertainty>
          <upperUncertainty>0.0363698690548</upperUncertainty>
        </time>
        <waveformID networkCode="CH" stationCode="ROTHE"></waveformID>
        <methodID>smi:local/auto</methodID>
        <phaseHint>P</phaseHint>
      </pick>
      <pick publicID="smi:local/9db37c3c-ad5d-43a8-a2ea-ccf830560090">
        <time>
          <value>2018-01-10T03:03:25.506027Z</value>
          <uncertainty>0.064572841401</uncertainty>
          <lowerUncertainty>0.0645728414011</lowerUncertainty>
          <upperUncertainty>0.0645728414011</upperUncertainty>
        </time>
        <waveformID networkCode="FR" stationCode="OG35"></waveformID>
        <methodID>smi:local/auto</methodID>
        <phaseHint>P</phaseHint>
      </pick>
      <pick publicID="smi:local/7627dfc0-ae1d-479e-9d0e-fd7340329aa8">
        <time>
          <value>2018-01-10T03:03:23.838315Z</value>
          <uncertainty>0.0508411902525</uncertainty>
          <lowerUncertainty>0.0508411902525</lowerUncertainty>
          <upperUncertainty>0.0508411902525</upperUncertainty>
