<?xml version='1.0' encoding='utf-8'?>
<q:quakeml xmlns:q="http://quakeml.org/xmlns/quakeml/1.2" xmlns="http://quakeml.org/xmlns/bed/1.2">
  <eventParameters publicID="smi:local/c4727318-6004-42a4-9ec5-f7144bd8a3c3">
    <event publicID="smi:local/20171117_223425.a">
      <origin publicID="smi:local/ndk/C201711172234A/origin#cmtorigin">
        <time>
          <value>2017-11-17T22:34:25.200000Z</value>
        </time>
        <latitude>
          <value>29.69</value>
        </latitude>
        <longitude>
          <value>95.14</value>
        </longitude>
        <depth>
          <value>12.0</value>
        </depth>
      </origin>
      <magnitude publicID="smi:local/bf7acf0b-4272-42b5-8045-9cdc303aa707">
        <mag>
          <value>6.47</value>
        </mag>
        <type>Mwc</type>
        <originID>smi:local/ndk/C201711172234A/origin#cmtorigin</originID>
      </magnitude>
      <pick publicID="smi:local/67ad511f-9b50-428b-bdba-144f0d35db1b">
        <time>
          <value>2017-11-17T22:44:39.390209Z</value>
          <uncertainty>0.1223786427625</uncertainty>
          <lowerUncertainty>0.122378642763</lowerUncertainty>
          <upperUncertainty>0.122378642763</upperUncertainty>
        </time>
        <waveformID networkCode="Z3" stationCode="A050A"></waveformID>
        <methodID>smi:local/auto</methodID>
        <phaseHint>P</phaseHint>
      </pick>
      <pick publicID="smi:local/a003fafa-0358-4564-83cb-238413436264">
        <time>
          <value>2017-11-17T22:45:04.320453Z</value>
          <uncertainty>0.0640206654055</uncertainty>
          <lowerUncertainty>0.0640206654056</lowerUncertainty>
          <upperUncertainty>0.0640206654056</upperUncertainty>
        </time>
        <waveformID networkCode="IV" stationCode="CSNT"></waveformID>
        <methodID>smi:local/auto</methodID>
        <phaseHint>P</phaseHint>
      </pick>
      <pick publicID="smi:local/81704f3e-9d22-4fe8-8397-d1612ad9f22a">
        <time>
          <value>2017-11-17T22:45:10.765368Z</value>
          <uncertainty>0.077606233206</uncertainty>
          <lowerUncertainty>0.0776062332059</lowerUncertainty>
          <upperUncertainty>0.0776062332059</upperUncertainty>
        </time>
        <waveformID networkCode="IV" stationCode="CELB"></waveformID>
        <methodID>smi:local/auto</methodID>
        <phaseHint>P</phaseHint>
      </pick>
      <pick publicID="smi:local/a8743b5f-72eb-4582-a15a-2d8d7a28a2b0">
        <time>
          <value>2017-11-17T22:44:35.224766Z</value>
          <uncertainty>0.054997978025</uncertainty>
          <lowerUncertainty>0.0549979780252</lowerUncertainty>
          <upperUncertainty>0.0549979780252</upperUncertainty>
        </time>
        <waveformID networkCode="MN" stationCode="BLY"></waveformID>
        <methodID>smi:local/auto</methodID>
        <phaseHint>P</phaseHint>
      </pick>
      <pick publicID="smi:local/69cf7782-3eaf-4886-aeb6-dda86888a58e">
        <time>
          <value>2017-11-17T22:45:34.398623Z</value>
          <uncertainty>0.096460316938</uncertainty>
          <lowerUncertainty>0.0964603169381</lowerUncertainty>
          <upperUncertainty>0.0964603169381</upperUncertainty>
        </time>
        <waveformID networkCode="Z3" stationCode="A183A"></waveformID>
        <methodID>smi:local/auto</methodID>
        <phaseHint>P</phaseHint>
      </pick>
      <pick publicID="smi:local/ffa9b841-af53-4208-83ac-ed6ca132eaa2">
        <time>
          <value>2017-11-17T22:44:44.898089Z</value>
          <uncertainty>0.04123105532965</uncertainty>
          <lowerUncertainty>0.0412310553296</lowerUncertainty>
          <upperUncertainty>0.0412310553296</upperUncertainty>
        </time>
        <waveformID networkCode="GR" stationCode="GEC2"></waveformID>
        <methodID>smi:local/auto</methodID>
        <phaseHint>P</phaseHint>
      </pick>
      <pick publicID="smi:local/9825f9e5-8ccf-4e13-83c0-700f5cb0ba4c">
        <time>
          <value>2017-11-17T22:44:36.852022Z</value>
          <uncertainty>0.085244142649</uncertainty>
          <lowerUncertainty>0.0852441426488</lowerUncertainty>
          <upperUncertainty>0.0852441426488</upperUncertainty>
        </time>
        <waveformID networkCode="OE" stationCode="CONA"></waveformID>
        <methodID>smi:local/auto</methodID>
        <phaseHint>P</phaseHint>
      </pick>
      <pick publicID="smi:local/9640593c-e530-4ead-a36d-256a76304801">
        <time>
          <value>2017-11-17T22:44:56.261536Z</value>
          <uncertainty>0.1600470906255</uncertainty>
          <lowerUncertainty>0.160047090626</lowerUncertainty>
          <upperUncertainty>0.160047090626</upperUncertainty>
        </time>
        <waveformID networkCode="ZS" stationCode="D087"></waveformID>
        <methodID>smi:local/auto</methodID>
        <phaseHint>P</phaseHint>
      </pick>
      <pick publicID="smi:local/ff285d20-20c5-4180-941b-a7567c07eb55">
        <time>
          <value>2017-11-17T22:44:58.276794Z</value>
          <uncertainty>0.054635050981</uncertainty>
          <lowerUncertainty>0.054635050981</lowerUncertainty>
          <upperUncertainty>0.054635050981</upperUncertainty>
        </time>
        <waveformID networkCode="IV" stationCode="NRCA"></waveformID>
        <methodID>smi:local/auto</methodID>
        <phaseHint>P</phaseHint>
      </pick>
      <pick publicID="smi:local/eaa4593b-cb86-4f4c-909b-8895123fe149">
        <time>
          <value>2017-11-17T22:44:58.331742Z</value>
          <uncertainty>0.054967986522</uncertainty>
          <lowerUncertainty>0.0549679865218</lowerUncertainty>
          <upperUncertainty>0.0549679865218</upperUncertainty>
        </time>
        <waveformID networkCode="BW" stationCode="ZUGS"></waveformID>
        <methodID>smi:local/auto</methodID>
        <phaseHint>P</phaseHint>
      </pick>
      <pick publicID="smi:local/c22be840-c7ef-4d47-8560-13710289eaf1">
        <time>
          <value>2017-11-17T22:44:25.595106Z</value>
          <uncertainty>0.1013690173215</uncertainty>
          <lowerUncertainty>0.101369017321</lowerUncertainty>
          <upperUncertainty>0.101369017321</upperUncertainty>
        </time>
        <waveformID networkCode="Z3" stationCode="A331A"></waveformID>
        <methodID>smi:local/auto</methodID>
        <phaseHint>P</phaseHint>
      </pick>
      <pick publicID="smi:local/ded314b6-2033-492f-b5c3-2664b461f3e7">
        <time>
          <value>2017-11-17T22:45:24.668326Z</value>
          <uncertainty>0.0893396735375</uncertainty>
          <lowerUncertainty>0.0893396735374</lowerUncertainty>
          <upperUncertainty>0.0893396735374</upperUncertainty>
        </time>
        <waveformID networkCode="Z3" stationCode="A159A"></waveformID>
        <methodID>smi:local/auto</methodID>
        <phaseHint>P</phaseHint>
      </pick>
      <pick publicID="smi:local/a8ac5188-cd88-4ce3-8175-49b180371663">
        <time>
          <value>2017-11-17T22:45:02.796988Z</value>
          <uncertainty>0.3377924479325</uncertainty>
          <lowerUncertainty>0.337792447932</lowerUncertainty>
          <upperUncertainty>0.337792447932</upperUncertainty>
        </time>
        <waveformID networkCode="IV" stationCode="BRMO"></waveformID>
        <methodID>smi:local/auto</methodID>
        <phaseHint>P</phaseHint>
      </pick>
      <pick publicID="smi:local/dc0547fd-9af9-4dea-9002-35b1a50f00a7">
        <time>
          <value>2017-11-17T22:45:12.899698Z</value>
          <uncertainty>0.1640577054135</uncertainty>
          <lowerUncertainty>0.164057705414</lowerUncertainty>
          <upperUncertainty>0.164057705414</upperUncertainty>
        </time>
        <waveformID networkCode="CH" stationCode="FIESA"></waveformID>
        <methodID>smi:local/auto</methodID>
        <phaseHint>P</phaseHint>
      </pick>
      <pick publicID="smi:local/0abc8092-888a-49e8-83f3-fe538c3f5c5c">
        <time>
          <value>2017-11-17T22:44:47.810519Z</value>
          <uncertainty>0.206767597633</uncertainty>
          <lowerUncertainty>0.206767597633</lowerUncertainty>
          <upperUncertainty>0.206767597633</upperUncertainty>
        </time>
        <waveformID networkCode="TH" stationCode="GRZ1"></waveformID>
        <methodID>smi:local/auto</methodID>
        <phaseHint>P</phaseHint>
      </pick>
      <pick publicID="smi:local/1445826e-5a38-4f5b-a454-a5dc84f57a4d">
        <time>
          <value>2017-11-17T22:44:58.227528Z</value>
          <uncertainty>0.0561611684225</uncertainty>
          <lowerUncertainty>0.0561611684223</lowerUncertainty>
          <upperUncertainty>0.0561611684223</upperUncertainty>
        </time>
        <waveformID networkCode="IV" stationCode="SNTG"></waveformID>
        <methodID>smi:local/auto</methodID>
        <phaseHint>P</phaseHint>
      </pick>
      <pick publicID="smi:local/e1d2048d-e658-48d6-8e4d-58e30628be87">
        <time>
          <value>2017-11-17T22:45:24.586714Z</value>
          <uncertainty>0.091288943503</uncertainty>
          <lowerUncertainty>0.0912889435032</lowerUncertainty>
          <upperUncertainty>0.0912889435032</upperUncertainty>
        </time>
        <waveformID networkCode="FR" stationCode="PLYF"></waveformID>
        <methodID>smi:local/auto</methodID>
        <phaseHint>P</phaseHint>
      </pick>
      <pick publicID="smi:local/a452f43d-8a8b-4443-852e-3ca42c2dad5c">
        <time>
          <value>2017-11-17T22:44:40.553232Z</value>
          <uncertainty>0.2374204891135</uncertainty>
          <lowerUncertainty>0.237420489114</lowerUncertainty>
          <upperUncertainty>0.237420489114</upperUncertainty>
        </time>
        <waveformID networkCode="Z3" stationCode="A018A"></waveformID>
        <methodID>smi:local/auto</methodID>
        <phaseHint>P</phaseHint>
      </pick>
      <pick publicID="smi:local/36eb6910-f8d7-4f43-b6ee-6e14d442c1bd">
        <time>
          <value>2017-11-17T22:45:14.867492Z</value>
          <uncertainty>0.0736449795735</uncertainty>
          <lowerUncertainty>0.0736449795737</lowerUncertainty>
          <upperUncertainty>0.0736449795737</upperUncertainty>
        </time>
        <waveformID networkCode="Z3" stationCode="A151A"></waveformID>
        <methodID>smi:local/auto</methodID>
        <phaseHint>P</phaseHint>
      </pick>
      <pick publicID="smi:local/c80d491d-3875-41ca-ac94-e011a70c01c9">
        <time>
          <value>2017-11-17T22:44:25.274563Z</value>
          <uncertainty>0.051242072338</uncertainty>
          <lowerUncertainty>0.0512420723379</lowerUncertainty>
          <upperUncertainty>0.0512420723379</upperUncertainty>
        </time>
        <waveformID networkCode="Z3" stationCode="A335A"></waveformID>
        <methodID>smi:local/auto</methodID>
        <phaseHint>P</phaseHint>
      </pick>
      <pick publicID="smi:local/e9d36be7-6ff2-4568-89d8-8009e868f325">
        <time>
          <value>2017-11-17T22:45:01.222655Z</value>
          <uncertainty>0.0843360575265</uncertainty>
          <lowerUncertainty>0.0843360575266</lowerUncertainty>
          <upperUncertainty>0.0843360575266</upperUncertainty>
        </time>
        <waveformID networkCode="ZS" stationCode="D141"></waveformID>
        <methodID>smi:local/auto</methodID>
        <phaseHint>P</phaseHint>
      </pick>
      <pick publicID="smi:local/1c11cce1-9731-4fc1-b31b-2e227b91a5ed">
        <time>
          <value>2017-11-17T22:44:57.990670Z</value>
          <uncertainty>0.106691920919</uncertainty>
          <lowerUncertainty>0.106691920919</lowerUncertainty>
          <upperUncertainty>0.106691920919</upperUncertainty>
        </time>
        <waveformID networkCode="ZS" stationCode="D025"></waveformID>
        <methodID>smi:local/auto</methodID>
        <phaseHint>P</phaseHint>
      </pick>
      <pick publicID="smi:local/d269afb3-3567-4eb7-93ea-7a11dfedd202">
        <time>
          <value>2017-11-17T22:44:57.047899Z</value>
          <uncertainty>0.372620563565</uncertainty>
          <lowerUncertainty>0.372620563565</lowerUncertainty>
          <upperUncertainty>0.372620563565</upperUncertainty>
        </time>
        <waveformID networkCode="IV" stationCode="GIGS"></waveformID>
        <methodID>smi:local/auto</methodID>
        <phaseHint>P</phaseHint>
      </pick>
      <pick publicID="smi:local/36d05ef7-9114-4a31-ae5b-3cb47727d19e">
        <time>
          <value>2017-11-17T22:45:04.607395Z</value>
          <uncertainty>0.0534892421875</uncertainty>
          <lowerUncertainty>0.0534892421873</lowerUncertainty>
          <upperUncertainty>0.0534892421873</upperUncertainty>
        </time>
        <waveformID networkCode="Z3" stationCode="A102A"></waveformID>
        <methodID>smi:local/auto</methodID>
        <phaseHint>P</phaseHint>
      </pick>
      <pick publicID="smi:local/6a730d30-41b3-4726-bee7-32d3030e689d">
        <time>
          <value>2017-11-17T22:44:47.887354Z</value>
          <uncertainty>0.148082956371</uncertainty>
          <lowerUncertainty>0.148082956371</lowerUncertainty>
          <upperUncertainty>0.148082956371</upperUncertainty>
        </time>
        <waveformID networkCode="ZS" stationCode="D058"></waveformID>
        <methodID>smi:local/auto</methodID>
        <phaseHint>P</phaseHint>
      </pick>
      <pick publicID="smi:local/0c2bdc9f-029f-49d7-9cb2-f73673149b8f">
        <time>
          <value>2017-11-17T22:44:43.900632Z</value>
          <uncertainty>0.23827981341</uncertainty>
          <lowerUncertainty>0.23827981341</lowerUncertainty>
          <upperUncertainty>0.23827981341</upperUncertainty>
        </time>
        <waveformID networkCode="OE" stationCode="MOA"></waveformID>
        <methodID>smi:local/auto</methodID>
        <phaseHint>P</phaseHint>
      </pick>
      <pick publicID="smi:local/03d2cde5-5639-4aeb-9332-7643706399aa">
        <time>
          <value>2017-11-17T22:45:16.597861Z</value>
          <uncertainty>0.152928591327</uncertainty>
          <lowerUncertainty>0.152928591327</lowerUncertainty>
          <upperUncertainty>0.152928591327</upperUncertainty>
        </time>
        <waveformID networkCode="Z3" stationCode="A155A"></waveformID>
        <methodID>smi:local/auto</methodID>
        <phaseHint>P</phaseHint>
      </pick>
      <pick publicID="smi:local/30758fb3-7e43-4004-b3e9-8e6f6a69e168">
        <time>
          <value>2017-11-17T22:45:02.320341Z</value>
          <uncertainty>0.0968534645125</uncertainty>
          <lowerUncertainty>0.0968534645124</lowerUncertainty>
          <upperUncertainty>0.0968534645124</upperUncertainty>
        </time>
        <waveformID networkCode="IV" stationCode="CAFI"></waveformID>
        <methodID>smi:local/auto</methodID>
        <phaseHint>P</phaseHint>
      </pick>
      <pick publicID="smi:local/1e275c8d-5f73-4dca-89b6-a344bbed4bc5">
        <time>
          <value>2017-11-17T22:44:59.159116Z</value>
          <uncertainty>0.1646528589625</uncertainty>
          <lowerUncertainty>0.164652858962</lowerUncertainty>
          <upperUncertainty>0.164652858962</upperUncertainty>
        </time>
        <waveformID networkCode="Z3" stationCode="A304A"></waveformID>
        <methodID>smi:local/auto</methodID>
        <phaseHint>P</phaseHint>
      </pick>
      <pick publicID="smi:local/96a08296-1652-4154-a8d5-e60993ec3c2d">
        <time>
          <value>2017-11-17T22:44:50.880805Z</value>
          <uncertainty>0.160244929738</uncertainty>
          <lowerUncertainty>0.160244929738</lowerUncertainty>
          <upperUncertainty>0.160244929738</upperUncertainty>
        </time>
        <waveformID networkCode="ZS" stationCode="D013"></waveformID>
        <methodID>smi:local/auto</methodID>
        <phaseHint>P</phaseHint>
      </pick>
      <pick publicID="smi:local/bf0f0712-bb44-405a-954f-a854ae364ccb">
        <time>
          <value>2017-11-17T22:44:50.291361Z</value>
          <uncertainty>0.4401086234165</uncertainty>
          <lowerUncertainty>0.440108623416</lowerUncertainty>
          <upperUncertainty>0.440108623416</upperUncertainty>
        </time>
        <waveformID networkCode="ZS" stationCode="D014"></waveformID>
        <methodID>smi:local/auto</methodID>
        <phaseHint>P</phaseHint>
      </pick>
      <pick publicID="smi:local/dbfe9f32-93ff-4bf2-96f1-41d8c009b5fa">
        <time>
          <value>2017-11-17T22:45:05.608618Z</value>
          <uncertainty>0.0651407329165</uncertainty>
          <lowerUncertainty>0.0651407329167</lowerUncertainty>
          <upperUncertainty>0.0651407329167</upperUncertainty>
        </time>
        <waveformID networkCode="IV" stationCode="CRMI"></waveformID>
        <methodID>smi:local/auto</methodID>
        <phaseHint>P</phaseHint>
      </pick>
      <pick publicID="smi:local/b1e8db50-4763-4c3d-bbd3-01111c67ff76">
        <time>
          <value>2017-11-17T22:44:26.941971Z</value>
          <uncertainty>0.078297412334</uncertainty>
          <lowerUncertainty>0.0782974123342</lowerUncertainty>
          <upperUncertainty>0.0782974123342</upperUncertainty>
        </time>
        <waveformID networkCode="CZ" stationCode="MORC"></waveformID>
        <methodID>smi:local/auto</methodID>
        <phaseHint>P</phaseHint>
      </pick>
      <pick publicID="smi:local/9df61dbb-c31a-48cd-a3e1-0de121ed9a86">
        <time>
          <value>2017-11-17T22:45:21.395928Z</value>
          <uncertainty>0.095548365329</uncertainty>
          <lowerUncertainty>0.0955483653288</lowerUncertainty>
          <upperUncertainty>0.0955483653288</upperUncertainty>
        </time>
        <waveformID networkCode="FR" stationCode="SPIF"></waveformID>
        <methodID>smi:local/auto</methodID>
        <phaseHint>P</phaseHint>
      </pick>
      <pick publicID="smi:local/5e6af91f-4657-4075-85ab-ba80878b1a46">
        <time>
          <value>2017-11-17T22:44:28.844036Z</value>
          <uncertainty>0.135010824165</uncertainty>
          <lowerUncertainty>0.135010824165</lowerUncertainty>
          <upperUncertainty>0.135010824165</upperUncertainty>
        </time>
        <waveformID networkCode="HU" stationCode="TIH"></waveformID>
        <methodID>smi:local/auto</methodID>
        <phaseHint>P</phaseHint>
      </pick>
      <pick publicID="smi:local/a9f64f9f-4ccf-42e2-a9e4-208d9945407c">
        <time>
          <value>2017-11-17T22:45:13.275329Z</value>
          <uncertainty>0.0914895654305</uncertainty>
          <lowerUncertainty>0.0914895654306</lowerUncertainty>
          <upperUncertainty>0.0914895654306</upperUncertainty>
        </time>
        <waveformID networkCode="FR" stationCode="ILLF"></waveformID>
        <methodID>smi:local/auto</methodID>
        <phaseHint>P</phaseHint>
      </pick>
      <pick publicID="smi:local/91089fd2-e85a-465b-9ce0-2984edc29fc7">
        <time>
          <value>2017-11-17T22:45:36.338060Z</value>
          <uncertainty>0.04485849672605</uncertainty>
          <lowerUncertainty>0.044858496726</lowerUncertainty>
          <upperUncertainty>0.044858496726</upperUncertainty>
        </time>
        <waveformID networkCode="Z3" stationCode="A187A"></waveformID>
        <methodID>smi:local/auto</methodID>
        <phaseHint>P</phaseHint>
      </pick>
      <pick publicID="smi:local/1f6ad1b9-6ee9-48be-810e-ee88f71865c3">
        <time>
          <value>2017-11-17T22:44:33.971604Z</value>
          <uncertainty>0.132840449332</uncertainty>
          <lowerUncertainty>0.132840449332</lowerUncertainty>
          <upperUncertainty>0.132840449332</upperUncertainty>
        </time>
        <waveformID networkCode="HU" stationCode="SOP"></waveformID>
        <methodID>smi:local/auto</methodID>
        <phaseHint>P</phaseHint>
      </pick>
      <pick publicID="smi:local/a3a98d51-f492-4a0d-a43e-c6a794d95950">
        <time>
          <value>2017-11-17T22:44:39.523969Z</value>
          <uncertainty>0.1305529068755</uncertainty>
          <lowerUncertainty>0.130552906876</lowerUncertainty>
          <upperUncertainty>0.130552906876</upperUncertainty>
        </time>
